iata,icao,name,location,latitude,longitude,website,city,country,country_iso,phone
SXW,,Sauren Airport,"Sauren, Papua New Guinea",0.0,0.0,,,,,
EAP,,metropolitan area2,"Basel, Switzerland / Mulhouse, Alsace, France",0.0,0.0,,,,,
LYG,ZSLG,Lianyungang Baitabu Airport,"Lianyungang, Jiangsu, China",34.564964,118.88171,http://www.lygairport.com,Lianyungang,China,CN,+86 518 8552 1666
YIG,,Big Bay Water Aerodrome (TC: CAF6),"Stuart Island, British Columbia, Canada",0.0,0.0,,,,,
ACI,EGJA,Alderney Airport,"Alderney, Channel Islands, United Kingdom",49.70875,-2.2148435,http://alderney.gov.gg/article/4153/Airport,Saint Anne,Guernsey,GG,+44 1481 822624
APW,NSFA,Faleolo International Airport,"Apia, Upolu Island, Samoa",-13.83045,-172.0081,http://apia.airport-authority.com/,Faleolo,Samoa,WS,+685 23201
LYI,ZSLY,Linyi Shubuling Airport,"Linyi, Shandong, China",35.048244,118.413284,http://www.lyairport.net/,Linyi Shi,China,CN,+86 539 960 0777
LHB,EG74,Bruntingthorpe Aerodrome (Leicester Harboro'/Harbour Airport),"Greater Leicester, England, United Kingdom",52.49083,-1.131193,http://www.bruntingthorpe.com/,,United Kingdom,GB,+44 116 279 9300
MDE,SKRG,José María Córdova International Airport,"Medellín, Colombia",6.1707635,-75.42762,http://www.aeropuertorionegro.co/,,Colombia,CO,+57 4 4025110
MDH,KMDH,Southern Illinois Airport,"Carbondale / Murphysboro, Illinois, United States",37.77748,-89.253624,http://siairport.com/,Murphysboro,United States,US,+1 618-529-1721
YFL,,Fort Reliance Water Aerodrome (CJN8),"Fort Reliance, Northwest Territories, Canada",62.71827,-109.153564,,Reliance,Canada,CA,
MDK,FZEA,Mbandaka Airport,"Mbandaka, Democratic Republic of the Congo",0.022797,18.291508,,Mbandaka,Democratic Republic of the Congo,CD,
LZC,MMLC,Lázaro Cárdenas Airport,"Lázaro Cárdenas, Michoacán, Mexico",17.996086,-102.22336,,La Orilla,Mexico,MX,+52 753 532 1920
AQP,SPQU,Rodríguez Ballón International Airport,"Arequipa, Peru",-16.344688,-71.56765,http://www.aap.com.pe/aeropuerto-internacional-rodriguez-ballon,Cerro Colorado,Peru,PE,+51 54 344834
NKI,,Naukati Bay Seaplane Base (FAA: AK62),"Naukati Bay, Alaska, United States",55.849644,-133.22783,http://www.naukatibay.com/,Ketchikan,United States,US,+1 907-629-4104
AST,KAST,Astoria Regional Airport,"Astoria, Oregon, United States",46.155796,-123.8819,http://www.portofastoria.com/,Warrenton,United States,US,+1 503-861-1222
LZH,ZGZH,Liuzhou Bailian Airport,"Liuzhou, Guangxi, China",24.203135,109.40402,,Liuzhou Shi,China,CN,
MEC,SEMT,Eloy Alfaro International Airport,"Manta, Ecuador",-0.9529062,-80.68416,http://www.aeropuertomanta.com/,Manta,Ecuador,EC,
YHA,,Port Hope Simpson Airport (TC: CCP4),"Port Hope Simpson, Newfoundland and Labrador, Canada",52.528217,-56.2874,,Port Hope Simpson,Canada,CA,
NGR,,Ningerum Airport,"Ningerum, Papua New Guinea",-5.668939,141.14307,,Ningerum,Papua New Guinea,PG,
AFK,,Kondavattavan Tank Seaplane Base,"Ampara, Sri Lanka",0.0,0.0,,,,,
AGK,,Kagua Airport,"Kagua, Papua New Guinea",0.0,0.0,,,,,
BLL,EKBI,Billund Airport,"Billund, Denmark",55.740807,9.1526,http://www.billund-airport.dk/,Billund,Denmark,DK,+45 76 50 50 50
ATH,LGAV,Athens International Airport (Eleftherios Venizelos Airport),"Athens, Greece",37.935646,23.948416,http://www.aia.gr/traveler/,,Greece,GR,+30 21 0353 0000
YLE,,Whatì Airport (TC: CEM3),"Whatì, Northwest Territories, Canada",0.0,0.0,,,,,
MEH,ENMH,Mehamn Airport,"Mehamn, Norway",71.02919,27.826445,https://avinor.no/flyplass/mehamn/,Mehamn,Norway,NO,+47 67 03 51 40
MEI,KMEI,Meridian Regional Airport (Key Field),"Meridian, Mississippi, United States",32.333546,-88.745155,http://www.meridianairport.com/,Meridian,United States,US,+1 601-482-0364
MEL,YMML,Melbourne Airport,"Melbourne, Victoria, Australia",-37.669014,144.84103,http://www.melbourneairport.com.au/,Melbourne Airport,Australia,AU,+61 3 9297 1600
MEM,KMEM,Memphis International Airport,"Memphis, Tennessee, United States",35.04207,-89.97917,http://www.flymemphis.com/,Memphis,United States,US,+1 901-922-8000
MEN,LFNB,Brenoux Airport,"Mende, Languedoc-Roussillon, France",44.501404,3.5328505,,Brenoux,France,FR,+33 4 66 65 14 61
MBS,KMBS,MBS International Airport,"Saginaw / Midland / Bay City, Michigan, United States",43.538628,-84.0821,http://www.mbsairport.org/,Freeland,United States,US,+1 989-695-5555
MBW,YMMB,Moorabbin Airport,"Melbourne, Victoria, Australia",-37.976654,145.09729,http://www.moorabbinairport.com.au/,Moorabbin Airport,Australia,AU,+61 3 8587 8000
MBY,KMBY,Omar N. Bradley Airport,"Moberly, Missouri, United States",39.464077,-92.43198,https://www.moberlymo.org/321/Omar-N-Bradley-Regional-Airport,Moberly,United States,US,+1 660-263-4835
AVP,KAVP,Wilkes-Barre/Scranton International Airport,"Wilkes-Barre / Scranton, Pennsylvania, United States",41.337933,-75.72464,http://flyavp.com/,Avoca,United States,US,+1 570-602-2000
YGQ,CYGQ,Geraldton (Greenstone Regional) Airport,"Greenstone (Geraldton), Ontario, Canada",49.783295,-86.931274,,,Canada,CA,
HIT,AYHO,Haivaro Airport,"Haivaro, Papua New Guinea",0.0,0.0,,,,,
YNN,,Yandicoogina Airport,"Yandicoogina, Western Australia, Australia",0.0,0.0,,,,,
MEO,KMQI,Dare County Regional Airport (FAA: MQI),"Manteo, North Carolina, United States",35.917885,-75.69997,http://www.darenc.com/Airport/,Manteo,United States,US,+1 252-475-5570
MEY,VNMG,Meghauli Airport,"Meghauli, Nepal",27.576616,84.228,,Narayani,Nepal,NP,
YOG,CYKP,Ogoki Post Airport,"Marten Falls (Ogoki), Ontario, Canada",0.0,0.0,,,,,
YEL,CYEL,Elliot Lake Municipal Airport,"Elliot Lake, Ontario, Canada",46.351387,-82.561386,,Elliot Lake,Canada,CA,
YFH,CYFH,Fort Hope Airport,"Eabametoong (Fort Hope), Ontario, Canada",51.56171,-87.90695,,,Canada,CA,
MKZ,WMKM,Malacca International Airport,"Malacca City, Malacca, Malaysia",2.255507,102.25086,http://www.malaysiaairports.com.my/?m=business&c=business_about&id=1,Batu Berendam,Malaysia,MY,+60 6-317 5860
MLC,KMLC,McAlester Regional Airport,"McAlester, Oklahoma, United States",34.882515,-95.783356,,McAlester,United States,US,+1 918-429-9400
YFS,CYFS,Fort Simpson Airport,"Fort Simpson, Northwest Territories, Canada",61.758953,-121.23158,http://www.gov.nt.ca/,Fort Simpson,Canada,CA,+1 867-695-2471
LCO,FCBL,Lague Airport,"Lague, Republic of the Congo",0.0,0.0,,,,,
MLE,VRMM,Ibrahim Nasir International Airport,"Malé, Maldives",4.1887827,73.52858,http://www.macl.aero/,Malé,Maldives,MV,+960 332-3506
AQG,ZSAQ,Anqing Tianzhushan Airport,"Anqing, Anhui, China",30.5831,117.05164,,Anqing,China,CN,+86 556 586 1114
YHU,CYHU,Montréal/Saint-Hubert Airport,"Montreal, Quebec, Canada",45.51994,-73.41346,http://www.dashl.ca/,Longueuil,Canada,CA,+1 450-678-6030
YIV,CYIV,Island Lake Airport (Garden Hill Airport),"Island Lake / Garden Hill, Manitoba, Canada",53.856644,-94.65247,,Island Lake,Canada,CA,+1 204-456-2736
AQI,OEPA,Al Qaisumah/Hafr Al Batin Airport,"Qaisumah / Hafar Al-Batin, Saudi Arabia",28.334408,46.121315,https://gaca.gov.sa/web/en-gb/airport/al-qaisumah-airport,Al Qaisumah,Saudi Arabia,SA,+966 13 724 1609
YGW,CYGW,Kuujjuarapik Airport,"Kuujjuarapik, Quebec, Canada",55.28279,-77.75824,http://www.airinuit.com/,Kuujjuarapik,Canada,CA,+1 819-929-3328
AQJ,OJAQ,King Hussein International Airport,"Aqaba, Jordan",29.613297,35.01994,,Aqaba,Jordan,JO,+962 3 201 2111
YHF,CYHF,Hearst (René Fontaine) Municipal Airport,"Hearst, Ontario, Canada",49.709064,-83.6932,http://www.hearst.ca/en/visitors/hearst-airport/,Hearst,Canada,CA,+1 705-372-2842
ATP,AYAI,Aitape Airstrip,"Aitape, Papua New Guinea",-3.1538272,142.364,,Aitape,Papua New Guinea,PG,
AUP,AYAG,Agaun Airport,"Agaun, Papua New Guinea",0.0,0.0,,,,,
MLG,WARA,Abdul Rachman Saleh Airport,"Malang, Indonesia",-7.937176,112.71169,,,Indonesia,ID,+62 341 2992700
LVI,FLLI,Harry Mwanga Nkumbula International Airport,"Livingstone, Zambia",-17.825253,25.819218,http://www.nacl.co.zm/,Livingstone,Zambia,ZM,+260 21 3321153
AME,,Alto Molocue Airport,"Alto Molocue, Mozambique",0.0,0.0,,,,,
BCZ,,Bickerton Island Airport,"Bickerton Island, Northern Territory, Australia",-13.973647,136.45746,,Anindilyakwa,Australia,AU,
MDN,KIMS,Madison Municipal Airport,"Madison, Indiana, United States",38.760277,-85.46445,http://www.madisonmunicipalairport.com/,Madison,United States,US,+1 812-273-1914
YLR,CYLR,Leaf Rapids Airport,"Leaf Rapids, Manitoba, Canada",56.513332,-99.985275,,Leaf Rapids,Canada,CA,
CNY,KCNY,Canyonlands Field,"Moab, Utah, United States",38.757263,-109.752174,http://www.moabairport.com/,Moab,United States,US,+1 435-259-4849
YLJ,CYLJ,Meadow Lake Airport,"Meadow Lake, Saskatchewan, Canada",38.952473,-104.570404,http://www.meadowlakeairport.com/,Peyton,United States,US,+1 719-339-0928
MDG,ZYMD,Mudanjiang Hailang Airport,"Mudanjiang, Heilongjiang, China",44.524166,129.5689,,Mudanjiang,China,CN,+86 453 665 1666
BCP,AYBC,Bambu Airport,"Bambu, Papua New Guinea",0.0,0.0,,,,,
MEK,GMFM,Bassatine Air Base,"Meknes, Morocco",0.0,0.0,,,,,
YJF,CYJF,Fort Liard Airport,"Fort Liard, Northwest Territories, Canada",60.236153,-123.46978,,Fort Liard,Canada,CA,
YCM,CYSN,St. Catharines/Niagara District Airport,"St. Catharines, Ontario, Canada",43.189358,-79.17107,http://niagaradistrictairport.ca/,Niagara-on-the-Lake,Canada,CA,+1 905-684-7447
BHL,,Bahía de los Ángeles Airport,"Bahía de los Ángeles, Baja California, Mexico",28.891302,-113.528625,,,Mexico,MX,
MEA,SBME,Benedito Lacerda Airport,"Macaé, Rio de Janeiro, Brazil",0.0,0.0,,,,,
MEF,,Melfi Airport,"Melfi, Chad",41.13751,16.765202,http://www.aeroportidipuglia.it/,,Italy,IT,+39 080 580 0200
NNK,,Naknek Airport (FAA: 5NK),"Naknek, Alaska, United States",58.734993,-157.02203,https://nfdc.faa.gov/nfdcApps/airportLookup/airportDisplay.jsp?category=nasr&airportId=5NK,Naknek,United States,US,+1 907-246-3325
WTL,,Tuntutuliak Airport (FAA: A61),"Tuntutuliak, Alaska, United States",60.337868,-162.66292,,Tuntutuliak,United States,US,+1 866-864-1737
YPS,CYPD,Port Hawkesbury Airport,"Port Hawkesbury, Nova Scotia, Canada",45.658543,-61.37666,https://www.celticairservices.com/,Port Hastings,Canada,CA,+1 902-625-2206
YPR,CYPR,Prince Rupert Airport,"Prince Rupert, British Columbia, Canada",54.28611,-130.44472,http://www.ypr.ca/,Prince Rupert,Canada,CA,+1 250-624-6274
BNF,,Warm Springs Bay Seaplane Base,"Baranof Warm Springs, Alaska, United States",57.088825,-134.83315,,Sitka,United States,US,+1 907-465-1786
COD,KCOD,Yellowstone Regional Airport,"Cody, Wyoming, United States",44.520443,-109.02258,http://www.flyyra.com,Cody,United States,US,+1 307-587-5096
MEG,FNMA,Malanje Airport,"Malanje, Angola",-9.525021,16.31285,,Malanje,Angola,AO,+244 934 000 508
MEP,WMAU,Mersing Airport,"Mersing, Johor, Malaysia",2.3885481,103.874886,,Mersing,Malaysia,MY,
AKV,CYKO,Akulivik Airport,"Akulivik, Quebec, Canada",60.818607,-78.14861,http://www.airinuit.com/,Akulivik,Canada,CA,+1 819-496-2213
YKJ,CYKJ,Key Lake Airport,"Key Lake, Saskatchewan, Canada",57.25712,-105.61365,,,Canada,CA,
YMG,CYMG,Manitouwadge Airport,"Manitouwadge, Ontario, Canada",49.08389,-85.86056,,,Canada,CA,
BDO,WICC,Husein Sastranegara International Airport,"Bandung, Indonesia",0.0,0.0,,,,,
YUD,CYMU,Umiujaq Airport,"Umiujaq, Quebec, Canada",56.53611,-76.51833,http://www.airinuit.com/,Umiujaq,Canada,CA,+1 819-331-7004
YFJ,CYWE,Wekweètì Airport (Snare Lake Airport) (TC: CFJ7),"Wekweeti, Northwest Territories, Canada",64.19313,-114.07664,,Wekweètì,Canada,CA,+1 867-713-2910
YPC,CYPC,Nora Aliqatchialuk Ruben Airport,"Paulatuk, Northwest Territories, Canada",69.36128,-124.07743,,Paulatuk,Canada,CA,
BDQ,VABO,Vadodara Airport (Civil Airport Harni),"Vadodara, Gujarat, India",22.332462,73.21706,http://aai.aero/,Vadodara,India,IN,+91 265 248 5356
LAK,CYKD,Aklavik/Freddie Carmichael Airport,"Aklavik, Northwest Territories, Canada",68.226234,-135.01286,,Aklavik,Canada,CA,+1 867-978-2112
MEJ,KGKJ,Port Meadville Airport (FAA: GKJ),"Meadville, Pennsylvania, United States",41.626266,-80.21405,http://www.portmeadvilleairport.com/,Meadville,United States,US,+1 814-333-2677
EWR,KEWR,Newark Liberty International Airport,"Newark, New Jersey, United States",40.689533,-74.17446,http://www.panynj.gov/airports/newark-liberty.html,Newark,United States,US,+1 973-961-6000
MEQ,WITC,Cut Nyak Dhien Airport,"Meulaboh, Indonesia",4.038067,96.25866,,,Indonesia,ID,+62 655 7014560
YXN,CYXN,Whale Cove Airport,"Whale Cove, Nunavut, Canada",62.24072,-92.59792,,Whale Cove,Canada,CA,
MEU,SBMD,Serra do Areão Airport,"Monte Dourado, Pará, Brazil",-0.8882582,-52.599552,,,Brazil,BR,
RLD,KRLD,Richland Airport,"Richland, Washington, United States",46.300797,-119.301094,http://www.wsdot.wa.gov/aviation/AllStateAirports/Richland_Richland.htm,Richland,United States,US,+1 509-375-3060
LEG,,Aleg Airport,"Aleg, Mauritania",0.0,0.0,,,,,
YSK,CYSK,Sanikiluaq Airport,"Sanikiluaq, Nunavut, Canada",56.53781,-79.2466,http://www.airinuit.com/,Sanikiluaq,Canada,CA,+1 867-266-8946
MER,KMER,Castle Airport,"Merced, California, United States",37.37346,-120.57309,http://www.flycastleairport.com/,Atwater,United States,US,+1 209-385-7686
MES,WIMK,Soewondo Air Force Base,"Medan, Indonesia",0.0,0.0,,,,,
NOR,BINF,Norðfjörður Airport,"Nordfjordur, Iceland",65.13352,-13.738226,http://www.isavia.is/,Neskaupstadur,Iceland,IS,+354 477 1214
YCK,CYVL,Colville Lake/Tommy Kochon Aerodrome,"Colville Lake, Northwest Territories, Canada",0.0,0.0,,,,,
MFG,OPMF,Muzaffarabad Airport,"Muzaffarabad, Pakistan",34.34139,73.50584,http://caapakistan.com.pk/,Muzaffarabad,Pakistan,PK,+92 347 5200918
MFI,KMFI,Marshfield Municipal Airport,"Marshfield, Wisconsin, United States",42.09709,-70.67692,http://www.shorelineaviation.net/marshfield-airport-ghg/,Marshfield,United States,US,+1 781-834-4928
YSP,CYSP,Marathon Aerodrome,"Marathon, Ontario, Canada",48.75911,-86.34895,http://www.marathon.ca/town-hall/departments/works-and-operations/airport/,Marathon,Canada,CA,+1 807-229-1183
YST,CYST,St. Theresa Point Airport,"St. Theresa Point, Manitoba, Canada",53.856644,-94.65247,,Island Lake,Canada,CA,+1 204-456-2736
YTA,CYTA,Pembroke Airport,"Pembroke, Ontario, Canada",45.862415,-77.253784,http://www.flycyta.ca/,Pembroke,Canada,CA,+1 613-687-5300
BXL,,Blue Lagoon Seaplane Base,"Nanuya Lailai, Fiji",0.0,0.0,,,,,
YTQ,CYTQ,Tasiujaq Airport,"Tasiujaq, Quebec, Canada",58.66783,-69.95635,,,Canada,CA,
COH,VECO,Cooch Behar Airport,"Cooch Behar, West Bengal, India",26.329725,89.46987,,Cooch Behar,India,IN,+91 3582 222 518
YGZ,CYGZ,Grise Fiord Airport,"Grise Fiord, Nunavut, Canada",76.42611,-82.90945,http://www.grisefiord.ca/,Grise Fiord,Canada,CA,+1 867-980-9959
YLH,CYLH,Lansdowne House Airport,"Neskantaga (Lansdowne House Indian Band), Ontario, Canada",52.19756,-87.93514,,,Canada,CA,+1 807-479-2598
YTL,CYTL,Big Trout Lake Airport,"Kitchenuhmaykoosib Inninuwug (Big Trout Lake), Ontario, Canada",53.818764,-89.83509,,Big Trout Lake,Canada,CA,+1 807-537-2366
COK,VOCI,Cochin International Airport (Nedumbassery Airport),"Kochi (Cochin), Kerala, India",10.151783,76.39296,http://www.cial.aero/,Kochi,India,IN,+91 484 261 0115
CYA,MTCA,Antoine-Simon Airport,"Les Cayes, Haiti",18.27041,-73.78851,,,Haiti,HT,
MFK,RCMT,Matsu Beigan Airport,"Beigan, Taiwan",26.224361,120.00102,http://www.tsa.gov.tw/tsaMFK/zh/home.aspx,,Taiwan,TW,+886 8 365 6606
MEW,FZVM,Mweka Airport,"Mweka, Democratic Republic of the Congo",0.0,0.0,,,,,
MFF,FOOD,Moanda Airport,"Moanda, Gabon",-1.536944,13.270833,,Moanda,Gabon,GA,
SPK,,metropolitan area5,"Sapporo, Hokkaido, Japan",0.0,0.0,,,,,
YVM,CYVM,Qikiqtarjuaq Airport,"Qikiqtarjuaq, Nunavut, Canada",67.54683,-64.02951,,Qikiqtarjuaq,Canada,CA,
MFS,SKMF,Miraflores Airport,"Miraflores, Colombia",1.3385175,-71.95199,,,Colombia,CO,
MBN,,Mount Barnett Airport,"Mount Barnett, Western Australia, Australia",-16.658073,125.959625,,King Leopold Ranges,Australia,AU,
MFQ,DRRM,Maradi Airport,"Maradi, Niger",13.499451,7.120204,,Maradi,Niger,NE,
AGZ,FAAG,Aggeneys Airport,"Aggeneys, South Africa",-29.277264,18.81551,,Aggeneys,South Africa,ZA,
DDC,KDDC,Dodge City Regional Airport,"Dodge City, Kansas, United States",37.765873,-99.9669,http://www.dodgecity.org/index.aspx?nid=60,Dodge City,United States,US,+1 620-225-8170
MFR,KMFR,Rogue Valley International–Medford Airport,"Medford, Oregon, United States",42.368336,-122.87429,http://jacksoncountyor.org/airport,Medford,United States,US,+1 541-776-7222
MZD,,Méndez Airport,"Santiago de Méndez, Ecuador",0.0,0.0,,,,,
YPB,,Alberni Valley Regional Airport (TC: CBS8),"Port Alberni, British Columbia, Canada",49.319683,-124.92952,http://www.acrd.bc.ca/cms.asp?wpID=169,Port Alberni,Canada,CA,+1 866-541-4101
ZLT,,La Tabatière Airport (TC: CTU5),"Gros-Mécatina (La Tabatière), Quebec, Canada",50.83006,-58.976013,,,Canada,CA,+1 418-773-2545
LPB,SLLP,El Alto International Airport,"La Paz, Bolivia",-16.510248,-68.18829,,El Alto,Bolivia,BO,+591 2 2157300
YNL,CYNL,Points North Landing Airport,"Points North Landing, Saskatchewan, Canada",58.27722,-104.08222,http://pointsnorthgroup.ca/,,Canada,CA,+1 306-633-2137
YYL,CYYL,Lynn Lake Airport,"Lynn Lake, Manitoba, Canada",56.86242,-101.06819,http://lynnlake.ca/?page_id=209,Lynn Lake,Canada,CA,+1 204-356-2900
YYU,CYYU,Kapuskasing Airport,"Kapuskasing, Ontario, Canada",49.41831,-82.47014,http://www.kapuskasing.ca/,Kapuskasing,Canada,CA,+1 705-335-2611
ERH,GMFK,Moulay Ali Cherif Airport,"Errachidia, Morocco",0.0,0.0,,,,,
ERI,KERI,Erie International Airport (Tom Ridge Field),"Erie, Pennsylvania, United States",42.08396,-80.172165,http://www.erieairport.org/,Erie,United States,US,+1 814-833-4258
ERL,ZBER,Erenhot Saiwusu International Airport,"Erenhot, Inner Mongolia, China",43.42912,112.105194,,Xilin Gol,China,CN,
EXT,EGTE,Exeter International Airport,"Exeter, England, United Kingdom",50.734386,-3.4177582,http://exeter-airport.co.uk/,Clyst Honiton,United Kingdom,GB,+44 1392 367433
FFA,KFFA,First Flight Airport,"Kill Devil Hills, North Carolina, United States",36.017612,-75.67153,,Kill Devil Hills,United States,US,
SUR,,Summer Beaver Airport (TC: CJV7),"Summer Beaver, Ontario, Canada",52.70861,-88.54195,,,Canada,CA,
XGL,,Granville Lake Airport,"Granville Lake, Manitoba, Canada",56.513332,-99.985275,,Leaf Rapids,Canada,CA,
LPF,ZUPS,Liupanshui Yuezhao Airport[2],"Liupanshui, Guizhou, China",0.0,0.0,,,,,
KES,CZEE,Kelsey Airport,"Kelsey, Manitoba, Canada",56.037792,-96.509605,,,Canada,CA,
YSI,,Parry Sound/Frying Pan Island-Sans Souci Water Aerodrome (TC: CPS9),"Fryingpan Island, Ontario, Canada",0.0,0.0,,,,,
YTH,CYTH,Thompson Airport,"Thompson, Manitoba, Canada",55.80031,-97.86293,http://www.thompsonairport.ca/,Thompson,Canada,CA,+1 204-677-0720
BYX,,Baniyala Airport,"Baniyala, Northern Territory, Australia",-13.198051,136.22694,http://www.airport-information.org/AU/BYX/,Baniyala,Australia,AU,
CGA,,Craig Seaplane Base,"Craig, Alaska, United States",55.478535,-133.14688,,Craig,United States,US,
LPT,VTCL,Lampang Airport,"Lampang, Thailand",18.277802,99.505905,,Phrabat,Thailand,TH,
LTK,OSLK,Bassel Al-Assad International Airport,"Latakia, Syria",35.40724,35.944027,,,Syria,SY,
ZGI,CZGI,Gods River Airport,"Gods River, Manitoba, Canada",54.838142,-94.056435,http://www.gov.mb.ca/mit/namo/air/airports.html,Gods River,Canada,CA,+1 204-366-2216
MAW,KMAW,Malden Regional Airport,"Malden, Missouri, United States",36.600555,-89.992226,http://www.maldenmo.com/,Malden,United States,US,+1 573-276-2279
AGL,AYWG,Wanigela Airport,"Wanigela, Papua New Guinea",0.0,0.0,,,,,
MAX,GOSM,Ouro Sogui Airport,"Matam, Senegal",15.597858,-13.3232355,,Ouro Sogui,Senegal,SN,+221 78 121 53 46
YZP,CYZP,Sandspit Airport,"Sandspit, British Columbia, Canada",53.25307,-131.81721,,Sandspit,Canada,CA,
YZT,CYZT,Port Hardy Airport,"Port Hardy, British Columbia, Canada",50.683823,-127.377235,,Port Hardy,Canada,CA,+1 250-949-6424
YTD,CZLQ,Thicket Portage Airport,"Thicket Portage, Manitoba, Canada",55.3194,-97.707756,,,Canada,CA,
ZPB,CZPB,Sachigo Lake Airport,"Sachigo Lake, Ontario, Canada",53.064163,-93.34444,,Sandy Lake,Canada,CA,
MBA,HKMO,Moi International Airport,"Mombasa, Kenya",-4.0355,39.5973,https://kaa.go.ke/airports/our-airports/moi-international-airport/,Mombasa,Kenya,KE,+254 20 3577058
MGZ,VYME,Myeik Airport,"Myeik, Myanmar",12.44762,98.61908,,Myeik,Myanmar (Burma),MM,+95 59 41 011
MHD,OIMM,Mashhad International Airport (Shahid Hashemi Nejad Airport),"Mashhad, Iran",36.230053,59.64437,,Mashhad,Iran,IR,+98 51 3340 0001
OBA,,Oban Airport,"Oban, Queensland, Australia",56.465652,-5.3976727,http://obanandtheislesairports.com/,North Connel,United Kingdom,GB,+44 1631 572910
LBG,LFPB,Paris–Le Bourget Airport,"Paris, Île-de-France, France",48.96147,2.437202,http://www.parisaeroport.fr/,Le Bourget,France,FR,+33 1 48 62 16 56
LBQ,FOGR,Lambaréné Airport,"Lambaréné, Gabon",0.456963,9.409852,http://www.libreville-aeroport.com/,Libreville,Gabon,GA,+241 01 73 82 82
CGC,AYCG,Cape Gloucester Airport,"Cape Gloucester, Papua New Guinea",0.0,0.0,,,,,
RNA,AGAR,Ulawa Airport,"Arona, Ulawa Island, Solomon Islands",-10.448715,161.89641,,,Solomon Islands,SB,
EYP,SKYP,El Alcaraván Airport,"Yopal, Colombia",5.320657,-72.386215,,,Colombia,CO,+57 8 6358352
EYW,KEYW,Key West International Airport,"Key West, Florida, United States",24.55492,-81.75649,http://www.eyw.com/,Key West,United States,US,+1 305-809-5200
EZE,SAEZ,Ministro Pistarini International Airport,"Buenos Aires, Argentina",-34.815006,-58.53483,http://www.aa2000.com.ar/,Ezeiza,Argentina,AR,+54 11 5480-6111
SDZ,,metropolitan area2,"Shetland Islands, Scotland, United Kingdom",0.0,0.0,,,,,
MLH,LFSB,EuroAirport Basel Mulhouse Freiburg,"Mulhouse, Alsace, France",47.59818,7.525496,http://www.euroairport.com/,Saint-Louis,France,FR,+33 3 89 90 31 11
ZST,CZST,Stewart Aerodrome,"Stewart, British Columbia, Canada",55.93656,-129.98145,,,Canada,CA,
DGE,YMDG,Mudgee Airport,"Mudgee, New South Wales, Australia",-32.563778,149.6156,,Bombira,Australia,AU,
DGT,RPVD,Sibulan Airport (Dumaguete Airport),"Dumaguete, Philippines",9.333735,123.29593,,Sibulan,Philippines,PH,+63 35 225 0900
FNA,GFLL,Lungi International Airport,"Freetown, Sierra Leone",8.615413,-13.200598,http://www.lungiairport.co.uk/,Lungi,Sierra Leone,SL,
MNM,KMNM,Menominee-Marinette Twin County Airport,"Menominee, Michigan, United States",45.124767,-87.630226,http://www.menomineecounty.com/committees/?committee=51b428fab2e2,Menominee,United States,US,+1 906-863-8408
MNO,FZRA,Manono Airport,"Manono, Democratic Republic of the Congo",-7.288772,27.393917,,Manono,Democratic Republic of the Congo,CD,
MQT,KSAW,Sawyer International Airport (FAA: SAW),"Marquette, Michigan, United States",46.349743,-87.38733,http://www.sawyerairport.com/,Gwinn,United States,US,+1 906-346-3308
MHG,EDFM,Mannheim City Airport,"Mannheim, Baden-Württemberg, Germany",49.476425,8.520742,http://www.flugplatz-mannheim.de/,Mannheim,Germany,DE,+49 621 419390
MHH,MYAM,Marsh Harbour Airport,"Marsh Harbour, Abaco Islands, Bahamas",26.510798,-77.08529,https://nfdc.faa.gov/nfdcApps/airportLookup/airportDisplay.jsp?category=nasr&airportId=MYAM,Marsh Harbour,The Bahamas,BS,+1 242-367-5500
MHK,KMHK,Manhattan Regional Airport,"Manhattan, Kansas, United States",39.137123,-96.66993,http://www.flymhk.com/,Manhattan,United States,US,+1 785-587-4597
MHQ,EFMA,Mariehamn Airport,"Mariehamn, Åland Islands, Finland",60.124832,19.907478,https://www.finavia.fi/sv/flygplatser/mariehamn,Jomala,Åland Islands,AX,+358 20 708000
YCQ,CYCQ,Chetwynd Airport,"Chetwynd, British Columbia, Canada",55.69032,-121.618454,http://www.gochetwynd.com/,Chetwynd,Canada,CA,+1 250-401-4100
LDH,YLHI,Lord Howe Island Airport,"Lord Howe Island, New South Wales, Australia",-31.539171,159.07826,http://www.lhib.nsw.gov.au/infrastructure/airport,Lord Howe Island,Australia,AU,+61 2 6563 2066
MQQ,FTTD,Moundou Airport,"Moundou, Chad",8.6235695,16.07157,,Moundou,Chad,TD,
MQS,TVSM,Mustique Airport,"Mustique Island, Saint Vincent and the Grenadines",12.88774,-61.17997,,,Saint Vincent and the Grenadines,VC,
LOZ,KLOZ,London-Corbin Airport (Magee Field),"London, Kentucky, United States",37.08769,-84.07547,http://www.london-corbinairport.com/,London,United States,US,+1 606-878-9100
LPA,GCLP,Gran Canaria Airport,"Gran Canaria, Canary Islands, Spain",27.933186,-15.387707,http://www.aena-aeropuertos.es/csee/Satellite/Aeropuerto-Gran-Canaria/es/,,Spain,ES,+34 928 57 91 30
LOQ,FBLO,Lobatse Airport,"Lobatse, Botswana",-25.24413,25.88184,,,South Africa,ZA,
LPE,SKIM,La Primavera Airport,"La Primavera, Colombia",5.489394,-70.45934,,,Colombia,CO,
LPI,ESSL,Linköping/Saab Airport,"Linköping, Sweden",58.40744,15.657141,http://www.linkopingcityairport.se/,,Sweden,SE,+46 13 26 28 00
PRS,,Parasi Airport,"Parasi, Solomon Islands",0.0,0.0,,,,,
AFR,AYAF,Afore Airport,"Afore, Papua New Guinea",0.0,0.0,,,,,
AHI,WAPA,Amahai Airport,"Amahai, Indonesia",-3.3462732,128.92741,,,Indonesia,ID,+62 298 675663
CMU,AYCH,Chimbu Airport,"Kundiawa, Papua New Guinea",-6.023886,144.97047,,Kundiawa,Papua New Guinea,PG,
FNB,ETNU,Neubrandenburg Airport,"Neubrandenburg, Mecklenburg-Vorpommern, Germany",53.601776,13.305677,http://www.flughafen-neubrandenburg.de/,Trollenhagen,Germany,DE,+49 395 45540
FNC,LPMA,Madeira Airport,"Funchal, Madeira, Portugal",32.695797,-16.775873,https://www.aeroportomadeira.pt/pt/fnc/home,"Santa Cruz, Madeira",Portugal,PT,+351 291 520 700
HLT,YHML,Hamilton Airport,"Hamilton, Victoria, Australia",43.17167,-79.927666,http://flyhamilton.ca/,Hamilton,Canada,CA,+1 905-679-1999
MQU,SKQU,Mariquita Airport,"Mariquita, Colombia",5.206792,-74.88557,http://www.aerocivil.gov.co/,Mariquita,Colombia,CO,
ADD,HAAB,Bole International Airport,"Addis Ababa, Ethiopia",8.980069,38.79893,http://addisairport.com/,Addis Ababa,Ethiopia,ET,+251 11 665 6666
DVD,,Andavadoaka Airport,"Andavadoaka, Madagascar",-21.752928,43.37549,,Morombe,Madagascar,MG,
MRB,KMRB,Eastern WV Regional Airport (Shepherd Field),"Martinsburg, West Virginia, United States",39.40274,-77.98297,http://www.wvairport.org/,Martinsburg,United States,US,+1 304-263-2106
MRO,NZMS,Hood Aerodrome,"Masterton, New Zealand",-40.972004,175.64038,http://hoodaerodrome.org.nz/,Masterton,New Zealand,NZ,+64 27 606 0190
MRQ,RPUW,Marinduque Airport,"Marinduque Island, Philippines",13.358259,121.827614,http://www.marinduque.gov.ph/,Gasan,Philippines,PH,+63 42 332 1002
MTO,KMTO,Coles County Memorial Airport,"Mattoon / Charleston, Illinois, United States",39.47887,-88.27948,,Mattoon,United States,US,+1 217-234-7120
MSO,KMSO,Missoula International Airport,"Missoula, Montana, United States",46.918594,-114.08588,http://www.flymissoula.com/,Missoula,United States,US,+1 406-728-4381
MSP,KMSP,Minneapolis–Saint Paul International Airport (Wold–Chamberlain Field),"Minneapolis / St Paul, Minnesota, United States",44.884754,-93.22228,http://www.mspairport.com/,,United States,US,+1 612-726-5555
MSQ,UMMS,Minsk National Airport,"Minsk, Belarus",53.889202,28.034235,http://airport.by/,Minsk,Belarus,BY,+375 17 279-13-00
LPG,SADL,La Plata Airport,"La Plata, Buenos Aires, Argentina",37.150608,-107.75326,http://www.durangogov.org/index.aspx?nid=202,Durango,United States,US,+1 970-382-6050
LPJ,SVAS,Armando Schwarck Airport,"Los Pijiguaos, Venezuela",0.0,0.0,,,,,
LPK,UUOL,Lipetsk Airport,"Lipetsk, Lipetsk Oblast, Russia",52.6981,39.524612,http://lipetsk-airport.ru/,Kuz'minskiye Otverzhki,Russia,RU,+7 474 238-14-01
YNE,CYNE,Norway House Airport,"Norway House, Manitoba, Canada",53.958,-97.844406,http://www.gov.mb.ca/mit/namo/air/airports.html,Norway House,Canada,CA,+1 204-359-6702
LPO,KPPO,La Porte Municipal Airport (FAA: PPO),"La Porte, Indiana, United States",29.66917,-95.064316,http://airnav.com/airport/t41,La Porte,United States,US,+1 281-471-9650
LPX,EVLA,Liepāja International Airport,"Liepāja, Latvia",56.51917,21.093336,http://www.liepaja-airport.lv/,Cimdenieki,Latvia,LV,
LPY,LFHP,Le Puy – Loudes Airport,"Le Puy-en-Velay, Auvergne, France",45.075233,3.7629657,,Chaspuzac,France,FR,+33 4 71 08 61 87
OCC,SECO,Francisco de Orellana Airport,"Puerto Francisco de Orellana (Coca), Ecuador",-0.4617447,-76.98622,,Coca,Ecuador,EC,
OCH,KOCH,A.L. Mangham Jr. Regional Airport,"Nacogdoches, Texas, United States",31.5789,-94.70405,http://www.ci.nacogdoches.tx.us/index.aspx?nid=634,Nacogdoches,United States,US,+1 936-560-9567
DJU,BIDV,Djúpivogur Airport,"Djúpivogur, Iceland",0.0,0.0,,,,,
DKA,,Katsina Airport,"Katsina, Nigeria",13.003712,7.660803,,Katsina,Nigeria,NG,
ILY,EGPI,Islay Airport (Glenegedale Airport),"Islay, Scotland, United Kingdom",55.68493,-6.249992,,Glenegedale,United Kingdom,GB,
IMK,VNST,Simikot Airport,"Simikot, Nepal",29.971079,81.818665,http://caanepal.gov.np/,Simikot,Nepal,NP,
ABJ,DIAP,Port Bouet Airport (Felix Houphouet Boigny Int'l),"Abidjan, Côte d'Ivoire",5.2544694,-3.9296293,http://www.aeria-ci.com/,Abidjan,Côte d'Ivoire,CI,+225 21 75 79 00
IXI,VELR,Lilabari Airport,"North Lakhimpur, Assam, India",27.28747,94.093,,North Lakhimpur,India,IN,+91 3752 234 831
LQK,KLQK,Pickens County Airport,"Pickens, South Carolina, United States",34.81012,-82.70191,http://www.co.pickens.sc.us/Pickens%20County%20Airport/default.aspx,Liberty,United States,US,+1 864-843-5803
LQM,SKLG,Caucayá Airport,"Puerto Leguízamo, Colombia",0.0,0.0,,,,,
LRB,FXLR,Leribe Airport,"Leribe (Hlotse), Lesotho",-28.854118,28.051636,,Hlotse,Lesotho,LS,
LRT,LFRH,Lorient South Brittany Airport (Lann-Bihoué Airport),"Lorient, Brittany, France",47.754097,-3.4372778,http://www.lorient.aeroport.fr/,Ploemeur,France,FR,+33 2 97 87 21 50
LRU,KLRU,Las Cruces International Airport,"Las Cruces, New Mexico, United States",32.291233,-106.920815,http://www.las-cruces.org/departments/economic-development/airport,Las Cruces,United States,US,+1 575-541-2471
IXJ,VIJU,Jammu Airport (Satwari Airport),"Jammu, Jammu and Kashmir, India",32.68085,74.84235,,Jammu,,,+91 191 243 7843
AEK,AYAX,Aseki Airport,"Aseki, Papua New Guinea",0.0,0.0,,,,,
ARL,DFER,Arly Airport,"Arly, Burkina Faso",0.0,0.0,,,,,
LRV,SVRS,Los Roques Airport,"Los Roques, Venezuela",11.944662,-66.67297,,Gran Roque,Venezuela,VE,
LSB,KLSB,Lordsburg Municipal Airport,"Lordsburg, New Mexico, United States",32.33672,-108.69383,https://nfdc.faa.gov/nfdcApps/airportLookup/airportDisplay.jsp?category=nasr&airportId=LSB,Lordsburg,United States,US,+1 575-542-3614
LSK,KLSK,Lusk Municipal Airport,"Lusk, Wyoming, United States",0.0,0.0,,,,,
LSM,WBGD,Long Semado Airport,"Long Semado, Sarawak, Malaysia",4.246988,115.5908,http://www.malaysiaairports.com.my/index.php?m=business&c=business_about&id=30,Lawas,Malaysia,MY,+60 85-615 204
LSN,KLSN,Los Banos Municipal Airport,"Los Banos, California, United States",37.063057,-120.86916,http://www.losbanos.org/index.php?option=com_content&view=article&id=69&Itemid=20,Los Banos,United States,US,+1 209-827-7034
LSO,LFOO,Les Sables-d'Olonne – Talmont Airport,"Les Sables-d'Olonne, Pays de la Loire, France",46.47626,-1.7211628,,Le Château-d'Olonne,France,FR,
BWE,EDVE,Braunschweig–Wolfsburg Airport,"Braunschweig, Lower Saxony, Germany",52.316364,10.559655,http://www.flughafen-braunschweig.de/,Braunschweig,Germany,DE,+49 531 354400
CHI,,metropolitan area2,"Chicago, Illinois, United States",0.0,0.0,,,,,
CKX,,Chicken Airport,"Chicken, Alaska, United States",64.06644,-141.95103,,Chicken,United States,US,+1 907-883-5128
LSQ,SCGE,Maria Dolores Airport,"Los Ángeles, Chile",-37.40163,-72.424805,http://www.clubaereolosangeles.cl/,Los Ángeles,Chile,CL,
LSV,KLSV,Nellis Air Force Base,"Las Vegas, Nevada, United States",36.241417,-115.050804,,Nellis Air Force Base,United States,US,
CRY,,Carlton Hill Airport,"Carlton Hill Station, Western Australia, Australia",0.0,0.0,,,,,
DMM,OEDF,King Fahd International Airport,"Dammam, Saudi Arabia",26.468325,49.79725,http://kfia.gov.sa/,Dammam,Saudi Arabia,SA,+966 13 883 1000
ITO,PHTO,Hilo International Airport,"Hilo, Hawaii, United States",19.718834,-155.04169,http://hawaii.gov/ito,Hilo,United States,US,+1 808-961-9300
ITP,SDUN,Itaperuna Airport,"Itaperuna, Rio de Janeiro, Brazil",-21.217072,-41.87118,,,Brazil,BR,
IWS,KIWS,West Houston Airport,"Houston, Texas, United States",29.815569,-95.67365,http://www.westhoustonairport.com/,Houston,United States,US,+1 281-492-2130
IXA,VEAT,Agartala Airport (Singerbhil Airport),"Agartala, Tripura, India",23.892742,91.24384,https://www.aai.aero/,Agartala,India,IN,+91 381 234 2224
IXB,VEBD,Bagdogra Airport,"Siliguri, West Bengal, India",26.684994,88.325424,https://www.aai.aero/,Siliguri,India,IN,+91 353 269 8431
IXC,VICG,Chandigarh Airport,"Chandigarh, India",30.667767,76.78623,http://www.airportchandigarh.com/,Sahibzada Ajit Singh Nagar,India,IN,+91 172 224 2004
IXD,VIAL,Allahabad Airport (Bamrauli Air Force Base),"Allahabad, Uttar Pradesh, India",25.443747,81.740425,,Allahabad,India,IN,
IXE,VOML,Mangalore Airport,"Mangalore, Karnataka, India",12.954507,74.88564,http://aai.aero/,Kenjar,India,IN,+91 824 222 0422
IXK,VAKS,Keshod Airport,"Keshod, Gujarat, India",21.318003,70.267044,https://www.aai.aero/en/airports/keshod,Keshod,India,IN,+91 2871 233 391
LSW,WITM,Malikus Saleh Airport,"Lhokseumawe, Indonesia",5.2287874,96.949104,,,Indonesia,ID,
LSX,WITL,Lhok Sukon Airport,"Lhoksukon, Indonesia",0.0,0.0,,,,,
IXM,VOMD,Madurai Airport,"Madurai, Tamil Nadu, India",9.838431,78.089455,http://maduraiairport.in/,Madurai,India,IN,+91 452 269 0717
AAT,ZWAT,Altay Airport,"Altay, Xinjiang, China",0.0,0.0,,,,,
ABB,DNAS,Asaba International Airport,"Asaba, Nigeria",6.20927,6.6611695,,Asaba,Nigeria,NG,
AFS,UTSN,Zarafshan Airport,"Zarafshan, Uzbekistan",41.61361,64.233055,,,Uzbekistan,UZ,
AIC,,Ailinglaplap Airok Airport,"Airok, Ailinglaplap Atoll, Marshall Islands",7.4,168.75,,,Marshall Islands,MH,
LSZ,LDLO,Lošinj Airport,"Lošinj, Croatia",44.56739,14.392698,http://www.airportmalilosinj.hr/contact/,Mali Lošinj,Croatia,HR,+385 51 231 666
LTA,FATZ,Tzaneen Airport (Letaba Airport),"Tzaneen, South Africa",-23.86025,30.15722,,Tzaneen,South Africa,ZA,
LTB,,Latrobe Airport,"Latrobe, Tasmania, Australia",40.273064,-79.40823,http://www.palmerairport.com/,Latrobe,United States,US,+1 724-539-8100
LTC,FTTH,Laï Airport,"Laï, Chad",48.756844,-3.471035,http://www.lannion.aeroport.fr/,Lannion,France,FR,+33 2 96 05 82 22
LTD,HLTD,Ghadames Airport,"Ghadames, Libya",30.14637,9.703354,,Ghadamis East,Libya,LY,
LRF,KLRF,Little Rock Air Force Base,"Jacksonville, Arkansas, United States",34.89641,-92.144684,,Jacksonville,United States,US,
LTG,VNLT,Langtang Airport,"Langtang, Nepal",0.0,0.0,,,,,
LSC,SCSE,La Florida Airport,"La Serena, Chile",-29.91533,-71.20108,https://www.avis.cl/sucursal/la-serena,La Serena,Chile,CL,+56 51 227 0353
LTI,ZMAT,Altai Airport,"Altai, Mongolia",46.37433,96.23275,,Altai,Mongolia,MN,
IXR,VERC,Birsa Munda Airport,"Ranchi, Jharkhand, India",23.31725,85.325226,https://www.aai.aero/,Ranchi,India,IN,+91 11 2463 2950
AGG,,Angoram Airport,"Angoram, Papua New Guinea",-3.5832548,143.66907,,Wewak,Papua New Guinea,PG,+675 456 2441
IXU,VAAU,Aurangabad Airport (Chikkalthana Airport),"Aurangabad, Maharashtra, India",19.863972,75.39605,,Aurangabad,India,IN,+91 240 247 1180
LSE,KLSE,La Crosse Regional Airport,"La Crosse, Wisconsin, United States",43.875782,-91.2579,http://www.lseairport.com/,La Crosse,United States,US,+1 608-789-7464
LSL,MRLC,Los Chiles Airport,"Los Chiles, Costa Rica",11.035277,-84.70611,,,Costa Rica,CR,
LSP,SVJC,Josefa Camejo International Airport,"Punto Fijo, Venezuela",0.0,0.0,,,,,
CRJ,,Coorabie Airport,"Coorabie, South Australia, Australia",-31.894861,132.29756,,Yalata,Australia,AU,
CWS,,Center Island Airport (FAA: 78WA),"Center Island, Washington, United States",48.48976,-122.83127,,Lopez Island,United States,US,+1 360-375-6093
DMO,KDMO,Sedalia Regional Airport,"Sedalia, Missouri, United States",38.70437,-93.17666,,Sedalia,United States,US,
DRS,EDDC,Dresden Airport,"Dresden, Saxony, Germany",51.132153,13.767207,http://www.dresden-airport.de/,Dresden,Germany,DE,+49 351 8813360
IXW,VEJS,Sonari Airport,"Jamshedpur, Jharkhand, India",22.815348,86.171814,http://www.aai.aero/,Jamshedpur,India,IN,+91 657 230 7740
IXY,VAKE,Kandla Airport (Gandhidham Airport),"Kandla / Gandhidham, Gujarat, India",23.111588,70.104004,,Gandhidham,India,IN,+91 2836 257 628
IXZ,VOPB,Veer Savarkar International Airport (Port Blair Airport),"Port Blair, Andaman and Nicobar Islands, India",11.641516,92.730125,https://www.aai.aero/en/airports/portblair,Port Blair,India,IN,+91 3192 235 619
JGA,VAJM,Jamnagar Airport (Govardhanpur Airport),"Jamnagar, Gujarat, India",22.46071,70.0159,,Jamnagar,India,IN,+91 288 271 2187
JGB,,Jagdalpur Airport,"Jagdalpur, Chhattisgarh, India",19.075598,82.03645,,Jagdalpur,India,IN,+91 75878 33897
JGD,ZYJD,Jiagedaqi Airport,"Jiagedaqi, Heilongjiang, China",50.375027,124.11845,,Da Hinggan Ling,China,CN,
LSS,TFFS,Les Saintes Airport,"Terre-de-Haut Island, Îles des Saintes, Guadeloupe",15.864716,-61.580227,http://www.lessaintes-resa.fr/transports/aeroports.html,,Guadeloupe,GP,+590 590 99 50 32
LST,YMLT,Launceston Airport,"Launceston, Tasmania, Australia",-41.543133,147.20726,http://www.launcestonairport.com.au/,Western Junction,Australia,AU,+61 3 6391 6222
LSY,YLIS,Lismore Airport,"Lismore, New South Wales, Australia",-28.836655,153.26329,http://www.lismore.nsw.gov.au/cp_themes/default/page.asp?p=DOC-YRC-87-72-53,Loftville,Australia,AU,+61 2 6622 2798
LVA,LFOV,Laval Entrammes Airport,"Laval, Pays de la Loire, France",48.03198,-0.7418444,,Laval,France,FR,+33 2 43 53 71 30
JOJ,,Doris Lake Aerodrome (TC: CDL7),"Doris Lake, Nunavut, Canada",0.0,0.0,,,,,
LUW,WAMW,Syukuran Aminuddin Amir Airport,"Luwuk, Indonesia",-1.0408252,122.77142,,,Indonesia,ID,+62 461 21524
LVB,SSLI,Galpões Airport,"Santana do Livramento, Rio Grande do Sul, Brazil",0.0,0.0,,,,,
LVL,KLVL,Lawrenceville/Brunswick Municipal Airport,"Lawrenceville, Virginia, United States",36.772224,-77.79451,,Lawrenceville,United States,US,
LVM,KLVM,Mission Field,"Livingston, Montana, United States",0.0,0.0,,,,,
LVS,KLVS,Las Vegas Municipal Airport,"Las Vegas, New Mexico, United States",35.654404,-105.14253,http://www.lasvegasnm.gov/business/municipal_airport/index.php,Las Vegas,United States,US,+1 505-454-0881
JSH,LGST,Sitia Public Airport,"Sitia, Greece",35.217102,26.097263,,Sitia,Greece,GR,+30 2843 020151
JSI,LGSK,Skiathos Island National Airport,"Skiathos, Greece",39.176613,23.501093,http://www.jsi-airport.gr/,Skiathos,Greece,GR,
KAB,FVKB,Kariba Airport,"Kariba, Zimbabwe",-16.51945,28.885027,,,Zimbabwe,ZW,
LBE,KLBE,Arnold Palmer Regional Airport,"Latrobe, Pennsylvania, United States",40.273064,-79.40823,http://www.palmerairport.com/,Latrobe,United States,US,+1 724-539-8100
LBF,KLBF,North Platte Regional Airport (Lee Bird Field),"North Platte, Nebraska, United States",41.129833,-100.69811,http://www.northplatteairport.com/,North Platte,United States,US,+1 308-532-1900
ALM,KALM,Alamogordo–White Sands Regional Airport,"Alamogordo, New Mexico, United States",32.839844,-105.99398,http://ci.alamogordo.nm.us/,Alamogordo,United States,US,+1 575-439-4110
AOL,SARL,Paso de los Libres Airport,"Paso de los Libres, Corrientes, Argentina",-29.688171,-57.153122,,Paso de los Libres,Argentina,AR,
ASH,KASH,Nashua Airport (Boire Field),"Nashua, New Hampshire, United States",42.780342,-71.51843,http://www.nashuaairport.com/,Nashua,United States,US,+1 603-882-0661
BGL,VNBL,Balewa Airport,"Baglung, Nepal",28.214434,83.66635,,Narayansthan,Nepal,NP,
BGT,,Bagdad Airport (FAA: E51),"Bagdad, Arizona, United States",0.0,0.0,,,,,
BJO,SLBJ,Bermejo Airport,"Bermejo, Bolivia",0.0,0.0,,,,,
DAO,,Dabo Airport,"Dabo, Papua New Guinea",-0.4777836,104.57783,,,Indonesia,ID,+62 776 21273
JHW,KJHW,Chautauqua County-Jamestown Airport,"Jamestown, New York, United States",42.152744,-79.25915,http://www.co.chautauqua.ny.us/330/Jamestown-Airport-JHW,Jamestown,United States,US,+1 716-484-0204
JKH,LGHI,Chios Island National Airport,"Chios, Greece",38.345394,26.142536,,,Greece,GR,+30 2271 081400
JKL,LGKY,Kalymnos Island National Airport,"Kalymnos, Greece",36.963333,26.940556,,,Greece,GR,+30 2243 059370
JKR,VNJP,Janakpur Airport,"Janakpur, Nepal",26.708828,85.924034,http://www.caanepal.org.np/,Janakpur,Nepal,NP,+977 41-520884
AMU,AYAM,Amanab Airport,"Amanab, Papua New Guinea",0.0,0.0,,,,,
AMY,,Ambatomainty Airport,"Ambatomainty, Madagascar",0.0,0.0,,,,,
AOB,,Annanberg Airport,"Annanberg, Papua New Guinea",0.0,0.0,,,,,
DGA,,Dangriga Airport,"Dangriga, Belize",16.982214,-88.22851,,Dangriga,Belize,BZ,+501 522-0617
LDI,HTLI,Lindi Airport (Kikwetu Airport),"Lindi, Tanzania",-9.850583,39.75914,,Lindi Kikwetu Airport,Tanzania,TZ,+255 755 719 864
LDJ,KLDJ,Linden Airport,"Linden, New Jersey, United States",40.61571,-74.243416,http://www.lindenairportnj.com/,Linden,United States,US,+1 908-862-5557
LWK,EGET,Tingwall Airport (Lerwick/Tingwall Airport),"Lerwick, Scotland, United Kingdom",60.189285,-1.2465222,http://www.shetland.gov.uk/transport/internal_air.asp,,United Kingdom,GB,+44 1595 840246
LDY,EGAE,City of Derry Airport,"Derry (Londonderry), Northern Ireland, United Kingdom",55.03954,-7.1558022,http://www.cityofderryairport.com/,Eglinton,United Kingdom,GB,+44 28 7181 0784
DGK,,Dugong Beach Lodge Airstrip,"Dugong Beach Lodge, Mozambique",-22.132292,35.44358,,Vilanculos,Mozambique,MZ,+258 29 384 203
LEJ,EDDP,Leipzig/Halle Airport,"Leipzig, Saxony / Halle, Saxony-Anhalt,2 Germany",51.42208,12.220381,http://www.leipzig-halle-airport.de/,Schkeuditz,Germany,DE,+49 341 2241155
COL,,Coll Airport,"Coll, Scotland, United Kingdom",56.602177,-6.6176524,http://www.obanandtheislesairports.com/,,United Kingdom,GB,+44 1631 572910
CUK,,Caye Caulker Airport,"Caye Caulker, Belize",17.516092,-88.19467,,Belize City,Belize,BZ,+501 224-5671
LFT,KLFT,Lafayette Regional Airport,"Lafayette, Louisiana, United States",30.205482,-91.98942,http://www.lftairport.com/Home,Lafayette,United States,US,+1 337-266-4400
LWA,,Lebak Airport,"Lebak, Philippines",-6.5356727,105.83667,,,Indonesia,ID,
ADC,AYAN,Andakombe Airport,"Andakombe, Papua New Guinea",0.0,0.0,,,,,
AFT,AGAF,Afutara Airport,"Afutara, Malaita, Solomon Islands",-9.191249,160.94923,,Afutara,Solomon Islands,SB,
AGQ,LGAG,Agrinion Airport,"Agrinion, Greece",38.602413,21.351574,,Agrinio,Greece,GR,
AGV,SVAC,Oswaldo Guevara Mujica Airport,"Acarigua, Venezuela",0.0,0.0,,,,,
AGX,VOAT,Agatti Aerodrome,"Agatti Island, Lakshadweep, India",10.828119,72.179306,https://www.aai.aero/,Agatti,India,IN,+91 4894 242 615
AIE,AYAO,Aiome Airport,"Aiome, Papua New Guinea",0.0,0.0,,,,,
LXG,VLLN,Louang Namtha Airport,"Luang Namtha, Laos",20.954252,101.40072,,Luang Namtha,Laos,LA,
DOK,UKCC,Donetsk International Airport,"Donetsk, Ukraine",48.90232,38.5406,,,Ukraine,UA,
DUS,EDDL,Düsseldorf Airport,"Düsseldorf, North Rhine-Westphalia, Germany",51.287613,6.7667913,http://www.dus.com/,Düsseldorf,Germany,DE,+49 211 4210
FIE,EGEF,Fair Isle Airport,"Fair Isle, Scotland, United Kingdom",59.53457,-1.6286697,,,United Kingdom,GB,
NQT,EGBN,Nottingham Airport,"Nottingham, England, United Kingdom",52.918716,-1.0808551,http://www.aeros.co.uk/locations/nottingham-2/,Nottingham,United Kingdom,GB,+44 115 981 3463
OHE,ZYMH,Mohe Gulian Airport,"Mohe, Heilongjiang, China",52.925976,122.42661,,Da Hinggan Ling,China,CN,
OHH,UHSH,Okha Airport (Novostroyka Airport),"Okha, Sakhalin Oblast, Russia",53.517883,142.89047,http://airportokha.ru/,Okha,Russia,RU,+7 424 375-08-31
LXN,KLXN,Jim Kelly Field,"Lexington, Nebraska, United States",40.790554,-99.77583,,Lexington,United States,US,+1 308-324-8770
LXR,HELX,Luxor International Airport,"Luxor, Egypt",25.673883,32.701492,,,Egypt,EG,+20 95 2324455
DOI,AYDO,Doini Island Airport,"Doini Island, Papua New Guinea",-10.310449,150.33391,,Gurney,Papua New Guinea,PG,+675 641 0010
LXS,LGLM,Lemnos International Airport,"Lemnos (Limnos), Greece",39.923714,25.239305,,,Greece,GR,+30 2254 029400
LFW,DXXX,Lomé–Tokoin Airport (Gnassingbé Eyadéma Int'l),"Lomé, Togo",6.1705465,1.2530653,https://www.aeroport-lome.com/,Lome,Togo,TG,+228 22 23 60 60
LGA,KLGA,LaGuardia Airport,"New York City, New York, United States",40.776928,-73.87396,http://www.panynj.gov/airports/laguardia.html,New York,United States,US,+1 718-533-3400
LGB,KLGB,Long Beach Airport,"Long Beach, California, United States",33.817818,-118.1525,http://www.lgb.org/,Long Beach,United States,US,+1 562-570-2600
AIY,KAIY,Atlantic City Municipal Airport (Bader Field) (closed 2006),"Atlantic City, New Jersey, United States",39.360302,-74.456604,http://sjta.com/,Atlantic City,United States,US,
BAJ,,Bali Airport,"Bali, Papua New Guinea",-8.746717,115.16679,http://bali-airport.com/,,Indonesia,ID,+62 361 9351011
LGD,KLGD,La Grande/Union County Airport,"La Grande, Oregon, United States",45.2893,-118.00853,,La Grande,United States,US,+1 541-963-6615
LGG,EBLG,Liège Airport,"Liège, Belgium",50.64116,5.4479117,http://www.liegeairport.com/,Grâce-Hollogne,Belgium,BE,+32 4 234 84 11
LGI,MYLD,Deadman's Cay Airport,"Deadman's Cay, Long Island, Bahamas",23.178904,-75.09393,https://nfdc.faa.gov/nfdcApps/airportLookup/airportDisplay.jsp?category=nasr&airportId=MYLD,Deadman's Cay Settlement,The Bahamas,BS,+1 242-337-7077
LGK,WMKL,Langkawi International Airport,"Langkawi, Kedah, Malaysia",6.34206,99.73152,http://www.malaysiaairports.com.my/index.php/international/langkawi-international-airport,Langkawi,Malaysia,MY,+60 4-955 1311
LLE,FAMN,Malelane Airport,"Malalane, South Africa",-25.431631,31.573488,,Malelane,South Africa,ZA,
LXU,FLLK,Lukulu Airport,"Lukulu, Zambia",-14.3758335,23.248611,,,Zambia,ZM,
LXV,KLXV,Lake County Airport,"Leadville, Colorado, United States",39.224216,-106.31522,http://www.klxvairport.com/,Leadville,United States,US,+1 719-486-0307
SIL,AYSG,Sila Airport,"Sila, Papua New Guinea",0.0,0.0,,,,,
LLO,,Palopo Lagaligo Airport,"Palopo, Indonesia",-6.178954,120.43756,,,Indonesia,ID,
LLT,FNLB,Lobito Airport[2],"Lobito, Angola",-12.369865,13.539378,,Lobito,Angola,AO,
AKH,OEPS,Prince Sultan Air Base,"Al-Kharj, Saudi Arabia",24.063864,47.575607,,Al Kharj,Saudi Arabia,SA,+966 11 540 0000
AQM,,Ariquemes Airport,"Ariquemes, Rondônia, Brazil",-9.884969,-63.048588,,,Brazil,BR,
ARP,,Aragip Airport,"Aragip, Papua New Guinea",0.0,0.0,,,,,
ASE,KASE,Aspen–Pitkin County Airport (Sardy Field),"Aspen, Colorado, United States",39.22002,-106.86452,http://www.aspenairport.com/,Aspen,United States,US,+1 970-920-5384
ASG,NZAS,Ashburton Aerodrome,"Ashburton, New Zealand",-43.903675,171.80508,https://www.ashburtondc.govt.nz/our-district/business-and-economy/Pages/ashburton-airport.aspx,Elgin,New Zealand,NZ,+64 3-308 6408
ASQ,,Austin Airport (FAA: 9U3),"Austin, Nevada, United States",30.197472,-97.66635,http://www.austintexas.gov/airport/,Austin,United States,US,+1 512-530-2242
ASU,SGAS,Silvio Pettirossi International Airport,"Asunción, Paraguay",-25.241512,-57.514183,http://www.dinac.gov.py/v2/index.php?option=com_k2&view=itemlist&task=category&id=49:aeropuerto-internacional-silvio-pettirossi&Itemid=205,Luque,Paraguay,PY,+595 21 688 2000
ATA,SPHZ,Comandante FAP Germán Arias Graziani Airport,"Huaraz, Peru",0.0,0.0,,,,,
ATT,,Atmautluak Airport (FAA: 4A2),"Atmautluak, Alaska, United States",60.86386,-162.27374,https://nfdc.faa.gov/nfdcApps/airportLookup/airportDisplay.jsp?category=nasr&airportId=4A2,Atmautluak,United States,US,+1 907-269-0747
AUE,,Abu Rudeis Airport,"Abou Redis, Egypt",28.904774,33.194607,,,Egypt,EG,
AUW,KAUW,Wausau Downtown Airport,"Wausau, Wisconsin, United States",44.929462,-89.62824,http://www.flywausau.com/,Wausau,United States,US,+1 715-845-3400
AUZ,KARR,Aurora Municipal Airport (FAA: ARR),"Aurora, Illinois, United States",41.769978,-88.468285,http://www.auroraairport.com/home.htm,Sugar Grove,United States,US,+1 630-256-3120
AVI,MUCA,Máximo Gómez Airport,"Ciego de Ávila, Cuba",0.0,0.0,,,,,
HEL,EFHK,Helsinki Airport (Helsinki-Vantaa Airport),"Helsinki, Finland",60.32104,24.95286,http://www.helsinki-vantaa.fi/,Vantaa,Finland,FI,+358 200 14636
BRR,EGPR,Barra Airport,"Barra, Scotland, United Kingdom",57.025356,-7.44946,http://www.hial.co.uk/barra-airport/,Eoligarry,United Kingdom,GB,+44 1871 890212
LLW,FWKI,Lilongwe International Airport (Kamuzu Int'l),"Lilongwe, Malawi",-13.783333,33.7775,,Lumbadzi,Malawi,MW,+265 1 700 811
PNS,KPNS,Pensacola International Airport,"Pensacola, Florida, United States",30.473816,-87.18671,http://www.flypensacola.com/,Pensacola,United States,US,+1 850-436-5000
TEK,,Tatitlek Airport (FAA: 7KA),"Tatitlek, Alaska, United States",60.871956,-146.68793,,Tatitlek,United States,US,
LPL,EGGP,Liverpool John Lennon Airport,"Liverpool, England, United Kingdom",53.33586,-2.8550475,http://www.liverpoolairport.com/,Speke,United Kingdom,GB,+44 871 521 8484
LPP,EFLP,Lappeenranta Airport,"Lappeenranta, Finland",61.044117,28.156282,http://www.lppairport.fi/,Lappeenranta,Finland,FI,+358 40 0276866
ATD,AGAT,Uru Harbour Airport,"Atoifi, Malaita, Solomon Islands",0.0,0.0,,,,,
AVK,ZMAH,Arvaikheer Airport,"Arvaikheer, Mongolia",46.250088,102.80302,,Arvaikheer,Mongolia,MN,
AVN,LFMV,Avignon – Provence Airport,"Avignon, Provence-Alpes-Côte d'Azur, France",43.90715,4.9018307,http://www.avignon.aeroport.fr/,Avignon,France,FR,+33 4 90 81 51 51
AYY,,Arugam Bay Seaplane Base,"Pottuvil, Sri Lanka",0.0,0.0,,,,,
LPQ,VLLB,Luang Prabang International Airport,"Luang Prabang, Laos",19.904427,102.16822,http://www.luangprabangairport.com/,Luang Prabang,Laos,LA,
SJX,,Sarteneja Airport,"Sarteneja, Belize",18.506395,-88.324295,,Chetumal,Mexico,MX,+52 983 834 5013
SAH,OYSN,Sana'a International Airport (El Rahaba Airport),"Sana'a, Yemen",15.479529,44.21662,http://sanaa.airport-authority.com/,Sana'a,Yemen,YE,
SAL,MSLP,Monseñor Óscar Arnulfo Romero International Airport,"San Salvador, El Salvador",13.445138,-89.05704,,San Salvador,El Salvador,SV,+503 2349 9455
SAN,KSAN,San Diego International Airport,"San Diego, California, United States",32.7338,-117.193306,http://www.san.org/,San Diego,United States,US,+1 619-400-2404
LPU,WRLP,Long Apung Airport,"Long Apung, Indonesia",1.7015699,114.97018,,,Indonesia,ID,
SLZ,SBSL,Marechal Cunha Machado International Airport,"São Luís, Maranhão, Brazil",-2.5849926,-44.23488,http://www.infraero.gov.br/,,Brazil,BR,+55 98 3217-6100
SMF,KSMF,Sacramento International Airport,"Sacramento, California, United States",38.695084,-121.590065,http://www.smf.aero/,Sacramento,United States,US,+1 916-929-5411
LRA,LGLR,Larissa National Airport,"Larissa, Greece",39.64983,22.460936,,Larisa,Greece,GR,
LRD,KLRD,Laredo International Airport,"Laredo, Texas, United States",27.544783,-99.46136,http://www.cityoflaredo.com/airport/,Laredo,United States,US,+1 956-795-2000
SMS,FMMS,Sainte Marie Airport,"Île Sainte-Marie, Madagascar",-17.08964,49.81668,,,Madagascar,MG,
AUV,AYUM,Aumo Airport,"Aumo, Papua New Guinea",0.0,0.0,,,,,
AVO,KAVO,Avon Park Executive Airport,"Avon Park, Florida, United States",27.594885,-81.5262,http://avonpark.cc/,Avon Park,United States,US,+1 863-453-3565
AVV,YMAV,Avalon Airport,"Avalon, Victoria, Australia",-38.038635,144.46889,http://www.avalonairport.com.au/,Lara,Australia,AU,+61 3 5227 9100
AWR,,Awar Airport,"Awar, Papua New Guinea",0.0,0.0,,,,,
AWZ,OIAW,Ahvaz International Airport,"Ahvaz, Iran",31.342964,48.7469,https://ahwaz.airport.ir/,Ahvaz,Iran,IR,+98 61 3443 4601
SOO,ESNY,Söderhamn Airport (Helsinge Airport),"Söderhamn, Sweden",61.263027,17.10103,,,Sweden,SE,
SOE,FCOS,Souanké Airport,"Souanké, Republic of the Congo",0.0,0.0,,,,,
STL,KSTL,Lambert–St. Louis International Airport,"St. Louis, Missouri, United States",38.751648,-90.37153,http://www.flystl.com/,St. Louis,United States,US,+1 314-890-1333
STP,KSTP,St. Paul Downtown Airport (Holman Field),"St. Paul / Minneapolis, Minnesota, United States",44.933468,-93.06013,https://www.metroairports.org/General-Aviation/Airports/St-Paul.aspx,Saint Paul,United States,US,+1 651-224-4306
STT,TIST,Cyril E. King Airport,"St. Thomas Island, United States Virgin Islands",18.336061,-64.972275,http://www.viport.com/airports/index.html,Charlotte Amalie West,U.S. Virgin Islands,VI,+1 340-774-5100
STV,VASU,Surat Airport,"Surat, Gujarat, India",21.12053,72.74309,http://www.aai.aero/,Surat,India,IN,+91 261 270 0200
STX,TISX,Henry E. Rohlsen Airport,"Saint Croix, United States Virgin Islands",17.69953,-64.79747,http://www.viport.com/,Christiansted,U.S. Virgin Islands,VI,+1 340-778-1012
SUB,WARR,Juanda International Airport,"Surabaya, Indonesia",-7.3788853,112.78729,http://www.juanda-airport.com/,,Indonesia,ID,+62 31 2986200
SUE,KSUE,Door County Cherryland Airport,"Sturgeon Bay, Wisconsin, United States",44.84097,-87.42507,http://map.co.door.wi.us/airport/,Sturgeon Bay,United States,US,+1 920-743-3636
SUF,LICA,Lamezia Terme International Airport,"Lamezia Terme, Calabria, Italy",38.906265,16.245392,https://lameziaairport.it/,Lamezia Terme,Italy,IT,+39 0968 414385
SUG,RPMS,Surigao Airport,"Surigao City, Philippines",9.760337,125.48128,,Surigao City,Philippines,PH,+63 86 826 3898
SXL,EISG,Sligo Airport,"Sligo, Ireland",54.27875,-8.598989,http://www.sligoairport.com/,Strandhill,Ireland,IE,+353 71 916 8280
TON,,Tonu Airport,"Tonu, Papua New Guinea",-6.6547146,155.43341,,,Papua New Guinea,PG,
YNX,,Snap Lake Airport (TC: CSK6),"Snap Lake, Northwest Territories, Canada",63.593647,-110.90559,,,Canada,CA,
DDG,ZYDD,Dandong Langtou Airport,"Dandong, Liaoning, China",40.02575,124.28692,,Dandong,China,CN,
DEI,FSSD,Denis Island Airport,"Denis Island, Seychelles",-4.3234606,55.69215,,Grand Anse,Seychelles,SC,
BAM,KBAM,Battle Mountain Airport (Lander County Airport),"Battle Mountain, Nevada, United States",40.599716,-116.87612,http://landercountynv.org/,Battle Mountain,United States,US,+1 775-635-2245
SKS,EKSP,Vojens Airport (Skrydstrup Airport),"Vojens, Denmark",55.221985,9.290951,http://vojenslufthavn.dk/,Vojens,Denmark,DK,+45 74 59 16 54
SSW,,Stuart Island Airpark (FAA: 7WA5),"Stuart Island, Washington, United States",48.67334,-123.1759,,Friday Harbor,United States,US,
TNK,,Tununak Airport (FAA: 4KA),"Tununak, Alaska, United States",60.575554,-165.27167,https://nfdc.faa.gov/nfdcApps/airportLookup/airportDisplay.jsp?category=nasr&airportId=4KA,Tununak,United States,US,+1 907-269-0747
LYN,LFLY,Lyon–Bron Airport,"Lyon, Rhône-Alpes, France",45.728565,4.942278,http://www.lyonaeroports.com/,Bron,France,FR,+33 825 10 69 69
LYP,OPFA,Faisalabad International Airport,"Faisalabad, Pakistan",31.363043,72.98757,http://www.caapakistan.com.pk/timeline/fsbd/timeline-fsbd.aspx,Faislabad,Pakistan,PK,+92 41 111 222 114
SZF,LTFH,Samsun-Çarşamba Airport,"Samsun, Turkey",41.259186,36.557377,http://www.carsamba.dhmi.gov.tr/,,Turkey,TR,+90 362 844 88 30
SZN,KSZN,Santa Cruz Island Airport,"Santa Cruz Island, California, United States",34.06056,-119.91513,,Ventura,United States,US,+1 805-962-9111
SZX,ZGSZ,Shenzhen Bao'an International Airport,"Shenzhen, Guangdong, China",22.636827,113.814606,http://www.szairport.com/,Shenzhen,China,CN,+86 755 2345 6789
LYS,LFLL,Lyon–Saint-Exupéry Airport,"Lyon, Rhône-Alpes, France",45.72342,5.0887766,http://www.lyonaeroports.com/,Colombier-Saugnieu,France,FR,+33 826 80 08 26
AJN,FMCV,Ouani Airport,"Anjouan, Comoros",-12.133332,44.429672,,Ouani,Comoros,KM,
AKM,,Zakouma Airport,"Zakouma National Park, Chad",9.147309,18.381842,,Sarh,Chad,TD,
AXD,LGAL,Alexandroupoli Airport (Dimokritos Airport),"Alexandroupoli, Greece",40.85657,25.944748,http://www.axdairport.com/,,Greece,GR,
AZN,UTKA,Andizhan Airport,"Andizhan, Uzbekistan",40.739174,72.31322,,Andijan,Uzbekistan,UZ,+998 90 482 45 45
AZO,KAZO,Kalamazoo/Battle Creek International Airport,"Kalamazoo, Michigan, United States",42.23555,-85.55159,http://azoairport.com/,Portage,United States,US,+1 269-388-3668
BAI,MRBA,Buenos Aires Airport,"Buenos Aires, Costa Rica",9.164183,-83.330315,,Buenos Aires,Costa Rica,CR,+506 8456 4604
SVP,FNKU,Kuito Airport,"Kuito, Angola",-12.403892,16.94988,,Kuito,Angola,AO,
SWD,PAWD,Seward Airport,"Seward, Alaska, United States",60.13016,-149.41788,http://www.faa.gov/airports/airport_safety/airportdata_5010/menu/contacts.cfm?Region=&District=&State=AK&County=&City=&Use=&Certification=,Seward,United States,US,+1 907-262-2199
SYI,KSYI,Shelbyville Municipal Airport (Bomar Field),"Shelbyville, Tennessee, United States",35.56143,-86.44452,http://www.shelbyvilletnairport.org/,Shelbyville,United States,US,+1 931-684-1669
SYJ,OIKY,Sirjan Airport,"Sirjan, Iran",29.550589,55.665016,http://sirjan.airport.ir/,Sirjan,Iran,IR,
SYM,ZPSM,Pu'er Simao Airport,"Simao, Yunnan, China",22.793524,100.96289,,Pu'er,China,CN,
DGF,,Douglas Lake Airport,"Douglas Lake, British Columbia, Canada",50.16437,-120.155785,,Douglas Lake,Canada,CA,
BBY,FEFM,Bambari Airport,"Bambari, Central African Republic",5.8466086,20.64974,,,Central African Republic,CF,
BKA,UUBB,Bykovo Airport,"Moscow, Russia",55.62286,38.06076,http://bykovo-sky.ru/,Bykovo,Russia,RU,+7 495 558-49-33
FAQ,AYFR,Frieda River Airport,"Frieda River, Papua New Guinea",0.0,0.0,,,,,
GLV,PAGL,Golovin Airport,"Golovin, Alaska, United States",64.54801,-163.01434,https://nfdc.faa.gov/nfdcApps/airportLookup/airportDisplay.jsp?category=nasr&airportId=GLV,Golovin,United States,US,+1 800-478-8400
LZO,ZULZ,Luzhou Lantian Airport,"Luzhou, Sichuan, China",0.0,0.0,,,,,
GST,PAGS,Gustavus Airport,"Gustavus, Alaska, United States",58.42247,-135.70305,https://nfdc.faa.gov/nfdcApps/services/ajv5/airportDisplay.jsp?airportId=gst,Gustavus,United States,US,+1 907-697-2251
LZY,ZUNZ,Nyingchi Mainling Airport,"Nyingchi (Linzhi), Tibet, China",29.305494,94.335335,,Nyingchi,China,CN,
MBJ,MKJS,Sangster International Airport,"Montego Bay, Jamaica",18.502264,-77.91444,http://www.mbjairport.com/contact,Montego Bay,Jamaica,JM,+1 876-952-3124
MBL,KMBL,Manistee County Blacker Airport,"Manistee, Michigan, United States",44.275444,-86.25621,http://flymanistee.com/,Manistee,United States,US,+1 231-398-9272
MBO,RPUM,Mamburao Airport,"Mamburao, Philippines",13.207222,120.60555,,Mamburao,Philippines,PH,
BAQ,SKBQ,Ernesto Cortissoz International Airport,"Barranquilla, Colombia",10.886601,-74.77643,http://aeropuertobaq.com/,,Colombia,CO,+57 5 3160900
BAT,SBBT,Chafei Amsei Airport,"Barretos, São Paulo, Brazil",-20.585012,-48.59503,,,Brazil,BR,+55 17 3322-2471
BBJ,EDRB,Bitburg Airport (former Bitburg Air Base),"Bitburg, Rhineland-Palatinate, Germany",49.94574,6.55824,http://www.flugplatz-bitburg.de/,Bitburg,Germany,DE,+49 6561 96360
BBP,EGHJ,Bembridge Airport,"Bembridge, England, United Kingdom",50.678024,-1.107255,http://www.eghj.co.uk/,,United Kingdom,GB,+44 1983 873051
BBQ,TAPH,Barbuda Codrington Airport,"Barbuda, Antigua and Barbuda",17.635834,-61.826946,,Codrington,Antigua and Barbuda,AG,
BBW,KBBW,Broken Bow Municipal Airport,"Broken Bow, Nebraska, United States",41.436424,-99.64216,http://www.cityofbrokenbow.org/visiting,Broken Bow,United States,US,+1 308-872-2875
BBX,KLOM,Wings Field (FAA: LOM),"Philadelphia, Pennsylvania, United States",0.0,0.0,,,,,
BCA,MUBA,Gustavo Rizo Airport,"Baracoa, Cuba",20.3584,-74.50417,,Baracoa,Cuba,CU,+53 21 641665
BCD,RPVB,Bacolod–Silay International Airport,"Bacolod, Philippines",10.776625,123.01491,,Silay City,Philippines,PH,+63 34 435 2448
BCF,FEGU,Bouca Airport,"Bouca, Central African Republic",6.4923935,17.42887,,,Central African Republic,CF,
BCV,,Hector Silva Airstrip,"Belmopan, Belize",17.270702,-88.77919,,Belmopan,Belize,BZ,
BDG,KBDG,Blanding Municipal Airport,"Blanding, Utah, United States",37.582176,-109.481575,http://www.blanding-ut.gov/airport.html,Blanding,United States,US,+1 435-678-3222
BFW,DAOS,Sidi Bel Abbès Airport,"Sidi Bel Abbès, Algeria",35.17354,-0.5934793,,Amarna,Algeria,DZ,
LYB,MWCL,Edward Bodden Airfield,"Little Cayman, British Overseas Territory of Cayman Islands",19.659512,-80.084816,http://www.caymanairports.com/,Blossom Village,Cayman Islands,KY,+1 345-948-0021
LYC,ESNL,Lycksele Airport,"Lycksele, Sweden",64.550354,18.707087,http://www.lyckseleairport.se/,,Sweden,SE,+46 950 275 55
LYO,KLYO,Lyons–Rice County Municipal Airport,"Lyons, Kansas, United States",38.345615,-98.22738,,Lyons,United States,US,
LYH,KLYH,Lynchburg Regional Airport (Preston Glenn Field),"Lynchburg, Virginia, United States",37.325478,-79.201416,http://www.lynchburgva.gov/airport,Lynchburg,United States,US,+1 434-455-6090
MAA,VOMM,Chennai International Airport,"Chennai, Tamil Nadu, India",12.994112,80.17087,https://www.aai.aero/en/airports/chennai,Chennai,India,IN,+91 44 2256 0551
KFP,PAKF,False Pass Airport,"False Pass, Alaska, United States",54.8496,-163.4083,https://nfdc.faa.gov/nfdcApps/airportLookup/airportDisplay.jsp?category=nasr&airportId=KFP,False Pass,United States,US,+1 907-269-0664
KKA,PAKK,Koyuk Alfred Adams Airport,"Koyuk, Alaska, United States",64.93915,-161.15482,https://nfdc.faa.gov/nfdcApps/airportLookup/airportDisplay.jsp?category=nasr&airportId=KKA,Koyuk,United States,US,+1 907-443-3444
BGP,,Bongo Airport,"Bongo, Gabon",0.0,0.0,,,,,
HCR,PAHC,Holy Cross Airport (FAA: HCA),"Holy Cross, Alaska, United States",62.187965,-159.77551,https://nfdc.faa.gov/nfdcApps/airportLookup/airportDisplay.jsp?category=nasr&airportId=HCA,Holy Cross,United States,US,+1 907-438-2416
KTN,PAKT,Ketchikan International Airport,"Ketchikan, Alaska, United States",55.35541,-131.71056,http://www.borough.ketchikan.ak.us/130/Airport,Ketchikan,United States,US,+1 907-225-6800
KAL,PAKV,Kaltag Airport,"Kaltag, Alaska, United States",64.321945,-158.73611,https://nfdc.faa.gov/nfdcApps/airportLookup/airportDisplay.jsp?category=nasr&airportId=KAL,Kaltag,United States,US,+1 907-451-2294
KYK,PAKY,Karluk Airport,"Karluk, Alaska, United States",57.566086,-154.45389,,Kodiak,United States,US,+1 907-269-0767
HOM,PAHO,Homer Airport,"Homer, Alaska, United States",59.643856,-151.49097,http://www.cityofhomer-ak.gov/airport,Homer,United States,US,+1 907-235-2757
HPB,PAHP,Hooper Bay Airport,"Hooper Bay, Alaska, United States",61.523182,-166.14513,http://dot.alaska.gov/creg/hooperbay/index.shtml,Hooper Bay,United States,US,+1 907-543-2495
HSL,PAHL,Huslia Airport (FAA: HLA),"Huslia, Alaska, United States",65.69793,-156.3511,https://nfdc.faa.gov/nfdcApps/airportLookup/airportDisplay.jsp?category=nasr&airportId=HLA,Huslia,United States,US,+1 907-829-2456
AKN,PAKN,King Salmon Airport,"King Salmon, Alaska, United States",58.676666,-156.64917,https://nfdc.faa.gov/nfdcApps/airportLookup/airportDisplay.jsp?airportId=AKN,King Salmon,United States,US,+1 907-246-3325
AKP,PAKP,Anaktuvuk Pass Airport,"Anaktuvuk Pass, Alaska, United States",68.13318,-151.74333,http://www.faa.gov/,Anaktuvuk Pass,United States,US,+1 907-852-0371
BDL,KBDL,Bradley International Airport,"Windsor Locks / Hartford, Connecticut, United States",41.938873,-72.686035,http://www.bradleyairport.com/,Windsor Locks,United States,US,+1 860-292-2000
BDM,LTBG,Bandırma Airport,"Bandırma, Turkey",39.615826,27.925764,http://www.balikesir.dhmi.gov.tr/havaalanlari/default.aspx?hv=17,,Turkey,TR,+90 266 294 75 10
BDP,VNCG,Bhadrapur Airport (Chandragadhi Airport),"Bhadrapur / Chandragadhi, Nepal",26.569523,88.07745,,Bhadrapur,Nepal,NP,+977 23-455432
BEA,,Bereina Airport,"Bereina, Papua New Guinea",-7.9634156,145.7714,,Kerema,Papua New Guinea,PG,
BEG,LYBE,Belgrade Nikola Tesla Airport,"Belgrade, Serbia",44.8205,20.29169,http://www.beg.aero/,Beograd,Serbia,RS,+381 11 2094444
BFL,KBFL,Meadows Field Airport,"Bakersfield, California, United States",35.43291,-119.05662,http://www.meadowsfield.com/,Bakersfield,United States,US,+1 661-391-1800
BFN,FABL,Bloemfontein Airport,"Bloemfontein, South Africa",-29.092735,26.298767,http://www.acsa.co.za/airports/bram-fischer/the-airport/about-bram-fischer,Bloemfontein,South Africa,ZA,+27 51 407 2200
BFS,EGAA,Belfast International Airport,"Belfast, Northern Ireland, United Kingdom",54.66178,-6.216244,http://www.belfastairport.com/,,United Kingdom,GB,+44 28 9448 4848
IAN,PAIK,Bob Baker Memorial Airport,"Kiana, Alaska, United States",66.9755,-160.43674,https://www.faa.gov/about/office_org/headquarters_offices/ato/service_units/systemops/fs/alaskan/alaska/fai/arpt_photo/nswdlkob/ian/,Kiana,United States,US,+1 907-442-3147
SHX,PAHX,Shageluk Airport,"Shageluk, Alaska, United States",62.691357,-159.56923,http://dot.alaska.gov/stwdav/airports_public_northern.shtml,Shageluk,United States,US,+1 907-438-2416
AAG,SSYA,Arapoti Airport,"Arapoti, Paraná, Brazil",-23.673635,-49.81896,http://siqueiracampos.pr.gov.br/prefeitura/,,Brazil,BR,
LUR,PALU,Cape Lisburne LRRS Airport,"Cape Lisburne, Alaska, United States",68.87549,-166.11217,https://nfdc.faa.gov/nfdcApps/airportLookup/airportDisplay.jsp?category=nasr&airportId=LUR,Point Hope,United States,US,+1 907-552-9730
OME,PAOM,Nome Airport,"Nome, Alaska, United States",64.50993,-165.44351,,Nome,United States,US,
LMA,PAMH,Lake Minchumina Airport (FAA: MHM),"Lake Minchumina, Alaska, United States",63.88327,-152.31668,http://www.faa.gov/airports/airport_safety/airportdata_5010/menu/contacts.cfm?Region=&District=&State=AK&County=&City=&Use=&Certification=,Lake Minchumina,United States,US,+1 907-451-5250
OOK,PAOO,Toksook Bay Airport,"Toksook Bay, Alaska, United States",60.537857,-165.08942,https://nfdc.faa.gov/nfdcApps/airportLookup/airportDisplay.jsp?category=nasr&airportId=OOK,Toksook Bay,United States,US,+1 866-864-1737
SMK,PAMK,St. Michael Airport,"St. Michael, Alaska, United States",63.48996,-162.1103,https://www.faa.gov/,Saint Michael,United States,US,
PTH,PAPH,Port Heiden Airport,"Port Heiden, Alaska, United States",56.958523,-158.6388,https://nfdc.faa.gov/nfdcApps/airportLookup/airportDisplay.jsp?category=nasr&airportId=PTH,Port Heiden,United States,US,+1 907-246-3325
PTU,PAPM,Platinum Airport,"Platinum, Alaska, United States",59.016365,-161.82562,http://www.faa.gov/airports/airport_safety/airportdata_5010/menu/contacts.cfm?Region=&District=&State=AK&County=&City=&Use=&Certification=,Platinum,United States,US,+1 907-269-0747
KPC,PAPC,Port Clarence Coast Guard Station,"Port Clarence, Alaska, United States",65.25365,-166.85847,,Teller,United States,US,
TGJ,NWWA,Tiga Airport,"Tiga Island, Loyalty Islands, New Caledonia",-21.09349,167.80385,,,New Caledonia,NC,
CZO,,Chistochina Airport,"Chistochina, Alaska, United States",62.15489,-145.45663,http://www.dot.state.ak.us/,Glennallen,United States,US,+1 907-822-3222
MLY,PAML,Manley Hot Springs Airport,"Manley Hot Springs, Alaska, United States",64.996666,-150.64305,http://dot.alaska.gov/stwdav/airports_public_northern.shtml,Manley Hot Springs,United States,US,+1 907-451-2200
MFA,HTMA,Mafia Airport,"Mafia Island, Tanzania",-7.913545,39.667236,,Kilindoni,Tanzania,TZ,
MFE,KMFE,McAllen Miller International Airport,"McAllen, Texas, United States",26.17822,-98.24096,http://mcallenairport.com/,McAllen,United States,US,+1 956-681-1500
LYK,,Lunyuk Airport,"Lunyuk, Indonesia",-8.989993,117.21602,,,Indonesia,ID,
LYR,ENSB,"Svalbard Airport, Longyear","Longyearbyen, Svalbard, Norway",78.246086,15.465563,https://avinor.no/en/airport/svalbard-airport/,Longyearbyen,Svalbard and Jan Mayen,SJ,+47 67 03 54 00
LYU,KELO,Ely Municipal Airport (FAA: ELO),"Ely, Minnesota, United States",47.82369,-91.8293,http://www.ely.mn.us/index.asp?Type=B_BASIC&SEC=%7B936B252D-C48B-42BD-B996-37F320A6CFF7%7D,Ely,United States,US,+1 218-365-5600
LYX,EGMD,Lydd Airport (London Ashford Airport),"Lydd, England, United Kingdom",50.955734,0.9335221,http://www.lydd-airport.co.uk/,,United Kingdom,GB,+44 1797 322400
LZA,FZUG,Luiza Airport,"Luiza, Democratic Republic of the Congo",0.0,0.0,,,,,
ORT,PAOR,Northway Airport,"Northway, Alaska, United States",62.96172,-141.92435,http://dot.alaska.gov/stwdav/airports_public_northern.shtml,Northway,United States,US,+1 907-883-5128
OTZ,PAOT,Ralph Wien Memorial Airport,"Kotzebue, Alaska, United States",66.88811,-162.59338,https://nfdc.faa.gov/nfdcApps/airportLookup/airportDisplay.jsp?airportId=OTZ,Kotzebue,United States,US,+1 907-442-3147
AAO,SVAN,Anaco Airport,"Anaco, Venezuela",9.430555,-64.471664,http://www.wikomm.com/card/jesus-alberto--brazon-hurtado/127,Anaco,Venezuela,VE,+58 424-8996278
AAR,EKAH,Aarhus Airport,"Aarhus, Denmark",56.307514,10.628102,http://www.aar.dk/,Kolind,Denmark,DK,+45 87 75 70 00
AAV,RPMA,Allah Valley Airport,"Surallah, Philippines",0.0,0.0,,,,,
NLG,PAOU,Nelson Lagoon Airport (FAA: OUL),"Nelson Lagoon, Alaska, United States",56.008015,-161.16156,https://nfdc.faa.gov/nfdcApps/airportLookup/airportDisplay.jsp?category=nasr&airportId=OUL,Nelson Lagoon,United States,US,+1 907-532-5000
AAY,OYGD,Al Ghaydah Airport,"Al Ghaydah, Yemen",17.048855,54.087547,http://salalahairport.co.om/,Salalah,Oman,OM,+968 23 367461
ACA,MMAA,General Juan N. Álvarez International Airport,"Acapulco, Guerrero, Mexico",16.76182,-99.75439,https://www.oma.aero/es/pasajeros/acapulco/,Acapulco,Mexico,MX,+52 744 435 2060
ACH,LSZR,St. Gallen–Altenrhein Airport,"Altenrhein, Switzerland",47.485874,9.560018,http://www.peoples.ch/,Thal,Switzerland,CH,+41 71 858 51 65
ACX,ZUYI,Xingyi Wanfenglin Airport,"Xingyi, Guizhou, China",25.085556,104.95944,,Qianxinan,China,CN,
BFV,VTUO,Buriram Airport,"Buriram, Thailand",15.228529,103.25067,,,Thailand,TH,+66 44 680 086
BGA,SKBG,Palonegro International Airport,"Bucaramanga, Colombia",7.1280894,-73.181274,http://bga.aerooriente.com.co/,Lebrija,Colombia,CO,+57 1 7433073
BGD,KBGD,Hutchinson County Airport,"Borger, Texas, United States",35.69993,-101.39411,http://hutchinsoncountyairport.com/,Borger,United States,US,+1 806-273-0137
LSI,EGPB,Sumburgh Airport,"Shetland Islands, Scotland, United Kingdom",59.878292,-1.2939239,http://www.hial.co.uk/sumburgh-airport/,,United Kingdom,GB,+44 371 700 2000
RBY,PARY,Ruby Airport,"Ruby, Alaska, United States",64.72751,-155.46857,http://www.faa.gov/airports/airport_safety/airportdata_5010/menu/contacts.cfm?Region=&District=&State=AK&County=&City=&Use=&Certification=,Ruby,United States,US,+1 907-451-5217
ABZ,EGPD,Aberdeen Airport,"Aberdeen, Scotland, United Kingdom",57.203697,-2.200162,http://www.aberdeenairport.com/,Dyce,United Kingdom,GB,+44 344 481 6666
KSM,PASM,St. Mary's Airport,"St. Mary's, Alaska, United States",49.913414,-6.29192,http://www.scilly.gov.uk/environment-transport/isles-scilly-airport,,United Kingdom,GB,+44 1720 422677
TKA,PATK,Talkeetna Airport,"Talkeetna, Alaska, United States",62.321835,-150.09367,https://www.faa.gov/about/office_org/headquarters_offices/ato/service_units/systemops/fs/alaskan/alaska/fai/arpt_photo/cooksu/tka/,Talkeetna,United States,US,+1 907-733-2278
FYU,PFYU,Fort Yukon Airport,"Fort Yukon, Alaska, United States",66.57159,-145.24966,https://nfdc.faa.gov/nfdcApps/services/ajv5/airportDisplay.jsp?airportId=fyu,Fort Yukon,United States,US,+1 907-662-3448
GAR,AYGI,Garaina Airport,"Garaina, Papua New Guinea",0.0,0.0,,,,,
TNO,MRTM,Tamarindo Airport,"Tamarindo, Costa Rica",10.314196,-85.81515,http://www.liberiacrairport.com/,,Costa Rica,CR,+506 8313 1419
TNZ,ZMTL,Tosontsengel Airport,"Tosontsengel, Mongolia",48.738895,98.29335,,Tosontsengel,Mongolia,MN,
TOB,HLGN,Tobruk Airport,"Tobruk, Libya",31.861029,23.903667,,Adam,Libya,LY,
BNM,AYBD,Bodinumu Airport,"Bodinumu, Papua New Guinea",0.0,0.0,,,,,
BNZ,,Banz Airport,"Banz, Papua New Guinea",0.0,0.0,,,,,
BPD,AYBP,Bapi Airport,"Bapi, Papua New Guinea",0.0,0.0,,,,,
CPN,,Cape Rodney Airport,"Cape Rodney, Papua New Guinea",-36.595142,174.69101,,Orewa,New Zealand,NZ,+64 9-426 5432
LZU,KLZU,Gwinnett County Airport[2] (Briscoe Field),"LaGrange, Georgia, United States",33.9755,-83.962524,https://www.gwinnettcounty.com/portal/gwinnett/Departments/Transportation/Aviation,Lawrenceville,United States,US,+1 770-822-5196
MBP,SPBB,Moyobamba Airport,"Moyobamba, Peru",-6.0655813,-77.16268,,Rioja,Peru,PE,+51 975 276 913
MBQ,HUMA,Mbarara Airport,"Mbarara, Uganda",-0.555,30.6,http://www.caa.co.ug/index.php?option=com_content&view=article&id=120&Itemid=69,,Uganda,UG,+256 41 4321465
MBT,RPVJ,Moises R. Espinosa Airport (Masbate Airport),"Masbate, Philippines",12.366758,123.62703,,Masbate City,Philippines,PH,+63 56 333 3007
MBX,LJMB,Maribor Edvard Rusjan Airport,"Maribor, Slovenia",46.478943,15.68382,,,Slovenia,SI,+386 2 629 11 75
ACS,UNKS,Achinsk Airport,"Achinsk, Krasnoyarsk Krai, Russia",56.270668,90.57025,,Achinsk,Russia,RU,
ACZ,OIZB,Zabol Airport,"Zabol, Iran",31.08782,61.54285,http://zabol.airport.ir/,Zabol,Iran,IR,+98 54 3222 4333
AER,URSS,Sochi International Airport,"Sochi, Krasnodar Krai, Russia",43.445015,39.943867,http://basel.aero/sochi/,Adler,Russia,RU,+7 800 301-19-91
AES,ENAL,"Ålesund Airport, Vigra","Ålesund, Norway",62.558655,6.1152782,https://avinor.no/flyplass/alesund/kontakt-oss/#!kontakt-flyplassen-3666,,Norway,NO,
AFZ,OIMS,Sabzevar Airport,"Sabzevar, Iran",36.171246,57.603333,https://sabzevar.airport.ir/,Sabzevar,Iran,IR,+98 51 4444 9100
AHO,LIEA,Alghero-Fertilia Airport,"Alghero, Sardinia, Italy",40.63358,8.291732,http://www.aeroportodialghero.it/,Alghero,Italy,IT,+39 079 935282
AHZ,LFHU,Alpe d'Huez Airport,"Alpe d'Huez, Rhône-Alpes, France",45.08861,6.084838,,Alpe d'Huez,France,FR,+33 6 88 48 70 49
AJL,VELP,Lengpui Airport,"Aizawl, Mizoram, India",23.838848,92.62417,,Aizawl,India,IN,+91 389 257 3233
MIN,YMPA,Minnipa Airport,"Minnipa, South Australia, Australia",-32.843666,135.14525,,Minnipa,Australia,AU,
MIP,LLMR,Mitzpe Ramon Airport,"Mitzpe Ramon, Israel",30.654825,34.808598,,Mitzpe Ramon,Israel,IL,
MIR,DTMB,Monastir Habib Bourguiba International Airport,"Monastir, Tunisia",35.758057,10.754722,http://www.habibbourguibaairport.com/,"Skanes, Monastir",Tunisia,TN,+216 73 521 300
MIT,KMIT,Shafter Airport (Minter Field),"Shafter, California, United States",35.505836,-119.19136,http://minterfield.com/,Shafter,United States,US,+1 661-393-0402
SCC,PASC,Deadhorse Airport,"Prudhoe Bay / Deadhorse, Alaska, United States",70.19716,-148.46109,http://www.dot.alaska.gov/stwdav/airports_public_northern.shtml,Prudhoe Bay,United States,US,+1 907-659-2553
SLQ,PASL,Sleetmute Airport,"Sleetmute, Alaska, United States",61.700695,-157.16623,http://dot.alaska.gov/stwdav/airports_public_central.shtml,Sleetmute,United States,US,+1 907-269-0756
MIW,KMIW,Marshalltown Municipal Airport,"Marshalltown, Iowa, United States",42.112778,-92.91778,http://www.miwairport.com/,Marshalltown,United States,US,+1 641-752-0012
MJB,,Mejit Airport (FAA: Q30),"Mejit Island, Marshall Islands",10.283333,170.869,,Mejit Atoll,Marshall Islands,MH,
BNT,AYDI,Bundi Airport,"Bundi, Papua New Guinea",25.434216,75.64975,,Bundi,India,IN,
BOT,AYET,Bosset Airport,"Bosset, Papua New Guinea",0.0,0.0,,,,,
YAV,,Mayne Island Water Aerodrome (Miner's Bay Seaplane Base) (TC: CAW7),"Mayne Island, British Columbia, Canada",0.0,0.0,,,,,
ELM,KELM,Elmira/Corning Regional Airport,"Elmira / Corning, New York, United States",42.15987,-76.89364,http://ecairport.com/,Horseheads,United States,US,+1 607-739-5621
MJC,DIMN,Man Airport,"Man, Ivory Coast",53.358803,-2.2727304,http://www.manchesterairport.co.uk/,,United Kingdom,GB,+44 808 169 7030
KKD,AYKO,Kokoda Airport,"Kokoda, Papua New Guinea",0.0,0.0,,,,,
KUY,,Kamusi Airport,"Kamusi, Papua New Guinea",0.0,0.0,,,,,
KWO,AYKW,Kawito Airport,"Kawito, Papua New Guinea",0.0,0.0,,,,,
AKJ,RJEC,Asahikawa Airport,"Asahikawa, Hokkaido, Japan",43.671078,142.4539,http://www.aapb.co.jp/,Higashikagura,Japan,JP,+81 166-83-3939
HTI,YBHM,Great Barrier Reef Airport,"Hamilton Island, Queensland, Australia",-20.351683,148.94875,http://www.hamiltonisland.com.au/getting-here/airport,Hamilton Island,Australia,AU,+61 7 4946 9999
AKL,NZAA,Auckland Airport,"Auckland, New Zealand",-37.008247,174.78503,http://www.aucklandairport.co.nz/,Auckland,New Zealand,NZ,+64 9-275 0789
MHT,KMHT,Manchester–Boston Regional Airport,"Manchester, New Hampshire, United States",42.929688,-71.43522,http://www.flymanchester.com/,Manchester,United States,US,+1 603-624-6539
IHU,,Ihu Airport,"Ihu, Papua New Guinea",0.0,0.0,,,,,
TQL,USDS,Tarko-Sale Airport,"Tarko-Sale, Yamalo-Nenets Autonomous Okrug, Russia",64.92259,77.78918,http://www.tsaero.ru/,Tarko-Sale,Russia,RU,+7 349 972-36-80
BPB,,Boridi Airport,"Boridi, Papua New Guinea",0.0,0.0,,,,,
MJF,ENMS,"Mosjøen Airport, Kjærstad","Mosjøen, Norway",65.78455,13.214656,https://avinor.no/flyplass/mosjoen/,Mosjøen,Norway,NO,+47 67 03 33 30
BPK,AYBQ,Biangabip Airport,"Biangabip, Papua New Guinea",0.0,0.0,,,,,
BTX,YBEO,Betoota Airport,"Betoota, Queensland, Australia",-25.641356,140.79135,,Birdsville,Australia,AU,
BUC,YBKT,Burketown Airport,"Burketown, Queensland, Australia",-17.745731,139.53853,,Burketown,Australia,AU,
AKT,LCRA,RAF Akrotiri,"Akrotiri, Cyprus",34.5901,32.98921,http://www.raf.mod.uk/rafakrotiri/,Akrotiri,,CY,
BDW,YBDF,Bedford Downs Airport,"Bedford Downs, Western Australia, Australia",-17.288021,127.47081,,Ord River,Australia,AU,
BGM,KBGM,Greater Binghamton Airport (Edwin A. Link Field),"Binghamton, New York, United States",42.208107,-75.98206,http://www.flybgm.com/,Johnson City,United States,US,+1 607-763-4471
BGN,UESG,Belaya Gora Airport,"Belaya Gora, Yakutia, Russia",68.55615,146.229,,Belaya Gora,Russia,RU,
BGO,ENBR,"Bergen Airport, Flesland","Bergen, Norway",60.29183,5.2220173,https://avinor.no/flyplass/bergen/,Bergen,Norway,NO,+47 67 03 15 55
BGU,FEFG,Bangassou Airport,"Bangassou, Central African Republic",4.7863693,22.779642,,,Central African Republic,CF,
BGV,,Bento Gonçalves Airport,"Bento Gonçalves, Rio Grande do Sul, Brazil",-29.19492,-51.18693,http://www.transportes.rs.gov.br/dap,,Brazil,BR,+55 54 3901-1219
BVI,YBDV,Birdsville Airport,"Birdsville, Queensland, Australia",-25.89304,139.34544,,Birdsville,Australia,AU,
YBI,,Black Tickle Airport (TC: CCE4),"Black Tickle, Newfoundland and Labrador, Canada",53.469242,-55.785313,,Black Tickle,Canada,CA,
BLS,YBLL,Bollon Airport,"Bollon, Queensland, Australia",-28.050543,147.48111,,Bollon,Australia,AU,
MJI,HLLM,Mitiga International Airport,"Tripoli, Libya",32.893585,13.275945,https://www.facebook.com/MitigaAirport/,Tripoli,Libya,LY,
MHW,SLAG,Monteagudo Airport,"Monteagudo, Bolivia",-19.817749,-63.96823,,Monteagudo,Bolivia,BO,
YIO,CYIO,Pond Inlet Airport,"Pond Inlet, Nunavut, Canada",72.69524,-77.95569,,Pond Inlet,Canada,CA,
MIA,KMIA,Miami International Airport,"Miami, Florida, United States",25.795864,-80.28705,http://www.miami-airport.com/,Miami,United States,US,+1 305-876-7000
EDA,,Edna Bay Seaplane Base,"Edna Bay, Alaska, United States",55.96629,-133.79672,,Craig,United States,US,
GCI,EGJB,Guernsey Airport,"Guernsey, Channel Islands, United Kingdom",49.434082,-2.5994887,http://www.guernsey-airport.gov.gg/,Guernsey,Guernsey,GG,+44 1481 237766
AKW,OIAG,Aghajari Airport,"Aghajari, Iran",30.74611,49.674446,,Omidiyeh,Iran,IR,+98 61 5257 3669
TRS,LIPQ,Trieste – Friuli Venezia Giulia Airport (Ronchi dei Legionari Airport),"Trieste, Friuli-Venezia Giulia, Italy",45.826645,13.470089,https://triesteairport.it/,Ronchi dei Legionari,Italy,IT,+39 0481 773224
LBV,FOOL,Libreville International Airport,"Libreville, Gabon",0.456963,9.409852,http://www.libreville-aeroport.com/,Libreville,Gabon,GA,+241 01 73 82 82
TRV,VOTV,Trivandrum International Airport,"Thiruvananthapuram, Kerala, India",8.48342,76.91982,http://www.aai.aero/allAirports/thiru_general.jsp,Thiruvananthapuram,India,IN,+91 471 270 2600
TRZ,VOTR,Tiruchirappalli International Airport,"Tiruchirappalli (Tiruchchirappalli), Tamil Nadu, India",10.760367,78.70887,https://www.aai.aero/en/airports/tiruchirapalli,Tiruchirappalli,India,IN,+91 431 234 0554
TSA,RCSS,Taipei Songshan Airport,"Taipei, Taiwan",25.067566,121.5527,http://www.tsa.gov.tw/,,Taiwan,TW,+886 2 8770 3460
TSB,FYTM,Tsumeb Airport,"Tsumeb, Namibia",-19.262175,17.728832,,Tsumeb,Namibia,NA,
TSC,SETH,Taisha Airport,"Taisha, Ecuador",0.0,0.0,,,,,
TSD,,Tshipise Airport,"Tshipise, South Africa",0.0,0.0,,,,,
TSE,UACC,Astana International Airport,"Astana, Kazakhstan",51.02807,71.4633,http://astanaairport.kz/,,Kazakhstan,KZ,+7 717 270 2999
TBG,AYTB,Tabubil Airport,"Tabubil, Papua New Guinea",-5.279679,141.22693,,Tabubil,Papua New Guinea,PG,
BQL,YBOU,Boulia Airport,"Boulia, Queensland, Australia",-22.910528,139.90125,http://www.boulia.qld.gov.au/aerodrome,Boulia,Australia,AU,+61 7 4746 3188
GIC,YBOI,Boigu Island Airport,"Boigu Island, Queensland, Australia",-9.232898,142.21675,,Boigu Island,Australia,AU,
ALF,ENAT,Alta Airport,"Alta, Norway",69.97791,23.346842,https://avinor.no/en/airport/alta-airport/,,Norway,NO,+47 67 03 49 00
ALH,YABA,Albany Airport,"Albany, Western Australia, Australia",42.74871,-73.8055,http://www.albanyairport.com/,,United States,US,+1 518-242-2200
ANO,FQAG,Angoche Airport,"Angoche, Mozambique",-16.181929,39.944008,,Angoche Island,Mozambique,MZ,
BEW,FQBR,Beira Airport,"Beira, Mozambique",-19.796824,34.9088,http://www.aeroportos.co.mz/,Cidade da Beira,Mozambique,MZ,+258 23 301 071
BGW,ORBI,Baghdad International Airport,"Baghdad, Iraq",33.267014,44.23116,http://www.baghdad-airport.com/,Baghdad,Iraq,IQ,+964 790 140 3537
HBH,,Entrance Island Seaplane Base (Hobart Bay) (FAA: 2Z1),"Entrance Island, Alaska, United States",57.41215,-133.4395,,Angoon,United States,US,+1 907-465-1786
ISA,YBMA,Mount Isa Airport,"Mount Isa, Queensland, Australia",-20.668505,139.49092,http://www.mountisaairport.com.au/,Mount Isa,Australia,AU,+61 7 4409 3000
LRE,YLRE,Longreach Airport,"Longreach, Queensland, Australia",-23.43782,144.27425,http://www.longreachairport.com.au/,Longreach,Australia,AU,+61 7 4658 3766
MYI,YMUI,Murray Island Airport,"Murray Island, Queensland, Australia",-9.913933,144.0536,,Murray Island,Australia,AU,
MJL,FOGM,Mouila Airport,"Mouila, Gabon",-1.8468255,11.055709,,Mouila,Gabon,GA,
BKO,GABS,Bamako–Sénou International Airport,"Bamako, Mali",12.540926,-7.947951,http://aeroports-mali.ml/,Bamako,Mali,ML,+223 20 20 27 01
MJM,FZWA,Mbuji Mayi Airport,"Mbuji-Mayi, Democratic Republic of the Congo",-6.1249275,23.571402,,Mbuji-Mayi,Democratic Republic of the Congo,CD,
MIC,KMIC,Crystal Airport,"Minneapolis / St Paul, Minnesota, United States",45.060722,-93.35554,https://www.metroairports.org/general-aviation/airports/crystal.aspx,Minneapolis,United States,US,+1 763-537-4096
MID,MMMD,Manuel Crescencio Rejón International Airport,"Mérida, Yucatán, Mexico",20.933842,-89.660446,http://www.asur.com.mx/,Mérida,Mexico,MX,+52 999 940 6090
LHG,YLRD,Lightning Ridge Airport,"Lightning Ridge, New South Wales, Australia",-29.453428,147.9809,,Lightning Ridge,Australia,AU,
ADX,EGQL,RAF Leuchars,"St Andrews, Scotland, United Kingdom",56.375908,-2.857591,http://www.raf.mod.uk/rafleuchars/aboutus/history.cfm,,United Kingdom,GB,
TSX,WRLT,Tanjung Santan Airport,"Tanjung Santan, Indonesia",-0.091489,117.44055,,,Indonesia,ID,
TTB,LIET,Tortolì Airport (Arbatax Airport),"Tortolì, Sardinia, Italy",39.922382,9.677404,https://www.facebook.com/airtortoliarbatax,,Italy,IT,+39 393 749 8041
AEH,FTTC,Abéché Airport,"Abéché, Chad",13.844667,20.849396,,Abeche,Chad,TD,
ASR,LTAU,Erkilet International Airport,"Kayseri, Turkey",38.77241,35.493206,http://www.kayseri.dhmi.gov.tr/havaalanlari/default.aspx?hv=27,,Turkey,TR,+90 352 337 52 44
AYN,ZHAY,Anyang Airport,"Anyang, Henan, China",0.0,0.0,,,,,
BHE,NZWB,Woodbourne Airport,"Blenheim, New Zealand",-41.51361,173.86736,https://www.omegarentalcars.com/blenheim-airport-car-rental/?utm_source=google&utm_medium=organic&utm_campaign=gmb&utm_content=blenheim,Woodbourne,New Zealand,NZ,+64 3-573 5580
BHG,,Brus Laguna Airport,"Brus Laguna, Honduras",15.761854,-84.54245,,Brus Laguna,Honduras,HN,
BHJ,VABJ,Bhuj Airport / Bhuj Rudra Mata Air Force Base,"Bhuj, Gujarat, India",23.2856,69.67067,,Bhuj,India,IN,+91 2832 244 147
BHM,KBHM,Birmingham–Shuttlesworth International Airport,"Birmingham, Alabama, United States",33.562428,-86.75413,http://flybirmingham.com/,Birmingham,United States,US,+1 205-595-0533
BHN,OYBN,Beihan Airport,"Beihan, Yemen",14.782829,45.71983,,Bayhan al Qisab,Yemen,YE,
BHQ,YBHI,Broken Hill Airport,"Broken Hill, New South Wales, Australia",-31.99874,141.47012,https://www.brokenhill.nsw.gov.au/services/facilities/airport,Broken Hill,Australia,AU,
BHT,,Brighton Downs Airport,"Brighton Downs, Queensland, Australia",50.8356,-0.2941624,http://www.flybrighton.com/,,United Kingdom,GB,+44 1273 467373
BHU,VABV,Bhavnagar Airport,"Bhavnagar, Gujarat, India",21.75378,72.183426,,Bhavnagar,India,IN,+91 278 220 3113
BVL,SLBU,Baures Airport,"Baures, Bolivia",0.0,0.0,,,,,
EUA,NFTE,Eua Airport (Kaufana Airport),"Eua, Tonga",-21.377947,-174.95747,,,Tonga,TO,
HZK,BIHU,Húsavík Airport,"Húsavík, Iceland",65.95582,-17.419725,http://www.husavikairport.com/,,Iceland,IS,+354 464 1253
MKL,KMKL,McKellar–Sipes Regional Airport,"Jackson, Tennessee, United States",35.60245,-88.92146,http://mckellarsipes.com/,Jackson,United States,US,+1 731-423-0995
BXV,BIBV,Breiðdalsvík Airport,"Breiðdalsvík, Iceland",0.0,0.0,,,,,
BAC,,Barranca de Upia Airport,"Barranca de Upía, Colombia",4.56239,-72.96362,,,Colombia,CO,
BIA,LFKB,Bastia – Poretta Airport,"Bastia, Corsica, France",42.55438,9.481487,http://www.bastia.aeroport.fr/,,France,FR,
BID,KBID,Block Island State Airport,"Block Island, Rhode Island, United States",41.169292,-71.58013,http://blockisland.stateairportri.com/,New Shoreham,United States,US,+1 401-466-5511
BIE,KBIE,Beatrice Municipal Airport,"Beatrice, Nebraska, United States",40.29988,-96.74987,http://beatriceairport.com/,Beatrice,United States,US,+1 402-223-5349
YHI,CYHI,Ulukhaktok/Holman Airport,"Ulukhaktok, Northwest Territories, Canada",70.762794,-117.8061,,Ulukhaktok,Canada,CA,
BIJ,,Biliau Airport,"Biliau, Papua New Guinea",0.0,0.0,,,,,
YKL,CYKL,Schefferville Airport,"Schefferville, Quebec, Canada",54.80402,-66.805725,http://www.airinuit.com/,Schefferville,Canada,CA,+1 418-585-3325
MKO,KMKO,Davis Field,"Muskogee, Oklahoma, United States",27.841974,-82.71787,https://www.pinellas-park.com/,Pinellas Park,United States,US,+1 727-369-0700
MKW,WASR,Rendani Airport,"Manokwari, Indonesia",-0.893595,134.05046,,,Indonesia,ID,+62 986 211892
BIU,BIBD,Bíldudalur Airport,"Bíldudalur, Iceland",65.64167,-23.546482,,,Iceland,IS,
YKG,CYAS,Kangirsuk Airport,"Kangirsuk, Quebec, Canada",60.02758,-69.99959,http://www.airinuit.com/,Kangirsuk,Canada,CA,+1 819-935-4260
MKY,YBMK,Mackay Airport,"Mackay, Queensland, Australia",-21.170567,149.18077,http://www.mackayairport.com.au/,East Mackay,Australia,AU,+61 7 4957 0201
YAT,CYAT,Attawapiskat Airport,"Attawapiskat, Ontario, Canada",52.926556,-82.43047,,Attawapiskat,Canada,CA,+1 705-997-2158
YHK,CYHK,Gjoa Haven Airport,"Gjoa Haven, Nunavut, Canada",68.635704,-95.84991,,Gjoa Haven,Canada,CA,
BJF,ENBS,Båtsfjord Airport,"Båtsfjord, Norway",70.60274,29.691902,https://avinor.no/flyplass/batsfjord/kontakt-oss/kontakt,,Norway,NO,+47 67 03 52 00
BJI,KBJI,Bemidji Regional Airport,"Bemidji, Minnesota, United States",47.509243,-94.93291,http://bemidjiairport.org/,Bemidji,United States,US,+1 218-444-2438
CZH,,Corozal Airport,"Corozal, Belize",18.381605,-88.41196,,Ranchito,Belize,BZ,
HSC,,Shaoguan Guitou Airport,"Shaoguan, Guangdong, China",0.0,0.0,,,,,
MLI,KMLI,Quad City International Airport,"Moline, Illinois, United States",41.449635,-90.50827,http://qcairport.com/,Moline,United States,US,+1 309-764-9621
MLN,GEML,Melilla Airport,"Melilla, Spain",35.279724,-2.9568393,http://www.aena.es/es/aeropuerto-melilla/index.html,Melilla,Spain,ES,+34 913 21 10 00
YLS,,Lebel-sur-Quévillon Airport (TC: CSH4),"Lebel-sur-Quévillon, Quebec, Canada",49.03,-77.016945,,Lebel-sur-Quévillon,Canada,CA,
MLO,LGML,Milos Island National Airport,"Milos, Greece",36.69787,24.469734,,,Greece,GR,
MLP,RPMM,Malabang Airport,"Malabang, Philippines",7.6344423,124.09113,,Malabang,Philippines,PH,
MNJ,FMSM,Mananjary Airport,"Mananjary, Madagascar",-21.202877,48.358143,,Mananjary,Madagascar,MG,
MNL,RPLL,Ninoy Aquino International Airport / Villamor Air Base,"Manila, Philippines",14.516388,121.01925,http://www.paf.mil.ph/,Pasay,Philippines,PH,
MJQ,KMJQ,Jackson Municipal Airport,"Jackson, Minnesota, United States",32.309944,-90.075294,http://www.jmaa.com/,Jackson,United States,US,+1 601-939-5631
BAG,RPUB,Loakan Airport,"Baguio, Philippines",0.0,0.0,,,,,
BAH,OBBI,Bahrain International Airport,"Manama, Bahrain",26.269712,50.625988,http://www.bahrainairport.com/,Muharraq,Bahrain,BH,+973 8000 7777
BAV,ZBOW,Baotou Airport,"Baotou, Inner Mongolia, China",40.566456,110.0022,,Baotou,China,CN,
BAX,UNBB,Barnaul Airport,"Barnaul, Altai Krai, Russia",53.361263,83.547386,http://www.airaltay.ru/,Barnaul,Russia,RU,+7 385 254-30-09
BBR,TFFB,Baillif Airport,"Basse-Terre, Guadeloupe",16.013924,-61.743385,,Baillif,Guadeloupe,GP,
BBS,EGLK,Blackbushe Airport,"Yateley, England, United Kingdom",51.322723,-0.839332,http://www.blackbusheairport.co.uk/,,United Kingdom,GB,+44 1252 471300
BJL,GBYD,Banjul International Airport,"Banjul, Gambia",13.34406,-16.6522,http://www.banjulairport.com/,Yundum,The Gambia,GM,+220 447 3000
BJN,,Bajone Airport,"Bajone, Mozambique",0.0,0.0,,,,,
BJQ,,Bahja Airport,"Bahja, Oman",0.0,0.0,,,,,
BJT,,Bentota River Airport,"Bentota, Sri Lanka",6.429201,79.99496,,Bentota,Sri Lanka,LK,
BJV,LTFE,Milas–Bodrum Airport,"Milas / Bodrum, Turkey",37.248657,27.663992,http://www.milasbodrum.dhmi.gov.tr/,,Turkey,TR,+90 252 523 01 01
YMP,,Port McNeill Airport (TC: CAT5),"Port McNeill, British Columbia, Canada",50.572006,-127.02553,,Port McNeill,Canada,CA,+1 250-949-1932
MST,EHBK,Maastricht Aachen Airport,"Maastricht, Netherlands",50.913685,5.773359,http://www.maa.nl/,Maastricht-Airport,Netherlands,NL,+31 43 358 9898
YND,CYND,Gatineau-Ottawa Executive Airport,"Gatineau / Ottawa (ON), Quebec, Canada",45.52095,-75.56148,http://www.aeroportdegatineau.com/,Gatineau,Canada,CA,+1 819-663-0737
MSV,KMSV,Sullivan County International Airport,"Monticello, New York, United States",41.702564,-74.8009,http://co.sullivan.ny.us/?TabId=3203,Swan Lake,United States,US,+1 845-807-0273
DJG,DAAJ,Tiska Djanet Airport,"Djanet, Algeria",24.286697,9.460322,http://www.egsa-alger.dz/index.php?option=com_content&view=article&id=18&Itemid=20,Djanet,Algeria,DZ,+213 29 47 67 47
AAL,EKYT,Aalborg Airport,"Aalborg, Denmark",57.09692,9.856463,http://www.aal.dk/,Nørresundby,Denmark,DK,+45 98 17 11 44
ALT,SDWQ,Alenquer Airport,"Alenquer, Pará, Brazil",-1.93889,-54.7472,,Alenquer,Brazil,BR,
YNP,,Natuashish Airport (TC: CNH2),"Natuashish, Newfoundland and Labrador, Canada",0.0,0.0,,,,,
AYU,AYAY,Aiyura Airport,"Aiyura, Papua New Guinea",-6.340751,145.90532,,,Papua New Guinea,PG,
MSY,KMSY,Louis Armstrong New Orleans International Airport,"New Orleans, Louisiana, United States",29.9922,-90.25901,http://www.flymsy.com/,Kenner,United States,US,+1 504-464-0831
YNC,CYNC,Wemindji Airport,"Wemindji, Quebec, Canada",53.010612,-78.83098,http://www.wemindji.ca/,,Canada,CA,+1 819-978-0215
YXY,CYXY,Erik Nielsen Whitehorse International Airport,"Whitehorse, Yukon, Canada",60.714123,-135.07611,http://www.hpw.gov.yk.ca/whitehorse_airport.html,Whitehorse,Canada,CA,+1 867-667-8440
MTH,KMTH,Florida Keys Marathon Airport,"Marathon, Florida, United States",24.724998,-81.05141,http://www.monroecounty-fl.gov/index.aspx?NID=109,Marathon,United States,US,+1 305-289-6060
EPT,AYEL,Eliptamin Airport,"Eliptamin, Papua New Guinea",0.0,0.0,,,,,
MTJ,KMTJ,Montrose Regional Airport,"Montrose, Colorado, United States",38.50038,-107.89914,http://www.flymontrose.com/,Montrose,United States,US,+1 970-249-3203
EXI,,Excursion Inlet Seaplane Base,"Excursion Inlet, Alaska, United States",58.420498,-135.44904,,Excursion Inlet,United States,US,+1 907-465-1786
BAS,AGGE,Balalae Airport,"Balalae Island, Western, Solomon Islands",-7.4172115,155.56447,,,Solomon Islands,SB,
BMT,KBMT,Beaumont Municipal Airport,"Beaumont, Texas, United States",30.070204,-94.215096,https://www.beaumontmuni.com/,Beaumont,United States,US,+1 409-880-3725
BMV,VVBM,Buon Ma Thuot Airport,"Buon Ma Thuot, Vietnam",12.664714,108.117226,https://vietnamairport.vn/buonmathuotairport/,Thành phố Buôn Ma Thuột,Vietnam,VN,+84 262 3862 248
BMY,NWWC,Île Art – Waala Airport,"Waala, Belep Islands, New Caledonia",-19.720106,163.65988,,,New Caledonia,NC,
BNA,KBNA,Nashville International Airport,"Nashville, Tennessee, United States",36.126316,-86.67737,http://www.flynashville.com/,Nashville,United States,US,+1 615-275-1675
BND,OIKB,Bandar Abbas International Airport,"Bandar Abbas, Iran",27.209497,56.368767,https://bandarabbas.airport.ir/,Bandar Abbas,Iran,IR,+98 76 3361 1020
BQI,,Bagani Airport,"Bagani, Namibia",0.0,0.0,,,,,
RXA,,Ar Rawdah Airport,"Ar Rawdah (Raudha), Yemen",0.0,0.0,,,,,
KGE,AGKG,Kaghau Airport,"Kaghau Island, Solomon Islands",0.0,0.0,,,,,
NBO,HKJK,Jomo Kenyatta International Airport,"Nairobi, Kenya",-1.3227102,36.92607,https://www.kaa.go.ke/airports/nairobi-jomo-kenyatta-intl-airport,Nairobi,Kenya,KE,+254 20 822111
YPL,CYPL,Pickle Lake Airport,"Pickle Lake, Ontario, Canada",51.44815,-90.217064,http://picklelake.ca/,Pickle Lake,Canada,CA,+1 807-928-2342
YPX,CYPX,Puvirnituq Airport,"Puvirnituq, Quebec, Canada",60.050682,-77.28718,http://www.airinuit.com/,Puvirnituq,Canada,CA,+1 819-988-2100
YPM,CYPM,Pikangikum Airport,"Pikangikum, Ontario, Canada",51.82001,-93.97411,,,Canada,CA,
NBS,ZYBS,Changbaishan Airport,"Baishan, Jilin, China",0.0,0.0,,,,,
NCE,LFMN,Nice Côte d'Azur Airport,"Nice, Provence-Alpes-Côte d'Azur, France",43.659767,7.2148213,http://www.nice.aeroport.fr/,Nice,France,FR,+33 820 42 33 33
NEU,VLSN,Sam Neua Airport,"Sam Neua, Laos",20.418156,104.066414,,Sam Nuea,Laos,LA,
KOI,EGPA,Kirkwall Airport,"Kirkwall, Scotland, United Kingdom",58.95375,-2.902102,http://www.hial.co.uk/kirkwall-airport/,Kirkwall,United Kingdom,GB,+44 1856 886210
MJR,,Miramar Airport,"Miramar, Buenos Aires, Argentina",32.870148,-117.14412,,San Diego,United States,US,
XBE,,Bearskin Lake Airport (TC: CNE3),"Bearskin Lake, Ontario, Canada",0.0,0.0,,,,,
BDS,LIBR,Brindisi – Salento Airport,"Brindisi, Apulia, Italy",40.65676,17.945349,http://www.aeroportidipuglia.it/brindisi14,Brindisi,Italy,IT,+39 0831 411 7406
BDU,ENDU,Bardufoss Airport,"Bardufoss, Norway",69.0596,18.538963,https://avinor.no/flyplass/bardufoss/,Bardufoss,Norway,NO,+47 67 03 44 00
BEB,EGPL,Benbecula Airport,"Benbecula, Scotland, United Kingdom",57.475,-7.372312,http://www.hial.co.uk/benbecula-airport,Balivanich,United Kingdom,GB,+44 1870 602051
BED,KBED,Laurence G. Hanscom Field,"Bedford, Massachusetts, United States",42.46317,-71.29119,http://www.massport.com/hanscom-field/?utm_source=hanscomfieldCom&utm_medium=Web&utm_campaign=DomainRedirect,Bedford,United States,US,+1 781-869-8000
BEF,MNBL,Bluefields Airport,"Bluefields, Nicaragua",11.991944,-83.7725,,Bluefields,Nicaragua,NI,
BQN,TJBQ,Rafael Hernández Airport,"Aguadilla, Puerto Rico, United States",18.495396,-67.135574,http://www.prpa.gobierno.pr/,Aguadilla Pueblo,Puerto Rico,PR,+1 787-890-6075
BQQ,SNBX,Barra Airport,"Barra, Bahia, Brazil",57.025356,-7.44946,http://www.hial.co.uk/barra-airport/,Eoligarry,United Kingdom,GB,+44 1871 890212
BQV,,Bartlett Cove Seaplane Base,"Bartlett Cove, Alaska, United States",58.455208,-135.88518,,Gustavus,United States,US,
BRV,EDWB,Bremerhaven Airport,"Bremerhaven, Bremen, Germany",53.538284,8.53969,http://www.wlv-blexen.de/flugplatz/,Nordenham,Germany,DE,+49 4731 37612
BTN,KBBP,Marlboro County Jetport (FAA: BBP),"Bennettsville, South Carolina, United States",34.62085,-79.73278,http://www.marlborocounty.sc.gov/,Bennettsville,United States,US,+1 843-479-4797
BTP,KBTP,Butler County Airport (K.W. Scholter Field),"Butler, Pennsylvania, United States",40.779133,-79.94757,http://butlercountyairport.org/,Butler,United States,US,+1 724-586-6665
BVA,LFOB,Beauvais–Tillé Airport,"Beauvais, Picardy, France",49.454468,2.111511,https://www.aeroportparisbeauvais.com/passagers/,Tillé,France,FR,+33 892 68 20 66
BVB,SBBV,Boa Vista International Airport,"Boa Vista, Roraima, Brazil",2.8419237,-60.69259,http://www.infraero.gov.br/,,Brazil,BR,+55 95 3198-0144
BVE,LFSL,Brive–Souillac Airport,"Brive-la-Gaillarde, Limousin, France",45.04137,1.4902998,http://www.aeroport-brive-vallee-dordogne.fr/,Nespouls,France,FR,+33 5 55 22 40 00
BVR,GVBR,Esperadinha Airport,"Brava, Cape Verde",14.865616,-24.744514,,Brava,Cape Verde,CV,
GAF,DTTF,Gafsa – Ksar International Airport,"Gafsa, Tunisia",34.42745,8.819828,,,Tunisia,TN,+216 76 217 700
JCH,BGCH,Qasigiannguit Heliport,"Qasigiannguit, Greenland",69.24344,-51.056675,http://www.mit.gl/en/todays-flights/airports/ilulissat-airport/,Ilulissat,Greenland,GL,+299 94 41 40
YSG,CYLK,Lutselk'e Airport,"Lutselk'e, Northwest Territories, Canada",62.41686,-110.70585,,Lutselk'e,Canada,CA,
YSE,CYSE,Squamish Airport,"Squamish, British Columbia, Canada",49.782505,-123.15943,https://www.seatoskyair.ca/,Squamish,Canada,CA,
YRT,CYRT,Rankin Inlet Airport,"Rankin Inlet, Nunavut, Canada",62.809654,-92.11113,,Rankin Inlet,Canada,CA,+1 867-645-3403
MIK,EFMI,Mikkeli Airport,"Mikkeli, Finland",61.68603,27.205368,https://www.mikkeli.fi/sisalto/palvelut/elinkeinot/lentoasema,Mikkeli,Finland,FI,+358 15 366427
AAM,FAMD,Mala Mala Airport,"Mala Mala, South Africa",-24.815424,31.543955,,Kruger Park,South Africa,ZA,
BGR,KBGR,Bangor International Airport,"Bangor, Maine, United States",44.806927,-68.82327,http://www.flybangor.com/,Bangor,United States,US,+1 207-992-4600
BWA,VNBW,Gautam Buddha Airport,"Siddharthanagar (Bhairawa), Nepal",27.506992,83.41994,,Siddharthanagar,Nepal,NP,+977 71-526387
BWL,KBKN,Blackwell–Tonkawa Municipal Airport (FAA: BKN),"Blackwell, Oklahoma, United States",36.746056,-97.34883,https://nfdc.faa.gov/nfdcApps/airportLookup/airportDisplay.jsp?category=nasr&airportId=KBKN,Blackwell,United States,US,+1 580-363-4242
BWM,KBPP,Bowman Municipal Airport (FAA: BPP),"Bowman, North Dakota, United States",46.17064,-103.30318,,Bowman,United States,US,+1 701-440-7449
BWW,MUBR,Las Brujas Airport,"Cayo Santa María, Cuba",9.33252,-75.28359,http://www.aeropuertocorozal.co/,,Colombia,CO,+57 5 2499735
BXA,KBXA,George R. Carr Memorial Air Field,"Bogalusa, Louisiana, United States",30.813686,-89.86497,,Bogalusa,United States,US,+1 985-732-4521
BXG,YBDG,Bendigo Airport,"Bendigo, Victoria, Australia",-36.73832,144.32635,http://www.bendigo.vic.gov.au/Business/Bendigo_Airport,Bendigo,Australia,AU,+61 417 448 328
BXH,UAAH,Balkhash Airport,"Balkhash, Kazakhstan",46.89077,75.00336,,Balkhash,Kazakhstan,KZ,+7 708 664 5657
BXI,DIBI,Boundiali Airport,"Boundiali, Ivory Coast",0.0,0.0,,,,,
BXJ,UAAR,Boraldai Airport,"Almaty, Kazakhstan",43.3516,76.8826,,Boralday,Kazakhstan,KZ,
MIM,YMER,Merimbula Airport,"Merimbula, New South Wales, Australia",-36.90988,149.90213,http://www.merimbulaairport.com.au/,Merimbula,Australia,AU,+61 2 6495 4211
MJD,OPMJ,Moenjodaro Airport,"Mohenjo-daro, Pakistan",27.331099,68.13991,http://caapakistan.com.pk/,Mohenjo-daro,Pakistan,PK,
NTQ,RJNW,Noto Airport,"Wajima, Honshu, Japan",37.29526,136.95732,http://www.noto-airport.jp/,Wajima,Japan,JP,+81 768-26-2000
APR,AYPE,April River Airport,"April River, Papua New Guinea",-4.6761656,142.54002,,,Papua New Guinea,PG,
KPF,AYDL,Kondubol Airport,"Kondubol, Papua New Guinea",0.0,0.0,,,,,
MJN,FMNM,Amborovy Airport (Philibert Tsiranana Airport),"Mahajanga, Madagascar",-15.666389,46.350834,,Mahajanga,Madagascar,MG,
MLF,KMLF,Milford Municipal Airport (Ben and Judy Briscoe Field),"Milford, Utah, United States",0.0,0.0,,,,,
MLJ,KMLJ,Baldwin County Airport,"Milledgeville, Georgia, United States",33.153767,-83.240715,https://www.baldwincountyairport.com/,Milledgeville,United States,US,+1 478-453-9358
XKS,CYAQ,Kasabonika Airport,"Kasabonika, Ontario, Canada",53.524723,-88.64278,,,Canada,CA,
BKU,FMSV,Betioky Airport,"Betioky, Madagascar",0.0,0.0,,,,,
BXK,KBXK,Buckeye Municipal Airport,"Buckeye, Arizona, United States",33.42277,-112.68535,http://www.buckeyeaz.gov/residents/buckeye-municipal-airport,Buckeye,United States,US,+1 623-349-6880
BXS,,Borrego Valley Airport (FAA: L08),"Borrego Springs, California, United States",33.258034,-116.32459,http://www.borregospringschamber.com/airport.html,Borrego Springs,United States,US,+1 760-767-7415
BXT,WRLC,PT Badak Bontang Airport,"Bontang, Indonesia",0.121657,117.47658,,,Indonesia,ID,+62 548 552125
BXX,,Borama Airport,"Borama, Somalia",9.942171,43.155945,,Borama,Somalia,SO,
BXY,UAOL,Krayniy Airport,"Baikonur, Kazakhstan",45.621944,63.210835,,,Kazakhstan,KZ,
BYA,,Boundary Airport,"Boundary, Alaska, United States",49.074993,-123.007675,https://www.czbb.com/,Delta,Canada,CA,+1 604-946-5361
BYB,,Dibba Airport,"Dibba Al-Baya, Oman",25.6146,56.2457,,"Dibba, Oman",,AE,
BYD,OYBI,Al Bayda Airport,"Al Bayda, Yemen",13.9369955,45.661633,,,Yemen,YE,
BYF,LFAQ,Albert – Picardie Airport,"Albert, Picardy, France",49.972927,2.6901066,http://www.aeroportalbertpicardie.com/,Méaulte,France,FR,+33 3 22 74 38 10
BYG,KBYG,Johnson County Airport,"Buffalo, Wyoming, United States",38.84863,-94.73779,http://www.jocogov.org/dept/airport-commission/executive-airport,Olathe,United States,US,+1 913-782-5373
BYI,KBYI,Burley Municipal Airport,"Burley, Idaho, United States",42.5398,-113.76861,,Burley,United States,US,+1 208-678-7118
BZT,,Eagle Air Park,"Brazoria, Texas, United States",0.0,0.0,,,,,
BZY,LUBL,Bălți International Airport,"Bălți, Moldova",47.84587,27.777147,,,Moldova,MD,
CAA,MHCA,Catacamas Airport,"Catacamas, Honduras",14.875614,-85.77422,,,Honduras,HN,
KPG,,Kurupung Airport,"Kurupung, Guyana",0.0,0.0,,,,,
KRX,AYKR,Karkar Airport,"Karkar Island, Papua New Guinea",0.0,0.0,,,,,
KUQ,AYKU,Kuri Airport,"Kuri, Papua New Guinea",0.0,0.0,,,,,
FAG,BIFM,Fagurhólsmýri Airport,"Fagurhólsmýri, Iceland",0.0,0.0,,,,,
SWB,,Shaw River Airport,"Shaw River, Western Australia, Australia",-21.509771,119.3626,,Shaw River,Australia,AU,
BKG,KBBG,Branson Airport (FAA: BBG),"Branson, Missouri, United States",36.538544,-93.19907,http://flybranson.com/,Hollister,United States,US,+1 888-359-2541
KHW,FBKR,Khwai River Airport,"Khwai River Lodge, Botswana",-19.149714,23.78879,http://www.thaiflyingclub.com/linkairportriverkwai.html,,Botswana,BW,
BBK,FBKE,Kasane Airport,"Kasane, Botswana",-17.8306,25.16372,http://www.caab.co.bw/caab-content.php?cid=256,Kasane,Botswana,BW,+267 368 8200
BJY,LYBT,Batajnica Air Base,"Batajnica, Serbia",44.935097,20.253248,,,Serbia,RS,
BKI,WBKK,Kota Kinabalu International Airport,"Kota Kinabalu, Sabah, Malaysia",5.923076,116.05102,http://www.malaysiaairports.com.my/index.php/component/content/article/177,Kota Kinabalu,Malaysia,MY,+60 88-325 555
BKL,KBKL,Cleveland Burke Lakefront Airport,"Cleveland, Ohio, United States",41.51157,-81.68992,http://www.burkeairport.com/,Cleveland,United States,US,+1 216-781-6411
BBZ,FLZB,Zambezi Airport,"Zambezi, Zambia",-13.537343,23.109938,,Zambezi,Zambia,ZM,
BJX,MMLO,Del Bajío International Airport (Guanajuato Int'l Airport),"León, Guanajuato, Mexico",20.993517,-101.48057,https://www.aeropuertosgap.com.mx/es/guanajuato.html,Silao,Mexico,MX,+52 472 748 2120
BKN,,Balkanabat Airport,"Balkanabat, Turkmenistan",39.480556,54.36611,,Balkanabat,Turkmenistan,TM,
BMI,KBMI,Central Illinois Regional Airport,"Bloomington, Illinois, United States",40.47621,-88.91548,http://cira.com/,Bloomington,United States,US,+1 309-663-7383
BMO,VYBM,Bhamo Airport,"Bhamo, Myanmar",24.26829,97.24973,,Bhamo,Myanmar (Burma),MM,+95 74 50 269
CAB,FNCA,Cabinda Airport,"Cabinda, Angola",-5.596699,12.188059,http://www.angoxana.com/,Cabinda,Angola,AO,+244 927 745 341
MLK,,Malta Airport (FAA: M75),"Malta, Montana, United States",48.367085,-107.9189,,Malta,United States,US,+1 406-654-1143
MLM,MMMM,General Francisco J. Mujica International Airport,"Morelia, Michoacán, Mexico",19.846464,-101.02814,https://www.aeropuertosgap.com.mx/es/morelia.html,Álvaro Obregón,Mexico,MX,+52 443 313 6780
MLR,YMCT,Millicent Airport,"Millicent, South Australia, Australia",-37.583214,140.36919,,Millicent,Australia,AU,
GUE,,Guriaso Airport,"Guriaso, Papua New Guinea",0.0,0.0,,,,,
MLS,KMLS,Miles City Airport (Frank Wiley Field),"Miles City, Montana, United States",46.4289,-105.88344,http://www.milescitymtairport.com/,Miles City,United States,US,+1 406-234-1296
MMT,KMMT,McEntire Joint National Guard Base,"Columbia, South Carolina, United States",33.940315,-80.80113,http://www.169fw.ang.af.mil/,Hopkins,United States,US,
NNI,FYNA,Namutoni Airport,"Namutoni, Namibia",-18.808754,16.923008,,Namutoni,Namibia,NA,
KWR,,Kwai Harbour Airport,"Kwai Harbour, Solomon Islands",0.0,0.0,,,,,
CAC,SBCA,Cascavel Airport (Adalberto Mendes da Silva Airport),"Cascavel, Paraná, Brazil",-25.001816,-53.50192,http://www.cettrans.com.br/aeroporto.php,,Brazil,BR,+55 45 3228-2499
CAF,SWCA,Carauari Airport,"Carauari, Amazonas, Brazil",-4.8755007,-66.89916,,,Brazil,BR,
YDW,,Obre Lake/North of Sixty Airport (TC: CKV4),"Obre Lake, Northwest Territories, Canada",60.32076,-103.12638,,,Canada,CA,
WHD,,Hyder Seaplane Base (FAA: 4Z7),"Hyder, Alaska, United States",55.904156,-130.01141,,,United States,US,
MNR,FLMG,Mongu Airport,"Mongu, Zambia",-15.254308,23.156813,,Mongu,Zambia,ZM,
MMV,,Mal Island Airport,"Mal Island, Papua New Guinea",0.0,0.0,,,,,
MMW,,Moma Airport,"Moma, Mozambique",66.452065,143.25989,,,Russia,RU,
CAM,SLCA,Camiri Airport,"Camiri, Bolivia",0.0,0.0,,,,,
CAO,KCAO,Clayton Municipal Airpark,"Clayton, New Mexico, United States",36.446453,-103.15569,,Clayton,United States,US,+1 575-374-8331
CAQ,SKCU,Juan H. White Airport,"Caucasia, Colombia",7.96582,-75.199486,,Caucasia,Colombia,CO,+57 8390654
CAR,KCAR,Caribou Municipal Airport,"Caribou, Maine, United States",46.871387,-68.01778,http://www.cariboumaine.org/index.php/living-in-caribou/airport/,Caribou,United States,US,+1 207-493-4237
CAS,GMMC,Anfa Airport,"Casablanca, Morocco",33.556194,-7.6618166,,Casablanca,Morocco,MA,
CAU,SNRU,Caruaru Airport (Oscar Laranjeiras Airport),"Caruaru, Pernambuco, Brazil",-8.282731,-36.012905,,,Brazil,BR,
CAW,SBCP,Bartolomeu Lysandro Airport,"Campos dos Goytacazes, Rio de Janeiro, Brazil",-21.701117,-41.308186,http://www.infraero.gov.br/,,Brazil,BR,+55 22 2733-5022
CBB,SLCB,Jorge Wilstermann International Airport,"Cochabamba, Bolivia",-17.417048,-66.17871,,Cochabamba,Bolivia,BO,+591 4 4120400
CBF,KCBF,Council Bluffs Municipal Airport,"Council Bluffs, Iowa, United States",41.260853,-95.759476,http://www.cbairport.com/,Council Bluffs,United States,US,+1 712-322-2284
CBG,EGSC,Cambridge Airport,"Cambridge, England, United Kingdom",52.20771,0.1703386,http://www.cambridgeairport.com/,,United Kingdom,GB,+44 1223 399855
CBH,DAOR,Boudghene Ben Ali Lotfi Airport,"Béchar, Algeria",31.645279,-2.278066,,Béchar,Algeria,DZ,+213 21 50 91 91
CBK,KCBK,Colby Municipal Airport (Shalz Field),"Colby, Kansas, United States",39.428173,-101.04898,http://www.cityofcolby.com/index.aspx?NID=8,Colby,United States,US,+1 785-460-4438
CBL,SVCB,Tomás de Heres Airport,"Ciudad Bolívar, Venezuela",8.125555,-63.537666,,Ciudad Bolívar,Venezuela,VE,
CBN,WICD,Penggung Airport (Cakrabuwana Airport),"Cirebon, Indonesia",-6.7565756,108.53894,,,Indonesia,ID,+62 231 484085
CBS,SVON,Oro Negro Airport,"Cabimas, Venezuela",10.331286,-71.31934,,,Venezuela,VE,
CCC,MUCC,Jardines del Rey Airport,"Cayo Coco, Cuba",22.461557,-78.32732,http://cuba.drtransfers.com/aeropuerto-cayo-coco/,,Cuba,CU,
CCF,LFMK,Carcassonne Airport,"Carcassonne, Languedoc-Roussillon, France",43.21575,2.3061712,http://www.aeroport-carcassonne.com/,Carcassonne,France,FR,+33 820 67 34 11
CCH,SCCC,Chile Chico Airfield,"Chile Chico, Chile",-47.243847,-72.58842,,Cochrane,Chile,CL,
MNS,FLMA,Mansa Airport,"Mansa, Zambia",-11.138838,28.877884,,Mansa,Zambia,ZM,
CCI,SSCK,Concórdia Airport,"Concórdia, Santa Catarina, Brazil",-27.18074,-52.05164,http://www.flyway.net.br/,,Brazil,BR,+55 49 3442-9509
CCK,YPCC,Cocos (Keeling) Islands Airport,"Cocos (Keeling) Islands, Australia",-12.190961,96.83309,,West Island,Cocos (Keeling) Islands,CC,
YDA,CYDA,Dawson City Airport,"Dawson City, Yukon, Canada",64.04475,-139.12585,http://www.hpw.gov.yk.ca/airports/,Dawson,Canada,CA,+1 867-993-5338
ZQW,EDRZ,Zweibrücken Airport,"Zweibrücken, Rhineland-Palatinate, Germany",49.215343,7.401181,http://www.edrz-airport.de/,Contwig,Germany,DE,+49 6332 4607959
RAB,AYTK,Rabaul Airport (Tokua Airport),"Rabaul, Papua New Guinea",-4.34081,152.37833,,,Papua New Guinea,PG,+675 983 9360
RRS,ENRO,Røros Airport,"Røros, Norway",62.577057,11.353066,http://www.avinor.no/,,Norway,NO,+47 815 30 550
CCM,SBCM,Diomício Freitas Airport,"Criciúma, Santa Catarina, Brazil",-28.722912,-49.422222,https://www.forquilhinha.sc.gov.br/portalcidadao/index/detalhes/codMapaItem/12883/codServico/989,,Brazil,BR,
CCN,OACC,Chaghcharan Airport,"Chaghcharan, Afghanistan",34.52702,65.27532,,,Afghanistan,AF,
CCT,,Colonia Catriel Airport,"Catriel, Río Negro, Argentina",-37.908253,-67.832184,,Catriel,Argentina,AR,
WAN,,Waverney Airport,"Waverney, Queensland, Australia",0.0,0.0,,,,,
WUG,AYWU,Wau Airport,"Wau, Papua New Guinea",7.725794,27.973225,,Wau,South Sudan,SS,+211 915 503 623
BNK,YBNA,Ballina Byron Gateway Airport,"Ballina, New South Wales, Australia",-28.837618,153.55624,http://www.ballinabyronairport.com.au/,Ballina,Australia,AU,+61 2 6681 1858
BNL,KBNL,Barnwell Regional Airport,"Barnwell, South Carolina, United States",33.260143,-81.38078,http://www.barnwellregionalairport.com/,Barnwell,United States,US,+1 803-259-1090
BNN,ENBN,"Brønnøysund Airport, Brønnøy","Brønnøysund, Norway",65.45986,12.209037,https://avinor.no/flyplass/bronnoysund/,,Norway,NO,+47 67 03 33 00
MNA,WAMN,Melangguane Airport,"Melonguane, Indonesia",4.0059175,126.67476,,,Indonesia,ID,
MNI,TRPG,John A. Osborne Airport,British Overseas Territory of Montserrat,16.79143,-62.193333,,,Montserrat,MS,+1 664-491-3434
MLU,KMLU,Monroe Regional Airport,"Monroe, Louisiana, United States",32.51023,-92.043625,http://www.flymonroe.org/,Monroe,United States,US,+1 318-329-2461
YRA,CYRA,Gamètì/Rae Lakes Airport,"Gamèti, Northwest Territories, Canada",64.1168,-117.311646,,Rae Lakes,Canada,CA,
MME,EGNV,Durham Tees Valley Airport,"Teesside, England, United Kingdom",54.51103,-1.4240716,http://www.durhamteesvalleyairport.com/,,United Kingdom,GB,+44 20 7357 6917
ASI,FHAW,RAF Ascension Island (Wideawake Field),"Ascension Island, British Overseas Territoryof Saint Helena, Ascension and Tristan da Cunha",-7.968347,-14.402837,,,"Saint Helena, Ascension and Tristan da Cunha",SH,
BAN,FZVR,Basongo Airport,"Basongo, Democratic Republic of the Congo",0.0,0.0,,,,,
BNI,DNBE,Benin Airport,"Benin City, Nigeria",6.3171797,5.6036534,,Benin City,Nigeria,NG,+234 805 453 8933
BPS,SBPS,Porto Seguro Airport,"Porto Seguro, Bahia, Brazil",-16.439308,-39.081562,http://www.aeroportoseguro.com.br/,,Brazil,BR,+55 73 3288-1880
MMF,FKKF,Mamfe Airport,"Mamfe, Cameroon",0.0,0.0,,,,,
BPX,ZUBD,Qamdo Bamda Airport,"Qamdo, Tibet Autonomous Region, China",30.549778,97.106514,,Qamdo,China,CN,
BQG,UHNB,Bogorodskoye Airport,"Bogorodskoye, Khabarovsk Krai, Russia",0.0,0.0,,,,,
MNN,KMNN,Marion Municipal Airport,"Marion, Ohio, United States",40.49122,-85.67546,http://www.marionairport.net/,Marion,United States,US,+1 765-674-7777
MMH,KMMH,Mammoth Yosemite Airport,"Mammoth Lakes, California, United States",37.624462,-118.83885,http://www.ci.mammoth-lakes.ca.us/index.aspx?nid=97,Mammoth Lakes,United States,US,+1 760-934-3813
MMK,ULMM,Murmansk Airport,"Murmansk, Murmansk Oblast, Russia",68.78449,32.757927,http://www.airport-murmansk.ru/,Murmashi,Russia,RU,+7 815 228-13-31
MMM,YMMU,Middlemount Airport,"Middlemount, Queensland, Australia",-22.800087,148.70518,,Middlemount,Australia,AU,+61 439 155 652
ILF,CZBD,Ilford Airport,"Ilford, Manitoba, Canada",56.051723,-95.61448,,Ilford,Canada,CA,
FIN,AYFI,Finschhafen Airport,"Finschhafen, Papua New Guinea",0.0,0.0,,,,,
MMQ,FLBA,Mbala Airport,"Mbala, Zambia",-8.857662,31.335915,,Mbala,Zambia,ZM,
MMU,KMMU,Morristown Municipal Airport,"Morristown, New Jersey, United States",40.79756,-74.41576,http://www.mmuair.com/,Morristown,United States,US,+1 973-538-3366
MMX,ESMS,Malmö Airport,"Malmö, Sweden",55.535534,13.372383,http://www.swedavia.se/malmo/,,Sweden,SE,+46 10 109 45 00
DSC,FKKS,Dschang Airport,"Dschang, Cameroon",5.448157,10.063836,,Dschang,Cameroon,CM,
LSA,AYKA,Losuia Airport,"Kiriwina Island, Papua New Guinea",-8.506912,151.08151,,,Papua New Guinea,PG,
RBV,AGRM,Ramata Airport,"Ramata Island, Solomon Islands",0.0,0.0,,,,,
PEN,WMKP,Penang International Airport,"Penang, Malaysia",5.2934294,100.271515,http://www.penangairport.com/,Bayan Lepas,Malaysia,MY,+60 4-252 0252
BSK,DAUB,Biskra Airport,"Biskra, Algeria",34.79194,5.7335796,http://www.egsa-constantine.dz/,Biskra,Algeria,DZ,+213 33 54 30 07
MCZ,SBMO,Zumbi dos Palmares International Airport,"Maceió, Alagoas, Brazil",-9.511861,-35.793182,http://www4.infraero.gov.br/,,Brazil,BR,+55 82 3036-5200
EBW,FKKW,Ebolowa Airport,"Ebolowa, Cameroon",0.0,0.0,,,,,
CCU,VECC,Netaji Subhas Chandra Bose International Airport,"Kolkata, West Bengal, India",22.652042,88.44633,https://www.aai.aero/en/airports/kolkata,Kolkata,India,IN,+91 33 2511 8036
MDB,,Melinda Airport,"Melinda, Belize",0.0,0.0,,,,,
CCY,KCCY,Northeast Iowa Regional Airport,"Charles City, Iowa, United States",43.069103,-92.607544,http://northiowaair.com/,Charles City,United States,US,+1 641-228-3553
AOD,,Abou-Deïa Airport,"Abou-Deïa, Chad",9.447327,18.926697,,,Chad,TD,
AZR,DAUA,Touat-Cheikh Sidi Mohamed Belkebir Airport,"Adrar, Algeria",27.841246,-0.1880881,http://www.egsaoran.com/,Adrar,Algeria,DZ,+213 49 96 93 19
BPC,FKKV,Bamenda Airport,"Bamenda, Cameroon",6.0354786,10.121317,,,Cameroon,CM,
BQS,UHBB,Ignatyevo Airport,"Blagoveshchensk, Amur Oblast, Russia",50.422188,127.40747,http://amurair.ru/,,Russia,RU,+7 416 249-49-49
BQT,UMBB,Brest Airport,"Brest, Belarus",48.44764,-4.4178324,http://www.brest.aeroport.bzh/,Guipavas,France,FR,+33 2 98 32 86 00
BRA,SNBR,Barreiras Airport,"Barreiras, Bahia, Brazil",-12.078983,-45.0102,,,Brazil,BR,+55 77 3611-2361
BRB,SBRR,Barreirinhas Airport,"Barreirinhas, Maranhão, Brazil",-2.7590525,-42.80566,,,Brazil,BR,
BSB,SBBR,Brasília International Airport (Presidente J. Kubitschek Int'l Airport),"Brasília, Distrito Federal, Brazil",-15.869737,-47.917236,http://www.bsb.aero/,,Brazil,BR,+55 61 3364-9000
CDE,ZBCD,Chengde Puning Airport,"Chengde, Hebei, China",40.95294,117.96275,,Chengde,China,CN,
CDH,KCDH,Harrell Field,"Camden, Arkansas, United States",33.622776,-92.763336,https://nfdc.faa.gov/nfdcApps/airportLookup/airportDisplay.jsp?category=nasr&airportId=KCDH,Camden,United States,US,+1 870-836-6436
CDK,KCDK,George T. Lewis Airport,"Cedar Key, Florida, United States",29.134295,-83.05079,http://www.cedarkeyairport.org/,Cedar Key,United States,US,+1 352-486-5218
CDN,KCDN,Woodward Field,"Camden, South Carolina, United States",34.28361,-80.56472,http://www.kershaw.sc.gov/Index.aspx?page=90,Camden,United States,US,+1 803-425-5285
MDD,KMDD,Midland Airpark,"Midland, Texas, United States",32.035618,-102.10197,http://www.airnav.com/airport/KMDD,Midland,United States,US,+1 432-685-7000
MDF,KMDZ,Taylor County Airport,"Medford, Wisconsin, United States",37.357067,-85.31341,http://www.taylorcounty.us/countygovernment/airport.html,Campbellsville,United States,US,+1 270-789-4182
GBG,KGBG,Galesburg Municipal Airport,"Galesburg, Illinois, United States",40.93908,-90.43087,,Galesburg,United States,US,+1 309-342-3134
IRA,AGGK,Kirakira Airport (Ngorangora Airstrip),"Kirakira, Makira Island, Solomon Islands",-10.448715,161.89641,,,Solomon Islands,SB,
MDI,DNMK,Makurdi Airport,"Makurdi, Nigeria",7.701083,8.613318,,Makurdi,Nigeria,NG,+234 805 441 1202
MDJ,,Madras Municipal Airport (FAA: S33),"Madras, Oregon, United States",0.0,0.0,,,,,
PEW,OPPS,Bacha Khan International Airport,"Peshawar, Pakistan",33.98982,71.51921,http://www.peshawarairport.com.pk/,Peshawar,Pakistan,PK,+92 91 9211525
PEY,,Penong Airport,"Penong, South Australia, Australia",-31.922579,133.00111,,Penong,Australia,AU,
PEZ,UWPP,Penza Airport (Ternovka Airport),"Penza, Penza Oblast, Russia",53.11832,45.02304,http://airport58.ru/,Penza,Russia,RU,+7 902 262-82-57
PHL,KPHL,Philadelphia International Airport,"Philadelphia, Pennsylvania, United States",39.874397,-75.242424,http://www.phl.org/,Philadelphia,United States,US,+1 215-937-6937
PHN,KPHN,St. Clair County International Airport,"Port Huron, Michigan, United States",42.91044,-82.52809,http://stclaircounty.org/,Smiths Creek,United States,US,+1 810-364-6890
PKE,YPKS,Parkes Airport,"Parkes, New South Wales, Australia",-33.132812,148.2381,,Parkes,Australia,AU,
PKZ,VLPS,Pakse International Airport,"Pakse, Laos",15.135927,105.779564,,Pakse,Laos,LA,
PLA,,Planadas Airport,"Planadas, Colombia",3.2000887,-75.64138,,Planadas,Colombia,CO,
PLF,FTTP,Pala Airport,"Pala, Chad",0.0,0.0,,,,,
PLL,SBMN,Manaus Air Force Base,"Manaus, Amazonas, Brazil",-3.145285,-59.987873,,,Brazil,BR,
CZL,DABC,Mohamed Boudiaf International Airport,"Constantine, Algeria",36.28347,6.622142,http://www.egsa-constantine.dz/,Constantine,Algeria,DZ,+213 31 81 01 03
YRB,CYRB,Resolute Bay Airport,"Resolute, Nunavut, Canada",74.71694,-94.969444,http://www.resolutebayairport.com/,Resolute,Canada,CA,
QBC,CYBD,Bella Coola Airport,"Bella Coola, British Columbia, Canada",52.38782,-126.587906,https://bellacoola.ca/,Hagensborg,Canada,CA,+1 250-982-2225
ACE,GCRR,Lanzarote Airport,"Lanzarote, Canary Islands, Spain",28.950438,-13.605777,http://www.aena-aeropuertos.es/es/aeropuerto-lanzarote/index.html,,Spain,ES,+34 913 21 10 00
CDP,VOCP,Kadapa Airport,"Kadapa, Andhra Pradesh, India",14.518366,78.76803,https://www.aai.aero/en/node/4441,Kadapa,India,IN,+91 85622 00130
CDS,KCDS,Childress Municipal Airport,"Childress, Texas, United States",34.434544,-100.28262,,Childress,United States,US,+1 940-937-8309
CDW,KCDW,Essex County Airport,"Caldwell, New Jersey, United States",40.875565,-74.27827,http://www.flycdw.com/,Fairfield,United States,US,+1 973-575-0952
CEE,ULWC,Cherepovets Airport,"Cherepovets, Vologda Oblast, Russia",59.280373,38.0168,http://severstal-avia.ru/,Botovo,Russia,RU,+7 820 264-64-01
CEF,KCEF,Westover Metropolitan Airport / Westover Air Reserve Base,"Springfield, Massachusetts, United States",42.179646,-72.55584,http://www.wmass-arptcef.com/,Chicopee,United States,US,+1 413-593-5543
CEG,EGNR,Hawarden Airport (Chester Airport),"Chester, England, United Kingdom",53.181786,-2.9752994,http://www.hawardenaerodrome.co.uk/,Chester,United Kingdom,GB,+44 1244 538568
CEO,FNWK,Waco Kungo Airport,"Waku-Kungo, Angola",-11.426389,15.101389,,Cela,Angola,AO,+244 927 695 065
CES,YCNK,Cessnock Airport,"Cessnock, New South Wales, Australia",-32.781384,151.34288,,Pokolbin,Australia,AU,
CET,LFOU,Cholet Le Pontreau Airport,"Cholet, Pays de la Loire, France",47.080498,-0.8779454,http://www.cholet.fr/Xdossiers/dossier_277_aerodrome+cholet+pontreau.html,Cholet,France,FR,+33 2 41 62 12 22
CEU,KCEU,Oconee County Regional Airport,"Clemson, South Carolina, United States",34.671246,-82.88523,http://www.clemson.edu/visit/transportation.html,Seneca,United States,US,
CEV,KCEV,Mettel Field,"Connersville, Indiana, United States",39.69819,-85.13108,,Connersville,United States,US,+1 765-825-5581
MIQ,KMLE,Millard Airport (FAA: MLE),"Omaha, Nebraska, United States",41.195103,-96.113525,https://www.oracleaviation.com/,Omaha,United States,US,+1 402-934-5300
MDX,SATM,Mercedes Airport,"Mercedes, Corrientes, Argentina",-37.673756,144.85573,http://www.mbmelbourneairport.com.au/,Melbourne Airport,Australia,AU,+61 3 8346 6100
MED,OEMA,Prince Mohammad bin Abdulaziz Airport,"Medina, Saudi Arabia",24.553741,39.71508,http://www.tibahairports.com/,Medina,Saudi Arabia,SA,+966 14 813 9999
PLM,WIPP,Sultan Mahmud Badaruddin II International Airport,"Palembang, Indonesia",-2.8966715,104.6992,http://smbadaruddin2-airport.co.id/id/information/contact,,Indonesia,ID,+62 711 385000
PLN,KPLN,Pellston Regional Airport (Emmet County),"Pellston, Michigan, United States",45.57149,-84.78619,http://www.pellstonairport.com/,Pellston,United States,US,+1 231-539-8441
PLO,YPLC,Port Lincoln Airport,"Port Lincoln, South Australia, Australia",-34.603592,135.87622,http://www.lowereyrepeninsula.sa.gov.au/page.aspx?u=340,North Shields,Australia,AU,+61 8 8684 3400
PLS,MBPV,Providenciales International Airport,"Providenciales, British Overseas Territoryof Turks and Caicos Islands",21.776346,-72.27133,http://provoairport.com/,,Turks and Caicos Islands,TC,+1 649-946-4420
PLW,WAFF,Mutiara Airport,"Palu, Indonesia",-0.9186115,119.90645,http://dephub.go.id/org/bandaramutiara/home,,Indonesia,ID,+62 451 481702
PLZ,FAPE,Port Elizabeth Airport,"Port Elizabeth, South Africa",-33.98727,25.614294,http://www.airports.co.za/airports/port-elizabeth,Port Elizabeth,South Africa,ZA,+27 41 507 7319
PMC,SCTE,El Tepual Airport,"Puerto Montt, Chile",-41.433514,-73.098724,http://www.aeropuertoeltepual.cl/,Puerto Montt,Chile,CL,+56 65 229 4161
PMI,LEPA,Palma de Mallorca Airport,"Palma de Mallorca, Balearic Islands, Spain",39.551743,2.7361648,http://www.aena.es/es/aeropuerto-palma-mallorca/index.html,Palma,Spain,ES,+34 902 40 47 04
PNH,VDPP,Phnom Penh International Airport,"Phnom Penh, Cambodia",11.552743,104.844475,https://pnh.cambodia-airports.aero/en/flight/information-arrivals-and-departures,Phnom Penh,Cambodia,KH,+855 23 862 800
PNI,PTPN,Pohnpei International Airport,"Pohnpei, Federated States of Micronesia",6.985323,158.20909,http://www.ppa.fm/,,Federated States of Micronesia,FM,+91 90349 83808
BSQ,,Bisbee Municipal Airport (FAA: P04),"Bisbee, Arizona, United States",31.37157,-109.88483,http://www.bisbeeaz.gov/2165/Airport,Bisbee,United States,US,+1 520-432-6030
AMF,AYAA,Ama Airport,"Ama, Papua New Guinea",35.220325,-101.70745,http://fly-ama.com/,Amarillo,United States,US,+1 806-335-1671
SVY,,Savo Airport,"Savo Island, Solomon Islands",0.0,0.0,,,,,
VAO,AGGV,Suavanao Airport,"Suavanao, Solomon Islands",-7.587017,158.72816,,Suavanao,Solomon Islands,SB,
YAU,,Kattiniq/Donaldson Airport (TC: CTP9),"Raglan Mine, Quebec, Canada",61.66177,-73.32017,,,Canada,CA,
YAD,,Moose Lake Airport (TC: CJB4),"Moose Lake, Manitoba, Canada",46.419167,-92.804085,http://co.carlton.mn.us/613/Moose-Lake-Carlton-County-Airport,Moose Lake,United States,US,+1 218-384-9150
YAX,,Angling Lake/Wapekeka Airport (TC: CKB6),"Wapekeka, Ontario, Canada",53.842056,-89.574455,,,Canada,CA,
BBV,DIGN,Nero-Mer Airport,"Grand-Béréby, Ivory Coast",4.645679,-6.921903,,Bereby,Côte d'Ivoire,CI,
BST,OABT,Bost Airport,"Lashkar Gah (Bost), Afghanistan",31.566471,64.36233,,Lashkar Gah,Afghanistan,AF,+93 78 999 9334
BSU,FZEN,Basankusu Airport,"Basankusu, Democratic Republic of the Congo",1.2246217,19.787815,,Basankusu,Democratic Republic of the Congo,CD,
CEW,KCEW,Bob Sikes Airport,"Crestview, Florida, United States",30.777103,-86.52465,http://www.flycew.com/,Crestview,United States,US,+1 850-651-7160
BSM,OINJ,Bishe Kola Air Base,"Amol, Iran",36.655758,52.348698,,Bishe Kola,Iran,IR,
CEY,KCEY,Murray-Calloway County Airport,"Murray, Kentucky, United States",36.663567,-88.37085,http://www.murraykyleoakley.com/,Murray,United States,US,+1 270-489-2414
LYT,,Lady Elliot Island Airport,"Lady Elliot Island, Queensland, Australia",-24.112976,152.71553,,,Australia,AU,
BSO,RPUO,Basco Airport,"Basco, Philippines",20.451561,121.98067,,Basco,Philippines,PH,
CFQ,,Creston Aerodrome (TC: CAJ3),"Creston, British Columbia, Canada",49.036945,-116.49834,http://www.crestonairport.ca/,Creston,Canada,CA,+1 250-428-2733
YHD,CYHD,Dryden Regional Airport,"Dryden, Ontario, Canada",49.831745,-92.74454,http://www.dryden.ca/city_services/dryden_regional_airport/,Dryden,Canada,CA,+1 807-937-4959
YIK,CYIK,Ivujivik Airport,"Ivujivik, Quebec, Canada",62.415554,-77.92549,http://www.airinuit.com/,Ivujivik,Canada,CA,+1 819-922-3065
DJN,,Delta Junction Airport (FAA: D66),"Delta Junction, Alaska, United States",64.05133,-145.72963,http://www.faa.gov/about/office_org/headquarters_offices/ato/service_units/systemops/fs/alaskan/alaska/fai/arpt_photo/tanvly/d66/,Delta Junction,United States,US,+1 907-895-4876
MOQ,FMMV,Morondava Airport,"Morondava, Madagascar",-20.287155,44.316883,,Morondava,Madagascar,MG,+261 32 40 766 82
MOT,KMOT,Minot International Airport,"Minot, North Dakota, United States",48.25597,-101.28791,http://whyflyminot.com/,Minot,United States,US,+1 701-857-4724
MOV,YMRB,Moranbah Airport,"Moranbah, Queensland, Australia",-22.058863,148.07607,,Moranbah,Australia,AU,+61 437 297 839
MPH,RPVE,Godofredo P. Ramos Airport (Caticlan Airport),"Malay, Philippines",11.925305,121.95351,http://www.transaire.com.ph/,Malay,Philippines,PH,
ACJ,VCCA,Anuradhapura Airport,"Anuradhapura, Sri Lanka",8.301563,80.42718,,Anuradhapura,Sri Lanka,LK,+94 375 871 180
ACM,,Arica Airport,"Arica, Colombia",-18.349466,-70.33463,http://www.chacalluta.cl/,,Chile,CL,+56 58 221 2773
ACU,,Achutupo Airport,"Achutupo, Panama",9.188728,-77.99407,,,Panama,PA,
ADA,LTAF,Adana Şakirpaşa Airport,"Adana, Turkey",36.985855,35.288155,http://adana.dhmi.gov.tr/havaalanlari/sayfa.aspx?hv=7&mnu=1299,,Turkey,TR,+90 322 435 03 80
ADE,OYAA,Aden International Airport,"Aden, Yemen",12.825377,45.03709,,Aden,Yemen,YE,+967 774 866 418
ADF,LTCP,Adıyaman Airport,"Adıyaman, Turkey",37.73427,38.471996,http://www.adiyaman.dhmi.gov.tr/,,Turkey,TR,+90 416 244 22 12
ADN,SKAN,Andes Airport,"Andes, Colombia",0.0,0.0,,,,,
ADR,KPHH,Robert F. Swinnie Airport (FAA: PHH),"Andrews, South Carolina, United States",33.451466,-79.52635,http://www.georgetowncountyairport.com/andrewsairport.html,Andrews,United States,US,+1 843-545-3638
ADZ,SKSP,Gustavo Rojas Pinilla International Airport,"San Andres Island, Colombia",12.586117,-81.702156,"http://www.aerocivil.gov.co/aeropuertos/Pages/San-Andr%C3%A9s,-Gustavo-Rojas-Pinilla.aspx",,Colombia,CO,+57 8 5126112
BWC,KBWC,Brawley Municipal Airport,"Brawley, California, United States",32.98993,-115.51346,,Brawley,United States,US,+1 760-344-4581
BWD,KBWD,Brownwood Regional Airport,"Brownwood, Texas, United States",31.794977,-98.955574,http://www.brownwoodtexas.gov/163/Airport,Brownwood,United States,US,+1 325-643-1482
BWN,WBSB,Brunei International Airport,"Bandar Seri Begawan, Brunei",4.945566,114.93306,http://www.civil-aviation.gov.bn/,Bandar Seri Begawan,Brunei,BN,+673 233 0142
BWO,UWSB,Balakovo Airport,"Balakovo, Saratov Oblast, Russia",0.0,0.0,,,,,
CGG,,Casiguran Airport,"Casiguran, Philippines",16.194218,122.064926,,Casiguran,Philippines,PH,
CGH,SBSP,São Paulo–Congonhas Airport,"São Paulo, São Paulo, Brazil",-23.627325,-46.656586,http://www.infraero.com.br/index.php/br/aeroportos/sao-paulo/aeroporto-de-sao-paulo-congonhas.html,,Brazil,BR,+55 11 5090-9000
CGJ,,Kasompe Airport,"Chingola, Zambia",-12.572072,27.89341,,Chingola,Zambia,ZM,
MPL,LFMT,Montpellier–Méditerranée Airport (Fréjorgues Airport),"Montpellier, Languedoc-Roussillon, France",43.579597,3.9652371,http://www.montpellier.aeroport.fr/,,France,FR,+33 4 67 20 85 00
AHM,,Ashland Municipal Airport (FAA: S03),"Ashland, Oregon, United States",42.189632,-122.65995,,Ashland,United States,US,+1 541-482-7675
CDY,RPMU,Cagayan de Sulu Airport,"Mapun, Philippines",7.013352,118.49625,,Mapun,Philippines,PH,
MRJ,MHMA,Marcala Airport,"Marcala, Honduras",0.0,0.0,,,,,
KMR,AYRI,Karimui Airport,"Karimui, Papua New Guinea",-6.551971,144.85551,,,Papua New Guinea,PG,
CEB,RPVM,Mactan–Cebu International Airport,"Lapu-Lapu, Philippines",10.310656,123.980225,http://www.mciaa.gov.ph/,Lapu-Lapu City,Philippines,PH,+63 32 340 2486
CEC,KCEC,Del Norte County Airport (Jack McNamara Field),"Crescent City, California, United States",41.777664,-124.235695,http://flycrescentcity.com/,Crescent City,United States,US,+1 707-464-7288
CEI,VTCT,Chiang Rai International Airport (Mae Fah Luang Int'l),"Chiang Rai, Thailand",19.95437,99.87901,https://chiangraiairportthai.com/,Ban Du - Rim Kok,Thailand,TH,+66 53 798 000
LMG,,Lamassa Airport,"Lamassa, Papua New Guinea",0.0,0.0,,,,,
CGZ,KCGZ,Casa Grande Municipal Airport,"Casa Grande, Arizona, United States",32.955223,-111.76089,https://casagrandeaz.gov/municipal-airport/,Casa Grande,United States,US,+1 520-426-3616
CHH,SPPY,Chachapoyas Airport,"Chachapoyas, Peru",-6.206854,-77.85245,,Chachapoyas,Peru,PE,+51 972 751 585
CHJ,FVCH,Chipinge Airport,"Chipinge, Zimbabwe",0.0,0.0,,,,,
CHK,KCHK,Chickasha Municipal Airport,"Chickasha, Oklahoma, United States",35.090977,-97.96593,http://www.chickasha.org/,Chickasha,United States,US,+1 405-222-6006
AHS,MHAH,Ahuas Airport,"Ahuas, Honduras",15.761854,-84.54245,,Brus Laguna,Honduras,HN,
AIF,SNAX,Assis Airport (former ICAO: SBAS),"Assis, São Paulo, Brazil",-22.637737,-50.453156,http://www.daesp.sp.gov.br/aeroporto-detalhe/?id=845,,Brazil,BR,+55 18 3322-5941
MRK,KMKY,Marco Island Airport (FAA: MKY),"Marco Island, Florida, United States",25.995834,-81.673004,http://www.colliergov.net/your-government/divisions-a-e/airport-authority/marco-island-executive-airport,Naples,United States,US,+1 239-394-3355
AIL,,Ailigandí Airport,"Ailigandí, Panama",0.0,0.0,,,,,
AIS,NGTR,Arorae Island Airport,"Arorae Island, Kiribati",-2.6162481,176.80211,,,Kiribati,KI,
MRL,,Miners Lake Airport,"Miners Lake, Queensland, Australia",0.0,0.0,,,,,
AJA,LFKJ,Ajaccio Napoleon Bonaparte Airport,"Ajaccio, Corsica, France",41.920216,8.794628,http://www.2a.cci.fr/Aeroport-Napoleon-Bonaparte-Ajaccio.html,Ajaccio,France,FR,+33 4 95 23 56 56
AJF,OESK,Al-Jawf Domestic Airport,"Sakakah, Al Jawf, Saudi Arabia",29.788502,40.10202,https://gaca.gov.sa/,Sakaka,Saudi Arabia,SA,+966 14 624 2766
AJI,LTCO,Ağrı Airport,"Ağrı, Turkey",39.65457,43.020874,http://www.agri.dhmi.gov.tr/,,Turkey,TR,+90 472 216 04 00
AJK,OIHR,Arak Airport,"Arak, Iran",34.13384,49.842762,http://arak.airport.ir/,Arak,Iran,IR,+98 86 3368 0029
AJS,,Punta Abreojos Airstrip,"Punta Abreojos, Baja California Sur, Mexico",26.717302,-113.57434,,Punta Abreojos,Mexico,MX,
AKA,ZLAK,Ankang Wulipu Airport,"Ankang, Shaanxi, China",32.707447,108.939125,http://www.cwag-ak.com/,Ankang,China,CN,
AKD,VAAK,Akola Airport,"Akola, Maharashtra, India",20.696182,77.05907,http://www.aai.aero/,Akola,India,IN,+91 724 225 8197
ASF,URWA,Narimanovo Airport,"Astrakhan, Astrakhan Oblast, Russia",46.287037,47.99988,http://аэропортастрахань.рф/,Astrakhan,Russia,RU,+7 851 239-33-17
CLQ,MMIA,Licenciado Miguel de la Madrid Airport,"Colima City, Colima, Mexico",19.280561,-103.57736,http://www.asa.gob.mx/,,Mexico,MX,
CLR,KCLR,Cliff Hatfield Memorial Airport,"Calipatria, California, United States",33.13,-115.52167,,Calipatria,United States,US,+1 760-348-4141
FRK,FSSF,Frégate Island Airport,"Frégate Island, Seychelles",-4.5820084,55.944378,http://www.fregate.com/,,Seychelles,SC,
FSL,,Fossil Downs Airport,"Fossil Downs Station, Western Australia, Australia",-18.179577,125.56302,https://www.sdwk.wa.gov.au/our-community/facilities/airports/fitzroy-crossing-yftz,Fitzroy Crossing,Australia,AU,+61 8 9191 0999
GSL,,Taltheilei Narrows Airport[2] (TC: CFA7),"Taltheilei Narrows, Northwest Territories, Canada",0.0,0.0,,,,,
SDK,WBKS,Sandakan Airport,"Sandakan, Sabah, Malaysia",5.8974776,118.06163,http://www.malaysiaairports.com.my/index.php/domestic/sandakan-airport,Sandakan,Malaysia,MY,+60 89-667 786
AEB,ZGBS,Baise Bama Airport,"Baise, Guangxi, China",23.716698,106.97122,,Baise Shi,China,CN,+86 776 323 3666
YSX,,Bella Bella/Shearwater Water Aerodrome (TC: CAW8),"Bella Bella, British Columbia, Canada",52.14991,-128.08307,,,Canada,CA,
LSJ,,Long Island Airport,"Long Island, Papua New Guinea",40.79482,-73.100586,http://www.macarthurairport.com/,Ronkonkoma,United States,US,+1 631-467-3300
MUL,KMUL,Spence Airport,"Moultrie, Georgia, United States",0.0,0.0,,,,,
MVQ,UMOO,Mogilev Airport,"Mogilev, Belarus",53.95824,30.09785,http://www.ban.by/ru/2010-06-10-12-43-31.html,Mogilev,Belarus,BY,+375 222 29-95-01
MUO,KMUO,Mountain Home Air Force Base,"Mountain Home, Idaho, United States",43.044415,-115.86198,,Mountain Home Air Force Base,United States,US,
CLS,KCLS,Chehalis-Centralia Airport,"Chehalis, Washington, United States",46.676876,-122.98284,http://www.ci.chehalis.wa.us/airport,Chehalis,United States,US,+1 360-748-1230
CLU,KBAK,Columbus Municipal Airport (FAA: BAK),"Columbus, Indiana, United States",39.99994,-82.88718,http://flycolumbus.com/,Columbus,United States,US,+1 614-239-4000
CLV,SWKN,Caldas Novas Airport,"Caldas Novas, Goiás, Brazil",-17.725328,-48.614822,,,Brazil,BR,+55 64 3454-1126
CLW,KCLW,Clearwater Air Park,"Clearwater, Florida, United States",27.975695,-82.75632,http://www.clearwaterairpark.net/,Clearwater,United States,US,+1 727-443-3433
CLX,SATC,Clorinda Airport,"Clorinda, Formosa, Argentina",-25.30338,-57.73457,,Clorinda,Argentina,AR,
CLY,LFKC,Calvi – Sainte-Catherine Airport,"Calvi, Corsica, France",42.52528,8.790031,http://www.calvi.aeroport.fr/,Calvi,France,FR,+33 4 95 65 88 88
CLZ,SVCL,Calabozo Airport,"Calabozo, Venezuela",8.925325,-67.414345,,Calabozo,Venezuela,VE,
CMC,SNWC,Camocim Airport,"Camocim, Ceará, Brazil",-2.8992486,-40.855984,,,Brazil,BR,
CMD,YCTM,Cootamundra Airport,"Cootamundra, New South Wales, Australia",-34.628784,148.03473,,Cootamundra,Australia,AU,
CME,MMCE,Ciudad del Carmen International Airport,"Ciudad del Carmen, Campeche, Mexico",18.65106,-91.80244,,Ciudad del Carmen,Mexico,MX,+52 938 382 0413
CMF,LFLB,Chambéry-Savoie Airport,"Chambéry, Rhône-Alpes, France",45.63802,5.8839135,http://www.chambery-airport.com/,Viviers-du-Lac,France,FR,+33 4 79 54 49 54
CMH,KCMH,John Glenn Columbus International Airport,"Columbus, Ohio, United States",39.99994,-82.88718,http://flycolumbus.com/,Columbus,United States,US,+1 614-239-4000
MUW,DAOV,Ghriss Airport,"Ghriss, Algeria",35.20627,0.1537348,http://www.egsaoran.com/,格里斯,Algeria,DZ,+213 45 81 91 92
AMP,FMSY,Ampanihy Airport,"Ampanihy, Madagascar",0.0,0.0,,,,,
ASL,KASL,Harrison County Airport,"Marshall, Texas, United States",40.23819,-81.01259,http://www.harrisoncountyohio.org/harrison-county-court,Cadiz,United States,US,+1 740-942-2316
ASN,KASN,Talladega Municipal Airport,"Talladega, Alabama, United States",33.571472,-86.053154,http://www.talladega.com/default.asp?ID=305&pg=Airport,Talladega,United States,US,+1 256-761-4815
ASX,KASX,John F. Kennedy Memorial Airport,"Ashland, Wisconsin, United States",46.54861,-90.91889,http://www.coawi.org/city-departments/airport/,Ashland,United States,US,+1 715-682-7070
ASY,KASY,Ashley Municipal Airport,"Ashley, North Dakota, United States",46.02772,-99.35667,,Ashley,United States,US,+1 701-288-3194
ATG,,PAF Base Minhas,"Attock, Pakistan",33.86493,72.41546,,Kamra Kalan,Pakistan,PK,
ATI,SUAG,Artigas International Airport,"Artigas, Uruguay",-30.399202,-56.510723,http://www.dinacia.gub.uy/aeropuertos-uruguayos/aeropuertos-internacionales/item/255-suag.html,Artigas,Uruguay,UY,+55 47723971
ATJ,FMME,Antsirabe Airport,"Antsirabe, Madagascar",-19.83728,47.065247,http://www.transport.gov.mg/,Antsirabe,Madagascar,MG,
ATM,SBHT,Altamira Airport,"Altamira, Pará, Brazil",-3.2535655,-52.24909,http://www4.infraero.gov.br/aeroportos/aeroporto-de-altamira-para,,Brazil,BR,+55 93 3515-1976
ATO,KUNI,Ohio University Airport (Snyder Field) (FAA: UNI),"Athens / Albany, Ohio, United States",39.21072,-82.22375,http://www.ohio.edu/airport,Albany,United States,US,+1 740-597-2600
ATX,,Atbasar Airport,"Atbasar, Kazakhstan",0.0,0.0,,,,,
BFO,FVCZ,Buffalo Range Airport,"Chiredzi, Zimbabwe",-21.008862,31.578362,http://www.caaz.co.zw/,,Zimbabwe,ZW,+263 31 2720
GHA,DAUG,Noumérat – Moufdi Zakaria Airport,"Ghardaïa, Algeria",32.37849,3.8015246,http://www.egsa-alger.dz/,Ghardaia,Algeria,DZ,+213 29 29 55 21
MUY,FCBM,Mouyondzi Airport,"Mouyondzi, Republic of the Congo",-4.0147624,13.967337,,,Republic of the Congo,CG,
MVA,BIRL,Mývatn Airport,"Mývatn, Iceland",65.65403,-16.919718,http://www.myflug.is/,,Iceland,IS,+354 464 4400
MVB,FOON,M'Vengue El Hadj Omar Bongo Ondimba International Airport,"Franceville, Gabon",-1.65,13.433333,,,Gabon,GA,
MVC,KMVC,Monroe County Airport,"Monroeville, Alabama, United States",39.14663,-86.61409,,Bloomington,United States,US,+1 812-825-5406
MTP,KMTP,Montauk Airport,"Montauk, New York, United States",41.07639,-71.92066,http://www.faa.gov/airports/airport_safety/airportdata_5010/menu/contacts.cfm?Region=&District=&State=NY&County=&City=MONTAUK&Use=&Certification=,Montauk,United States,US,+1 631-668-3738
CPV,SBKG,Campina Grande Airport (Presidente João Suassuna Airport),"Campina Grande, Paraíba, Brazil",-7.2688785,-35.89402,http://www4.infraero.gov.br/aeroportos/aeroporto-de-campina-grande-presidente-joao-suassuna,,Brazil,BR,+55 83 3332-9023
ANJ,FCBZ,Zanaga Airport,"Zanaga, Republic of the Congo",0.0,0.0,,,,,
NUT,,Nutuve Airport,"Nutuve, Papua New Guinea",-5.333944,151.65639,,,Papua New Guinea,PG,
CRW,KCRW,Yeager Airport,"Charleston, West Virginia, United States",38.37145,-81.59349,http://yeagerairport.com/,Charleston,United States,US,+1 304-344-8033
YVC,CYVC,La Ronge (Barber Field) Airport,"La Ronge, Saskatchewan, Canada",55.148067,-105.26686,http://cyvc.ca/,La Ronge,Canada,CA,+1 306-425-4530
LWI,,Lowai Airport,"Lowai, Papua New Guinea",0.0,0.0,,,,,
LIX,FWLK,Likoma Airport,"Likoma Island, Malawi",-12.075146,34.737423,,Likoma,Malawi,MW,
MVF,SBMS,Gov. Dix-Sept Rosado Airport,"Mossoró, Rio Grande do Norte, Brazil",0.0,0.0,,,,,
MVG,,Mevang Airport,"Mevang, Gabon",0.0,0.0,,,,,
MVH,,Macksville Airport,"Macksville, New South Wales, Australia",-30.675982,152.9825,,Nambucca Heads,Australia,AU,+61 429 982 888
MTR,SKMR,Los Garzones Airport,"Montería, Colombia",8.825196,-75.82401,http://www.aeropuertomonteria.co/,,Colombia,CO,+57 4 7911476
MUE,PHMU,Waimea-Kohala Airport,"Kamuela, Hawaii, United States",19.998394,-155.67332,http://hawaii.gov/mue,Waimea,United States,US,+1 808-887-8126
CSI,YCAS,Casino Airport,"Casino, New South Wales, Australia",-28.87831,153.05244,,Casino,Australia,AU,
MVM,,Kayenta Airport (FAA: 0V7),"Kayenta, Arizona, United States",36.71109,-110.23977,,Kayenta,United States,US,+1 928-697-8404
MUN,SVMT,José Tadeo Monagas International Airport,"Maturín, Venezuela",9.749867,-63.15707,,Maturin,Venezuela,VE,+58 424-8046833
MVO,FTTM,Mongo Airport,"Mongo, Chad",0.0,0.0,,,,,
SIO,YSMI,Smithton Airport,"Smithton, Tasmania, Australia",-40.834206,145.08342,,Smithton,Australia,AU,
CTP,SNCP,Carutapera Airport,"Carutapera, Maranhão, Brazil",0.0,0.0,,,,,
GSJ,MGSJ,San José Airport[2],"Puerto San José, Guatemala",37.364998,-121.9233,,San Jose,United States,US,
GUQ,SVGU,Guanare Airport,"Guanare, Venezuela",9.026787,-69.75401,,Guanare,Venezuela,VE,+58 416-0509710
GWD,OPGD,Gwadar International Airport,"Gwadar, Pakistan",25.23185,62.329315,http://www.caapakistan.com.pk/,Gwadar,Pakistan,PK,+92 86 4315046
AUG,KAUG,Augusta State Airport,"Augusta, Maine, United States",44.31882,-69.79554,http://www.augustamaine.gov/departments/augusta_state_airport/,Augusta,United States,US,+1 207-626-2306
AUM,KAUM,Austin Municipal Airport,"Austin, Minnesota, United States",43.66261,-92.93297,http://www.austinaeroflight.com/contact.php,Austin,United States,US,+1 507-433-1813
AUN,KAUN,Auburn Municipal Airport,"Auburn, California, United States",47.326523,-122.22451,https://auburnmunicipalairport.com/,Auburn,United States,US,+1 253-333-6821
AUO,KAUO,Auburn University Regional Airport,"Auburn, Alabama, United States",32.614586,-85.432686,http://auoairport.com/,Auburn,United States,US,+1 334-844-4597
AUR,LFLW,Aurillac – Tronquières Airport,"Aurillac, Auvergne, France",44.897808,2.420643,https://www.caba.fr/aeroport/,Aurillac,France,FR,+33 4 71 64 50 00
AUX,SWGN,Araguaína Airport,"Araguaína, Tocantins, Brazil",-7.2283916,-48.240532,,,Brazil,BR,+55 63 99291-8995
AVA,ZUAS,Anshun Huangguoshu Airport,"Anshun, Guizhou, China",26.254,105.876465,,Anshun,China,CN,
CMK,FWCM,Club Makokola Airport,"Club Makokola, Malawi",-14.306386,35.129284,,Nkopola,Malawi,MW,
CMN,GMMN,Mohammed V International Airport,"Casablanca, Morocco",33.371754,-7.587027,,Nouaceur,Morocco,MA,+212 5223-39040
CMP,SNKE,Santana do Araguaia Airport,"Santana do Araguaia, Pará, Brazil",-9.980157,-51.136368,,,Brazil,BR,
CMR,LFGA,Colmar - Houssen Airport,"Colmar, Alsace, France",48.109383,7.3625865,http://www.colmar.aeroport.fr/,Colmar,France,FR,+33 3 89 20 22 90
CMT,,Cameta Airport,"Cametá, Pará, Brazil",0.0,0.0,,,,,
CMW,MUCM,Ignacio Agramonte International Airport,"Camagüey, Cuba",21.424728,-77.84515,,Camagüey,Cuba,CU,
CNA,MMCA,Cananea National Airport,"Cananea, Sonora, Mexico",0.0,0.0,,,,,
BRJ,,Bright Airport,"Bright, Victoria, Australia",-36.71869,146.8898,,Buckland,Australia,AU,
CND,LRCK,Mihail Kogălniceanu International Airport,"Constanța, Romania",44.35013,28.481815,http://www.mk-airport.ro/,,Romania,RO,+40 241 255 100
GWL,VIGR,Rajmata Vijaya Raje Scindia Airport (Gwalior Airport),"Gwalior, Madhya Pradesh, India",26.2855,78.21717,,Gwalior,India,IN,
GWO,KGWO,Greenwood–Leflore Airport,"Greenwood, Mississippi, United States",33.493282,-90.086685,http://www.greenwoodms.com/index.aspx?nid=113,Greenwood,United States,US,+1 662-453-1526
GZP,LTFG,Gazipaşa–Alanya Airport[2],"Gazipaşa, Turkey",36.297386,32.301437,http://www.gzpairport.com/,,Turkey,TR,+90 242 582 71 26
GZT,LTAJ,Gaziantep Oğuzeli International Airport,"Gaziantep, Turkey",36.94712,37.47404,,,Turkey,TR,+90 342 582 11 11
HAQ,VRMH,Hanimaadhoo International Airport,"Hanimaadhoo, Haa Dhaalu Atoll, Maldives",6.7464924,73.169174,,,Maldives,MV,+960 652-0023
SPG,KSPG,Albert Whitted Airport,"St. Petersburg, Florida, United States",27.764708,-82.63336,http://www.stpete.org/airport/,Saint Petersburg,United States,US,+1 727-893-7657
WDN,,Waldronaire Airport (FAA: 90WA),"Waldron Island, Washington, United States",48.711086,-123.01778,,Eastsound,United States,US,+1 360-376-2257
XMP,,Macmillan Pass Airport (TC: CFC4),"Macmillan Pass, Yukon, Canada",63.176426,-130.2024,,,Canada,CA,
AXG,KAXA,Algona Municipal Airport (FAA: AXA),"Algona, Iowa, United States",43.08059,-94.27281,,Algona,United States,US,+1 515-295-7492
GOT,ESGG,Göteborg Landvetter Airport,"Gothenburg, Sweden",57.6688,12.292314,http://www.swedavia.se/landvetter/,Landvetter,Sweden,SE,+46 10 109 31 00
XCL,,Cluff Lake Airport (TC: CJS3),"Cluff Lake, Saskatchewan, Canada",58.391956,-109.515816,,,Canada,CA,
HDN,KHDN,Yampa Valley Airport,"Hayden, Colorado, United States",40.481403,-107.21661,http://www.yampavalleyregionalairport.com/,Hayden,United States,US,+1 970-276-5001
HDY,VTSS,Hat Yai International Airport,"Hat Yai, Thailand",6.936216,100.39372,,Khlong La,Thailand,TH,+66 74 227 000
YWK,CYWK,Wabush Airport,"Wabush, Newfoundland and Labrador, Canada",52.926575,-66.87328,http://wabushairport.com/,Wabush,Canada,CA,+1 709-282-5412
HEA,OAHR,Herat International Airport,"Herat, Afghanistan",34.212696,62.22599,,,Afghanistan,AF,
HER,LGIR,Heraklion International Airport (Nikos Kazantzakis Airport),"Heraklion, Greece",35.33958,25.174747,http://www.hcaa.gr/en/our-airports/kratikos-aerolimenas-hrakleioy-n-kazantzakhs,Heraklion,Greece,GR,+30 281 039 7129
HYV,EFHV,Hyvinkää Airfield,"Hyvinkää, Finland",60.6544,24.881239,http://www.hyik.fi/lentokentta,Hyvinkää,Finland,FI,+358 19 451646
HZB,LFQT,Merville–Calonne Airport,"Hazebrouck, Nord-Pas-de-Calais, France",50.627842,2.6466963,http://www.iaag-aero.com/,Merville,France,FR,+33 3 28 42 94 14
MUT,KMUT,Muscatine Municipal Airport,"Muscatine, Iowa, United States",41.36267,-91.14635,http://www.muscatineiowa.gov/index.aspx?NID=550,Muscatine,United States,US,+1 563-263-8672
MUX,OPMT,Multan International Airport,"Multan, Pakistan",30.19616,71.42382,http://www.multaninternationalairport.com.pk/,Multan,Pakistan,PK,+92 61 9200301
MUZ,HTMU,Musoma Airport,"Musoma, Tanzania",-1.4971094,33.800552,http://www.taa.go.tz/,Musoma,Tanzania,TZ,+255 22 284 2402
AWM,KAWM,West Memphis Municipal Airport,"West Memphis, Arkansas, United States",35.13542,-90.23288,http://www.westmemphisairport.net/,West Memphis,United States,US,+1 870-735-4656
AXM,SKAR,El Edén International Airport,"Armenia, Colombia",4.4528823,-75.7663,,Armenia,Colombia,CO,+57 6 7479400
AXN,KAXN,Alexandria Municipal Airport (Chandler Field),"Alexandria, Minnesota, United States",45.865578,-95.39471,http://www.alexandriaaviation.com/,Alexandria,United States,US,+1 320-762-2111
AXP,MYAP,Spring Point Airport,"Spring Point, Acklins Island, Bahamas",22.442047,-73.97066,,Spring Point Settlement,The Bahamas,BS,+1 242-344-3666
AXV,KAXV,Neil Armstrong Airport,"Wapakoneta, Ohio, United States",40.49556,-84.30179,http://www.neilarmstrongairport.com/,New Knoxville,United States,US,+1 419-753-2810
AYA,,Ayapel Airport,"Ayapel, Colombia",8.29408,-75.14936,,,Colombia,CO,
AYP,SPHO,Coronel FAP Alfredo Mendívil Duarte Airport,"Ayacucho, Peru",-13.15359,-74.20623,http://www.corpac.gob.pe/Main.asp?T=4120,Ayacucho,Peru,PE,+51 66 312418
BSG,FGBT,Bata Airport,"Bata, Equatorial Guinea",1.9001143,9.80273,,"Bata, Litoral",Equatorial Guinea,GQ,+359 87 616 1120
CNG,LFBG,Cognac – Châteaubernard Air Base,"Cognac, Poitou-Charentes, France",45.654633,-0.3137203,,,France,FR,+33 5 45 32 73 00
CNH,KCNH,Claremont Municipal Airport,"Claremont, New Hampshire, United States",43.37097,-72.368225,http://www.claremontnh.com/,Claremont,United States,US,+1 603-542-7032
CNI,ZYCH,Changhai Airport,"Changhai, Liaoning, China",39.267895,122.670006,,Dalian,China,CN,+86 411 8988 1366
CNK,KCNK,Blosser Municipal Airport,"Concordia, Kansas, United States",39.549168,-97.65222,,Concordia,United States,US,+1 785-243-1800
MVD,SUMU,Carrasco Gral. Cesáreo L. Berisso International Airport,"Montevideo, Uruguay",-34.83682,-56.016518,http://www.aeropuertodecarrasco.com.uy/,Ciudad de la Costa,Uruguay,UY,+598 2604 0329
MVN,KMVN,Mount Vernon Airport,"Mount Vernon, Illinois, United States",38.321934,-88.85349,http://www.mtvernonairport.com/,Mount Vernon,United States,US,+1 618-242-7016
MXA,KMXA,Manila Municipal Airport,"Manila, Arkansas, United States",35.889267,-90.15633,,Manila,United States,US,
MXB,WAWM,Andi Jemma Airport,"Masamba, Indonesia",-2.554235,120.32447,,,Indonesia,ID,
MXC,,Monticello Airport (FAA: U43),"Monticello, Utah, United States",37.872883,-109.34123,http://www.monticelloutah.org/,Monticello,United States,US,+1 435-587-2271
MXE,KMEB,Laurinburg–Maxton Airport (FAA: MEB),"Laurinburg / Maxton, North Carolina, United States",34.786716,-79.36217,http://www.lmairport.com/about-us,Maxton,United States,US,+1 910-844-5081
MXG,,Marlboro Airport (FAA: 9B1),"Marlborough, Massachusetts, United States",42.34384,-71.51166,http://www.marlboroairport.org/,Marlborough,United States,US,+1 508-485-0069
YKU,,Chisasibi Airport (TC: CSU2),"Chisasibi, Quebec, Canada",53.80572,-78.91664,http://www.chisasibi.org/,,Canada,CA,+1 819-855-2665
NKU,FXNK,Nkaus Airport,"Nkau, Lesotho",-30.02244,28.193813,,,Lesotho,LS,
SUJ,LRSM,Satu Mare International Airport,"Satu Mare, Romania",47.706463,22.88126,http://www.aeroportulsatumare.ro/,,Romania,RO,+40 261 768 640
DLA,FKKD,Douala International Airport,"Douala, Cameroon",4.0134387,9.717008,http://www.adcsa.aero/index.php?id=68,Douala,Cameroon,CM,+237 2 33 42 35 77
MIS,AYMS,Misima Island Airport,"Misima Island, Papua New Guinea",-10.310449,150.33391,,Gurney,Papua New Guinea,PG,+675 641 0010
MUA,AGGM,Munda Airport,"Munda, New Georgia, Solomon Islands",-8.326944,157.26306,,Munda,Solomon Islands,SB,
MCX,URML,Uytash Airport,"Makhachkala, Dagestan, Russia",42.821064,47.655544,http://www.mcx.aero/,Махачкала,Russia,RU,+7 929 892-68-62
MCY,YBSU,Sunshine Coast Airport,"Sunshine Coast, Queensland, Australia",-26.603842,153.08997,https://www.sunshinecoastairport.com.au/,Marcoola,Australia,AU,+61 1300 993 543
MDC,WAMM,Sam Ratulangi International Airport,"Manado, Indonesia",1.5490187,124.925514,https://samratulangi-airport.com/,,Indonesia,ID,+62 431 814320
MOW,,metropolitan area3,"Moscow, Russia",0.0,0.0,,,,,
LEF,FXLK,Lebakeng Airport,"Lebakeng, Lesotho",-29.890524,28.655283,,,Lesotho,LS,
LES,FXLS,Lesobeng Airport,"Lesobeng, Lesotho",0.0,0.0,,,,,
MPA,FYKM,Katima Mulilo Airport (Mpacha Airport),"Katima Mulilo, Namibia",-17.631256,24.17812,,Katima Mulilo,Namibia,NA,+264 66 250 211
CIP,FLCP,Chipata Airport,"Chipata, Zambia",-13.556944,32.587223,,,Zambia,ZM,+260 97 9150733
MXI,RPMQ,Mati Airport (Imelda R. Marcos Airport),"Mati, Philippines",6.950245,126.27249,,Mati,Philippines,PH,+63 917 709 2358
MXJ,DNMN,Minna Airport,"Minna, Nigeria",9.660273,6.4662614,,Minna,Nigeria,NG,
MVV,LFHM,Megève Altiport,"Megève, Rhône-Alpes, France",45.81977,6.6510925,http://www.aerocime.com/,Megève,France,FR,+33 4 50 21 03 21
MVZ,FVMV,Masvingo Airport,"Masvingo, Zimbabwe",-20.061293,30.860575,,Masvingo,Zimbabwe,ZW,
MXO,KMXO,Monticello Regional Airport,"Monticello, Iowa, United States",42.220364,-91.1633,,Monticello,United States,US,+1 319-465-3525
BVM,SNBL,Belmonte Airport,"Belmonte, Bahia, Brazil",0.0,0.0,,,,,
TZC,KCFS,Tuscola Area Airport (FAA: CFS),"Caro, Michigan, United States",43.457626,-83.44775,http://www.tuscolaairport.com/,Caro,United States,US,+1 989-673-4301
TZN,MYAK,South Andros Airport (Congo Town Airport),"South Andros, Andros Island, Bahamas",24.156574,-77.58376,,Congo Town,The Bahamas,BS,
TZX,LTCG,Trabzon Airport,"Trabzon, Turkey",40.99411,39.78222,http://www.trabzon.dhmi.gov.tr/havaalanlari/default.aspx?hv=8,,Turkey,TR,+90 462 328 09 40
UAC,,San Luis Río Colorado Airport,"San Luis Río Colorado, Sonora, Mexico",32.45163,-114.80457,,San Luis Río Colorado,Mexico,MX,
UAI,WPDB,Suai Airport,"Suai, East Timor",-8.54956,125.52487,,Díli,Timor-Leste,TL,+92 302 4015555
BVS,SNVS,Breves Airport,"Breves, Pará, Brazil",0.0,0.0,,,,,
UAP,NTMP,Ua Pou Airport,"Ua Pou, Marquesas Islands, French Polynesia",-9.347191,-140.07974,,,French Polynesia,PF,
UDR,VAUD,Maharana Pratap Airport,"Udaipur, Rajasthan, India",24.61901,73.890816,https://www.udaipurairport.com/,Udaipur,India,IN,+91 294 265 5950
BVX,KBVX,Batesville Regional Airport,"Batesville, Arkansas, United States",35.724934,-91.65022,http://batesvilleregionalairport.com/,Batesville,United States,US,+1 870-251-1244
BVY,KBVY,Beverly Municipal Airport,"Beverly, Massachusetts, United States",42.58442,-70.91528,http://www.beverlyairport.com/,Beverly,United States,US,+1 978-921-6072
BWF,EGNL,Barrow/Walney Island Airport,"Barrow-in-Furness, England, United Kingdom",54.1297,-3.2638302,,,United Kingdom,GB,
BWG,KBWG,Bowling Green-Warren County Regional Airport,"Bowling Green, Kentucky, United States",36.962505,-86.426926,http://www.bgwcairport.org/,Bowling Green,United States,US,+1 270-842-1101
BWH,WMKB,RMAF Butterworth,"Butterworth, Penang, Malaysia",5.465369,100.39122,,Butterworth,Malaysia,MY,+60 16-933 1724
BWI,KBWI,Baltimore/Washington International Thurgood Marshall Airport,"Baltimore–Washington metropolitan area, United States",39.177402,-76.668396,http://www.bwiairport.com/,Baltimore,United States,US,+1 410-859-7111
BWK,LDSB,Bol Airport (Brač Airport),"Bol, Croatia",43.285843,16.678967,http://www.airport-brac.hr/,Supetar,Croatia,HR,+385 21 559 711
DJM,FCBD,Djambala Airport,"Djambala, Republic of the Congo",0.0,0.0,,,,,
DUE,FNDU,Dundo Airport,"Dundo, Angola",-7.400486,20.81863,,Dundo,Angola,AO,
UAR,GMFB,Bouarfa Airport,"Bouarfa, Morocco",32.51466,-1.9820361,,Bouarfa,Morocco,MA,
HAL,FYHI,Halali Airport,"Halali, Namibia",0.0,0.0,,,,,
NUI,PAQT,Nuiqsut Airport (FAA: AQT),"Nuiqsut, Alaska, United States",70.209724,-151.00555,http://www.faa.gov/about/office_org/headquarters_offices/ato/service_units/systemops/fs/alaskan/alaska/fai/arpt_photo/brooksnorth/aqt/,Nuiqsut,United States,US,+1 907-852-2611
NWT,,Nowata Airport,"Nowata, Papua New Guinea",36.72063,-95.62331,,Nowata,United States,US,
OCM,YBGD,Boolgeeda Airport,"Boolgeeda, Western Australia, Australia",-22.539936,117.27515,,Rocklea,Australia,AU,
NTG,ZSNT,Nantong Xingdong Airport,"Nantong, Jiangsu, China",32.070835,120.975555,http://www.ntcaac.com,Nantong,China,CN,+86 513 8656 0050
NYA,USHN,Nyagan Airport,"Nyagan, Khanty-Mansi Autonomous Okrug, Russia",62.101772,65.6061,http://nyaganaero.ru/,,Russia,RU,
NYM,USMM,Nadym Airport,"Nadym, Yamalo-Nenets Autonomous Okrug, Russia",65.479965,72.69239,http://www.avianadym.ru/,городок Аэропорт,Russia,RU,+7 349 954-52-63
ORS,,Orpheus Island Resort Waterport,"Orpheus Island, Queensland, Australia",-18.601131,146.49042,http://www.orpheus.com.au/,Palm Island,Australia,AU,+61 7 4777 7377
UGS,,Ugashik Airport (FAA: 9A8),"Ugashik, Alaska, United States",57.524967,-157.38885,,Pilot Point,United States,US,
MWU,,Mussau Island Airport,"Mussau Island, Papua New Guinea",-2.060708,147.42572,,Momote,Papua New Guinea,PG,
BLJ,DABT,Mostépha Ben Boulaid Airport,"Batna, Algeria",35.757286,6.309525,http://www.blj-dz.com/,Lazrou,Algeria,DZ,+213 23 77 01 10
AIH,AYAK,Aiambak Airport,"Aiambak, Papua New Guinea",0.0,0.0,,,,,
BGX,SBBG,Comandante Gustavo Kraemer Airport,"Bagé, Rio Grande do Sul, Brazil",-31.389591,-54.11207,http://www4.infraero.gov.br/aeroportos/aeroporto-internacional-de-bage-comandante-gustavo-kraemer/,Bagé,Brazil,BR,+55 53 3242-7702
BMF,FEGM,Bakouma Airport,"Bakouma, Central African Republic",5.694333,22.80031,,Bakouma,Central African Republic,CF,
BGY,LIME,Il Caravaggio International Airport (Orio al Serio Airport),"Milan / Bergamo, Lombardy, Italy",45.66957,9.703631,http://www.orioaeroporto.it/,Orio al Serio,Italy,IT,+39 035 326323
MKH,FXMK,Mokhotlong Airport,"Mokhotlong, Lesotho",-29.282562,29.071812,,Mokhotlong,Lesotho,LS,+266 6817 3300
BNY,AGGB,Bellona/Anua Airport,"Bellona Island, Rennell and Bellona, Solomon Islands",-11.302115,159.79851,,,Solomon Islands,SB,
KVG,AYKV,Kavieng Airport,"Kavieng, Papua New Guinea",-2.5786076,150.80643,,Kavieng,Papua New Guinea,PG,+675 984 2462
NYO,ESKN,Stockholm Skavsta Airport,"Stockholm / Nyköping, Sweden",58.78902,16.915365,http://www.skavsta.se/,,Sweden,SE,+46 155 28 04 00
NYR,UENN,Nyurba Airport,"Nyurba, Yakutia, Russia",63.295597,118.35433,,Нюрба,Russia,RU,
BRH,,Brahman Airport,"Brahman, Papua New Guinea",0.0,0.0,,,,,
BHD,EGAC,George Best Belfast City Airport,"Belfast, Northern Ireland, United Kingdom",54.617615,-5.8718305,http://www.belfastcityairport.com/,,United Kingdom,GB,+44 28 9093 9093
UES,KUES,Waukesha County Airport (Crites Field),"Waukesha, Wisconsin, United States",43.038857,-88.2376,https://www.waukeshacounty.gov/airport,Waukesha,United States,US,+1 262-521-5250
NYT,VYNT,Naypyidaw Airport,"Naypyidaw (Nay Pyi Taw), Myanmar",19.615017,96.21302,,(Yelegwe),Myanmar (Burma),MM,+95 67 810 9111
UET,OPQT,Quetta International Airport,"Quetta, Pakistan",30.249073,66.94882,,Quetta,Pakistan,PK,+92 81 2880212
OBL,EBZR,Oostmalle Airfield,"Zoersel, Belgium",51.265892,4.7559366,http://www.ebzr.be/,Malle,Belgium,BE,+32 3 311 55 13
OBN,EGEO,Oban Airport (North Connel Airport),"Oban, Scotland, United Kingdom",56.465652,-5.3976727,http://obanandtheislesairports.com/,North Connel,United Kingdom,GB,+44 1631 572910
OBO,RJCB,Tokachi–Obihiro Airport,"Obihiro, Hokkaido, Japan",42.73221,143.21288,http://www.tokachiobihiro-airport.jp/index.html.ja,Obihiro,Japan,JP,+81 155-64-5320
OBX,AYOB,Obo Airport,"Obo, Papua New Guinea",42.73221,143.21288,http://www.tokachiobihiro-airport.jp/index.html.ja,Obihiro,Japan,JP,+81 155-64-5320
UFA,UWUU,Ufa International Airport,"Ufa, Bashkortostan, Russia",54.565125,55.884174,http://www.airportufa.ru/,Bulgakovo,Russia,RU,+7 800 200-66-02
OCS,,Corisco International Airport,"Corisco Island, Equatorial Guinea",0.456963,9.409852,http://www.libreville-aeroport.com/,Libreville,Gabon,GA,+241 01 73 82 82
UGC,UTNU,Urgench International Airport,"Urgench, Uzbekistan",41.583885,60.642433,,Urgench,Uzbekistan,UZ,+998 62 226 24 25
UGU,,Bilogai Airport,"Bilogai, Indonesia",-3.7395623,137.03197,,,Indonesia,ID,
UIB,SKUI,El Caraño Airport,"Quibdó, Colombia",5.690999,-76.64418,http://www.aeropuertoquibdo.co/,,Colombia,CO,+57 4 6711537
UKI,KUKI,Ukiah Municipal Airport,"Ukiah, California, United States",39.127666,-123.20136,http://www.cityofukiah.com/ukiah-airport/,Ukiah,United States,US,
UKK,UASK,Oskemen Airport (Ust-Kamenogorsk Airport),"Oskemen (Ust-Kamenogorsk), Kazakhstan",50.026127,82.506096,http://ru.airport-uk.kz/,Ust'-Kamenogorsk,Kazakhstan,KZ,+7 723 277 8484
BWQ,YBRW,Brewarrina Airport,"Brewarrina, New South Wales, Australia",-29.971945,146.81416,,Brewarrina,Australia,AU,
OFF,KOFF,Offutt Air Force Base,"Omaha, Nebraska, United States",41.12427,-95.91456,,Offutt Air Force Base,United States,US,
OGG,PHOG,Kahului Airport,"Kahului, Hawaii, United States",20.896791,-156.43294,http://hawaii.gov/ogg,Kahului,United States,US,+1 808-872-3830
BWU,YSBK,Bankstown Airport,"Bankstown, New South Wales, Australia",-33.92459,150.99767,http://www.bankstownairport.com.au/,Bankstown,Australia,AU,+61 2 9796 2300
OGL,SYGO,Ogle Airport,"Georgetown, Guyana",6.805783,-58.10532,http://www.ogleairportguyana.com/,,Guyana,GY,+592 222 4132
OGN,ROYN,Yonaguni Airport,"Yonaguni, Yaeyama Islands, Japan",24.465317,122.980064,http://www.pref.okinawa.jp/airport/index/yn/yonaguni00.htm,Yonaguni-chō,Japan,JP,+81 980-87-2831
UKS,UKFB,Sevastopol International Airport,Sevastopol,45.019108,33.997295,http://sipaero.ru/,Aeroflots'kyi,Ukraine,UA,+7 978 936-77-71
BXD,WAKE,Bade Airport,"Bade, Indonesia",0.0,0.0,,,,,
OGR,FTTB,Bongor Airport,"Bongor, Chad",44.806927,-68.82327,http://www.flybangor.com/,Bangor,United States,US,+1 207-992-4600
DIP,DFED,Diapaga Airport,"Diapaga, Burkina Faso",0.0,0.0,,,,,
HED,,Herendeen Bay Airport (FAA: AK33),"Herendeen Bay, Alaska, United States",55.801395,-160.89926,,Herendeen Bay,United States,US,
OGS,KOGS,Ogdensburg International Airport,"Ogdensburg, New York, United States",44.682095,-75.47683,http://www.ogsair.com/,Ogdensburg,United States,US,+1 315-393-1080
OSL,ENGM,"Oslo Airport, Gardermoen","Oslo, Norway",60.19755,11.100415,http://www.osl.no/,,Norway,NO,+47 64 81 20 00
OSN,RKSO,Osan Air Base,"Osan, South Korea",37.086216,127.039185,http://www.osan.af.mil/,Pyeongtaek,South Korea,KR,
OSR,LKMT,Leoš Janáček Airport Ostrava,"Ostrava, Czech Republic",49.69696,18.116503,http://www.airport-ostrava.cz,Mošnov,Czechia,CZ,+420 597 471 136
OSS,UAFO,Osh Airport,"Osh, Kyrgyzstan",40.608334,72.793335,http://www.airport.kg/osh,Osh,Kyrgyzstan,KG,+996 3222 90101
OST,EBOS,Ostend–Bruges International Airport,"Ostend / Bruges, Belgium",51.204193,2.8698127,http://www.luchthaven-oostendebrugge.com/,Oostende,Belgium,BE,+32 59 55 12 11
OSU,KOSU,Ohio State University Airport,"Columbus, Ohio, United States",40.07746,-83.07347,http://www.osuairport.org/,Columbus,United States,US,+1 614-292-5460
HLW,FAHL,Hluhluwe Airport,"Hluhluwe, South Africa",-28.014719,32.27583,,Hluhluwe,South Africa,ZA,
ALG,DAAG,Houari Boumediene Airport,"Algiers, Algeria",36.697525,3.2067833,http://www.egsa-alger.dz,"Dar El Beida, Algiers",Algeria,DZ,+213 21 50 91 91
BNB,FZGN,Boende Airport,"Boende, Democratic Republic of the Congo",-0.2879178,20.880333,,Boende,Democratic Republic of the Congo,CD,
AMB,FMNE,Ambilobe Airport,"Ambilobe, Madagascar",-13.1885,48.988083,,,Madagascar,MG,
ANM,FMNH,Antsirabato Airport,"Antalaha, Madagascar",-14.998869,50.320316,,Antalaha,Madagascar,MG,+261 33 80 776 98
BOE,FCOB,Boundji Airport,"Boundji, Republic of the Congo",0.0,0.0,,,,,
ANR,EBAW,Antwerp International Airport,"Antwerp, Belgium",51.188747,4.4608736,http://www.antwerp-airport.be/,Antwerpen,Belgium,BE,+32 3 285 65 00
BIK,WABB,Frans Kaisiepo Airport,"Biak, Indonesia",-1.1894938,136.10849,http://franskaisiepo-airport.co.id/,,Indonesia,ID,+62 981 22555
BIL,KBIL,Billings Logan International Airport,"Billings, Montana, United States",45.80351,-108.53791,http://www.flybillings.com/,Billings,United States,US,+1 406-247-8609
BIN,OABN,Bamyan Airport,"Bamyan, Afghanistan",34.812862,67.828125,,Bamyan,Afghanistan,AF,
BIO,LEBB,Bilbao Airport,"Bilbao, Basque Country, Spain",43.302494,-2.911116,http://www.aena.es/es/aeropuerto-bilbao/index.html,Loiu,Spain,ES,+34 913 21 10 00
BIS,KBIS,Bismarck Municipal Airport,"Bismarck, North Dakota, United States",46.77519,-100.75725,http://www.bismarckairport.com/,Bismarck,United States,US,+1 701-355-1800
BYJ,LPBJ,Beja Airport,"Beja, Portugal",38.063667,-7.9393034,,,Portugal,PT,+351 284 001 020
BJB,OIMN,Bojnord Airport,"Bojnord, Iran",37.489807,57.307716,http://bojnord.airport.ir/,Bojnurd,Iran,IR,+98 58 3223 6570
KKW,FZCA,Kikwit Airport,"Kikwit, Democratic Republic of the Congo",-5.038035,18.784414,,Kikwit,Democratic Republic of the Congo,CD,
BYM,MUBY,Carlos Manuel de Céspedes Airport,"Bayamo, Cuba",20.395947,-76.619606,,Bayamo,Cuba,CU,
BYN,ZMBH,Bayankhongor Airport,"Bayankhongor, Mongolia",46.165314,100.70354,,Bayankhongor,Mongolia,MN,
UKX,UITT,Ust-Kut Airport,"Ust-Kut, Irkutsk Oblast, Russia",56.857296,105.71612,http://www.uskairport.ru/,Ust'-Kut,Russia,RU,+7 395 655-07-09
ULI,,Ulithi Airport (FAA: TT02),"Ulithi, Federated States of Micronesia",10.0199795,139.78961,,,Federated States of Micronesia,FM,
ULK,UERL,Lensk Airport,"Lensk, Yakutia, Russia",60.722443,114.831505,,"Ленский улус, Ленск",Russia,RU,+7 411 372-11-19
ULM,KULM,New Ulm Municipal Airport,"New Ulm, Minnesota, United States",44.319443,-94.50222,http://www.ci.new-ulm.mn.us/index.asp?Type=B_BASIC&SEC={840F6280-A727-429E-B482-086226133C0E},New Ulm,United States,US,+1 507-354-8127
OTU,SKOT,Otú Airport,"Remedios, Colombia",7.010637,-74.71486,,,Colombia,CO,
ULQ,SKUL,Heriberto Gíl Martínez Airport,"Tuluá, Colombia",4.090433,-76.22413,,,Colombia,CO,
ULX,,Ulusaba Airstrip,"Ulusaba, South Africa",0.0,0.0,,,,,
ULZ,ZMDN,Donoi Airport,"Uliastai, Mongolia",47.711323,96.52673,,,Mongolia,MN,
UMA,,Punta de Maisí Airport,"Maisí, Cuba",0.0,0.0,,,,,
BYO,SBDB,Bonito Airport,"Bonito, Mato Grosso do Sul, Brazil",-21.243193,-56.44983,http://www.portalbonito.com.br/servicos/informacoes,,Brazil,BR,+55 67 3255-3222
UME,ESNU,Umeå Airport,"Umeå, Sweden",63.793015,20.28928,https://www.swedavia.se/umea/,,Sweden,SE,+46 10 109 50 00
URJ,USHU,Uray Airport,"Uray, Khanty-Mansi Autonomous Okrug, Russia",60.11705,64.82382,,Uray,Russia,RU,+7 346 763-05-78
BYS,KBYS,Bicycle Lake Army Airfield (Fort Irwin),"Barstow, California, United States",35.28,-116.628334,,,United States,US,
BYV,,Beira Lake Seaplane Base,"Colombo, Sri Lanka",6.907425,79.91266,,Sri Jayawardenepura Kotte,Sri Lanka,LK,
BZF,,Benton Field,"Redding, California, United States",40.5742,-122.40714,http://www.visitredding.com/benton-field-hillside-aviation,Redding,United States,US,+1 530-241-4204
OUA,DFFD,Ouagadougou Airport,"Ouagadougou, Burkina Faso",12.356569,-1.5135413,https://ouagadougou-aeroport.bf/fr/,Ouagadougou,Burkina Faso,BF,+226 25 30 78 48
BZK,UUBP,Bryansk International Airport,"Bryansk, Bryansk Oblast, Russia",53.213497,34.18273,http://aero32.ru/,Oktyabr'skoye,Russia,RU,+7 483 272-25-54
OUE,FCOU,Ouésso Airport,"Ouésso, Republic of the Congo",1.6091038,16.039772,,Ouesso,Republic of the Congo,CG,
BZR,LFMU,Béziers Cap d'Agde Airport,"Béziers, Languedoc-Roussillon, France",43.322514,3.355438,http://www.beziers.aeroport.fr/,Portiragnes,France,FR,+33 4 67 80 99 09
OUH,FAOH,Oudtshoorn Airport,"Oudtshoorn, South Africa",-33.60361,22.18639,,Oudtshoorn,South Africa,ZA,
OUR,FKKI,Batouri Airport,"Batouri, Cameroon",0.0,0.0,,,,,
URT,VTSB,Surat Thani Airport,"Surat Thani, Thailand",9.134296,99.14288,http://www.suratthaniairport.com/,Hua Toei,Thailand,TH,+66 94 276 3729
OUS,SDOU,Jornalista Benedito Pimentel–Ourinhos State Airport,"Ourinhos, São Paulo, Brazil",-22.966349,-49.912987,,,Brazil,BR,
OUT,FTTS,Bousso Airport,"Bousso, Chad",0.0,0.0,,,,,
OVA,FMSL,Bekily Airport,"Bekily, Madagascar",-24.236082,45.304665,,Bekily,Madagascar,MG,
OVD,LEAS,Asturias Airport (Oviedo Airport),"Oviedo, Asturias, Spain",43.56238,-6.033498,http://www.aena.es/es/aeropuerto-asturias/index.html,Santiago del Monte,Spain,ES,+34 913 21 10 00
OVR,SAZF,Olavarría Airport,"Olavarría, Buenos Aires, Argentina",-36.893158,-60.21919,,Olavarría,Argentina,AR,+54 2281 44-5554
PAD,EDLP,Paderborn Lippstadt Airport,"Paderborn / Lippstadt, North Rhine-Westphalia, Germany",51.613194,8.617736,http://www.airport-pad.com/,Büren,Germany,DE,+49 2955 770
SQW,EKSV,Skive Airport,"Skive, Denmark",56.55353,9.164274,http://www.eksv.dk/,Højslev,Denmark,DK,+45 97 53 57 77
RMN,,Rumginae Airport,"Rumginae, Papua New Guinea",-5.8970685,141.27173,,Rumginae,Papua New Guinea,PG,
MNY,AGGO,Mono Airport,"Mono Island, Treasury Islands, Solomon Islands",-7.4172115,155.56447,,,Solomon Islands,SB,
PAE,KPAE,Paine Field (Snohomish County Airport),"Everett, Washington, United States",47.907578,-122.28085,http://painefield.com/,Everett,United States,US,+1 425-353-2110
PAG,RPMP,Pagadian Airport,"Pagadian, Philippines",7.8305397,123.46239,,Pagadian City,Philippines,PH,
BKS,WIPL,Fatmawati Soekarno Airport,"Bengkulu, Indonesia",-3.8605714,102.33933,,,Indonesia,ID,+62 736 51040
PAH,KPAH,Barkley Regional Airport,"Paducah, Kentucky, United States",37.061245,-88.76751,http://www.barkleyregional.com/,West Paducah,United States,US,+1 270-744-0521
UYU,SLUY,Uyuni Airport (Joya Andina Airport),"Uyuni, Bolivia",-20.448431,-66.84096,,,Bolivia,BO,
PAN,VTSK,Pattani Airport,"Pattani, Thailand",6.7860346,101.15174,http://minisite.airports.go.th/pattani/,Bo Thong,Thailand,TH,+66 73 341 301
PAO,KPAO,Palo Alto Airport (Santa Clara County Airport),"Palo Alto, California, United States",37.45501,-122.110794,http://www.cityofpaloalto.org/gov/depts/pwd/palo_alto_airport/default.asp,Palo Alto,United States,US,+1 650-329-2444
PAP,MTPP,Toussaint L'Ouverture International Airport,"Port-au-Prince, Haiti",18.575655,-72.29489,http://pap.aan-haiti.com/,Port-au-Prince,Haiti,HT,+509 48 65 6436
PEI,SKPE,Matecaña International Airport,"Pereira, Colombia",4.81521,-75.73631,http://www.aeromate.gov.co/,Pereira,Colombia,CO,+57 6 3148151
BKW,KBKW,Raleigh County Memorial Airport,"Beckley, West Virginia, United States",37.791668,-81.12345,http://www.flybeckley.com/,Beaver,United States,US,+1 304-255-0476
PLJ,,Placencia Airport,"Placencia, Belize",16.537516,-88.361565,http://www.mayaislandair.com/,Placencia,Belize,BZ,+501 523-3443
NSI,FKYS,Yaoundé Nsimalen International Airport,"Yaoundé, Cameroon",3.7149162,11.547693,http://www.adcsa.aero/index.php?id=13,Yaounde,Cameroon,CM,+237 2 22 21 22 21
PNL,LICG,Pantelleria Airport,"Pantelleria, Sicily, Italy",36.815033,11.967049,http://www.aeroportodipantelleria.it/,,Italy,IT,+39 0923 911172
PNQ,VAPO,Pune Airport,"Pune, Maharashtra, India",18.579344,73.90892,http://www.puneairport.com/,Pune,India,IN,+91 20 2668 3232
PSE,TJPS,Mercedita Airport,"Ponce, Puerto Rico",18.009071,-66.56258,http://www.prpa.gobierno.pr/,Ponce,Puerto Rico,PR,+1 787-840-3151
PSF,KPSF,Pittsfield Municipal Airport,"Pittsfield, Massachusetts, United States",42.425343,-73.29078,http://cityofpittsfield.org/city_hall/airport/index.php,Pittsfield,United States,US,+1 413-448-9790
BLA,SVBC,General José Antonio Anzoátegui International Airport,"Barcelona, Venezuela",10.104063,-64.6822,http://aigdjaa.baer.gob.ve/,Barcelona,Venezuela,VE,+58 281-2752035
URY,OEGT,Gurayat Domestic Airport,"Qurayyat (Gurayat), Saudi Arabia",31.409966,37.2752,,Al Qurayyat,Saudi Arabia,SA,+966 14 642 0009
PSK,KPSK,New River Valley Airport,"Dublin, Virginia, United States",37.13842,-80.68123,http://www.nrvairport.com/,Dublin,United States,US,+1 540-674-4141
UTS,UUYX,Ust-Tsilma Airport,"Ust-Tsilma, Komi Republic, Russia",0.0,0.0,,,,,
PSP,KPSP,Palm Springs International Airport,"Palm Springs, California, United States",33.83032,-116.50705,http://www.palmspringsca.gov/government/departments/aviation-palm-springs-international-airport-psp,Palm Springs,United States,US,+1 760-318-3800
PSR,LIBP,Abruzzo Airport,"Pescara, Abruzzo, Italy",42.430027,14.188132,http://www.abruzzoairport.com/,Pescara,Italy,IT,+39 895 898 9512
INF,DATG,In Guezzam Airport,"In Guezzam, Algeria",19.563534,5.751027,,In Guezzam,Algeria,DZ,+213 29 33 01 47
BRQ,LKTB,Brno–Tuřany Airport,"Brno, Czech Republic",49.152233,16.693352,http://www.brno-airport.cz/,Brno,Czechia,CZ,+420 545 521 310
PPW,EGEP,Papa Westray Airport,"Papa Westray, Scotland, United Kingdom",59.34995,-2.901301,,,United Kingdom,GB,
OFI,DIOF,Ouango Fitini Airport,"Ouango Fitini, Ivory Coast",0.0,0.0,,,,,
NJA,RJTA,Naval Air Facility Atsugi,"Atsugi, Honshu, Japan",35.458183,139.44789,http://www.city.ayase.kanagawa.jp/hp/page000020100/hpg000020060.htm,Ayase,Japan,JP,+81 467-78-2664
VCE,LIPZ,Venice Marco Polo Airport,"Venice, Veneto, Italy",45.506313,12.34752,http://www.veniceairport.it/,Venezia,Italy,IT,+39 041 260 9260
NKA,,Nkan Airport,"Ntoum (Nkan), Gabon",0.0,0.0,,,,,
NMT,VYNT,Namtu Airport,"Namtu, Myanmar",22.978498,97.75242,,Lashio,Myanmar (Burma),MM,+95 82 23 954
NNA,GMMY,Kenitra Air Base,"Kenitra, Morocco",34.29861,-6.594722,,Kenitra,Morocco,MA,
NND,,Nangade Airport,"Nangade, Mozambique",0.0,0.0,,,,,
NKG,ZSNJ,Nanjing Lukou International Airport,"Nanjing, Jiangsu, China",31.73359,118.871445,http://www.njiairport.com/,Nanjing Shi,China,CN,
NKM,RJNA,Nagoya Airfield (Komaki Airport),"Nagoya, Honshu, Japan",35.2539,136.91974,http://www.nagoya-airport-bldg.co.jp/,豊山町,Japan,JP,+81 568-28-5633
NKP,,Nukutepipi Airport,"Nukutepipi, Tuamotus, French Polynesia",-18.064793,-140.95824,,,French Polynesia,PF,+689 87 70 29 04
NLD,MMNL,Quetzalcóatl International Airport,"Nuevo Laredo, Tamaulipas, Mexico",27.449276,-99.56896,,Nuevo Laredo,Mexico,MX,+52 867 718 1332
BRS,EGGD,Bristol Airport,"Bristol, England, United Kingdom",51.38363,-2.7135463,http://www.bristolairport.co.uk/,,United Kingdom,GB,+44 871 334 4444
NLE,,Jerry Tyler Memorial Airport (FAA: 3TR),"Niles, Michigan, United States",41.840687,-86.22575,"http://www.michigan.gov/aero/0,4533,7-145-61367_61379-277633--,00.html",Niles,United States,US,+1 269-684-7031
UNT,,Baltasound Airport,"Unst, Scotland, United Kingdom",60.189285,-1.2465222,http://www.shetland.gov.uk/transport/internal_air.asp,,United Kingdom,GB,+44 1595 840246
NLH,,Ninglang Luguhu Airport,"Ninglang, Yunnan, China",0.0,0.0,,,,,
AHU,GMTA,Cherif Al Idrissi Airport,"Al Hoceima, Morocco",0.0,0.0,,,,,
NLI,UHNN,Nikolayevsk-on-Amur Airport,"Nikolayevsk-on-Amur, Khabarovsk Krai, Russia",53.14998,140.66348,,,Russia,RU,
BRD,KBRD,Brainerd Lakes Regional Airport,"Brainerd, Minnesota, United States",46.393047,-94.141266,http://brainerdairport.com/,Brainerd,United States,US,+1 218-825-2166
BRE,EDDW,Bremen Airport,"Bremen, Bremen, Germany",53.04797,8.785873,http://www.airport-bremen.de/,Bremen,Germany,DE,+49 421 55950
BRM,SVBM,Jacinto Lara International Airport,"Barquisimeto, Venezuela",10.046086,-69.35981,http://aijl.baer.gob.ve/,Barquisimeto,Venezuela,VE,+58 251-7188379
NLK,YSNF,Norfolk Island Airport,"Norfolk Island, Australia",-29.035355,167.94319,http://www.airport.gov.nf/,Burnt Pine,Norfolk Island,NF,+672 3 22445
BRN,LSZB,Bern Airport,"Bern, Switzerland",46.912224,7.499167,http://www.flughafenbern.ch/,Belp,Switzerland,CH,+41 31 960 21 11
BRU,EBBR,Brussels Airport (Zaventem Airport),"Brussels, Belgium",50.900997,4.4855742,http://www.brusselsairport.be/,Zaventem,Belgium,BE,+32 2 753 77 53
NLN,,Kneeland Airport (FAA: O19),"Arcata / Eureka, California, United States",40.7193,-123.92755,,Kneeland,United States,US,+1 707-839-5401
BSD,ZPBS,Baoshan Yunduan Airport,"Baoshan, Yunnan, China",25.051563,99.165794,,Baoshan,China,CN,+86 875 223 2266
BSN,FEFS,Bossangoa Airport,"Bossangoa, Central African Republic",6.4923935,17.42887,,,Central African Republic,CF,
NLO,FZAB,N'Dolo Airport,"Kinshasa, Democratic Republic of the Congo",-4.327222,15.325833,,Kinshasa,Democratic Republic of the Congo,CD,+243 898 520 293
NLP,FANS,Nelspruit Airport,"Nelspruit, South Africa",-25.50065,30.913607,http://www.kmiairport.co.za/,Nelspruit,South Africa,ZA,+27 13 753 7500
NLT,ZWNL,Xinyuan Nalati Airport,"Xinyuan, Xinjiang, China",43.433056,83.38028,,Ili,China,CN,
GOC,AYGX,Gora Airport,"Gora, Papua New Guinea",0.0,0.0,,,,,
MJA,FMSJ,Manja Airport,"Manja, Madagascar",-21.426426,44.31715,,Manja,Madagascar,MG,
NLV,UKON,Mykolaiv International Airport,"Mykolaiv, Ukraine",47.05665,31.9181,http://airport-mk.com/,Balovne,Ukraine,UA,+380 512 475 503
NNR,EICA,Connemara Airport,"Spiddal, Ireland",53.232235,-9.4694195,http://www.aerarannislands.ie/,,Ireland,IE,+353 91 593 034
NNT,VTCN,Nan Nakhon Airport,"Nan, Thailand",18.802912,100.78496,https://taxi-service-1099.business.site/,เมือง,Thailand,TH,+66 89 263 1281
NNU,SNNU,Nanuque Airport,"Nanuque, Minas Gerais, Brazil",-17.823866,-40.32825,,,Brazil,BR,
NOC,EIKN,Ireland West Airport Knock,"Knock, Ireland",53.913795,-8.81122,http://www.irelandwestairport.com/,,Ireland,IE,+353 94 936 8100
NOK,SWXV,Nova Xavantina Airport,"Nova Xavantina, Mato Grosso, Brazil",-14.696853,-52.349033,,,Brazil,BR,
NOS,FMNN,Fascene Airport,"Nosy Be, Madagascar",-13.311881,48.314404,,,Madagascar,MG,
NOT,KDVO,Marin County Airport (Gnoss Field) (FAA: DVO),"Novato, California, United States",38.14185,-122.55686,http://www.gnossfield.org/,Novato,United States,US,+1 415-897-1754
NOU,NWWW,La Tontouta International Airport,"Nouméa, New Caledonia",-22.015373,166.21342,http://www.tontouta-aeroport.nc/,La Tontouta,New Caledonia,NC,+687 35.11.18
NOV,FNHU,Albano Machado Airport,"Huambo, Angola",-12.803149,15.749518,,Huambo,Angola,AO,+244 946 973 640
BLE,ESSD,Dala Airport (Borlänge Airport),"Borlänge, Sweden",60.429535,15.507836,http://www.dalaflyget.se/,,Sweden,SE,+46 243 645 00
NPH,,Nephi Municipal Airport (FAA: U14),"Nephi, Utah, United States",39.73829,-111.86701,https://www.nephi.utah.gov/148/J-Randy-McKnight-Nephi-Municipal-Airport,Nephi,United States,US,+1 435-623-0822
BSP,AYBH,Bensbach Airport,"Bensbach, Papua New Guinea",0.0,0.0,,,,,
NPL,NZNP,New Plymouth Airport,"New Plymouth, New Zealand",-39.009815,174.17888,http://nplairport.co.nz/,New Plymouth,New Zealand,NZ,+64 6-759 6060
NQY,EGDG,Newquay Airport,"Newquay, England, United Kingdom",50.44262,-5.0061073,http://www.cornwallairportnewquay.com/,,United Kingdom,GB,+44 1637 860600
BTA,FKKO,Bertoua Airport,"Bertoua, Cameroon",0.0,0.0,,,,,
VIR,FAVG,Virginia Airport,"Durban, South Africa",37.50658,-77.32081,http://www.flyrichmond.com/,Richmond,United States,US,+1 804-226-3000
NRA,YNAR,Narrandera Airport,"Narrandera, New South Wales, Australia",-34.70424,146.51207,http://www.narrandera.nsw.gov.au/cp_themes/default/home.asp,Narrandera,Australia,AU,
NSE,KNSE,NAS Whiting Field – North,"Milton, Florida, United States",30.714333,-87.01789,http://www.cnic.navy.mil/regions/cnrse/installations/nas_whiting_field.html,Milton,United States,US,+1 850-623-7177
NSH,OINN,Noshahr Airport,"Nowshahr, Iran",36.660187,51.46917,,Nowshahr,Iran,IR,+98 11 5232 3113
NSV,YNSH,Noosa Airport,"Noosaville, Queensland, Australia",-26.603842,153.08997,https://www.sunshinecoastairport.com.au/,Marcoola,Australia,AU,+61 1300 993 543
NSN,NZNS,Nelson Airport,"Nelson, New Zealand",-41.299698,173.2248,http://www.nelsonairport.co.nz/,Nelson,New Zealand,NZ,+64 3-547 3199
NTX,WION,Ranai Airport,"Natuna Islands, Indonesia",3.9057925,108.38804,,,Indonesia,ID,
BUD,LHBP,Budapest Ferenc Liszt International Airport,"Budapest, Hungary",47.438457,19.252296,http://www.bud.hu/,Budapest,Hungary,HU,+36 1 296 7000
NUA,,Gregory Lake Seaplane Base,"Nuwara Eliya, Sri Lanka",0.0,0.0,,,,,
NSY,LICZ,Naval Air Station Sigonella,"Catania, Sicily, Italy",37.408962,14.911271,,Lentini,Italy,IT,
BUF,KBUF,Buffalo Niagara International Airport,"Buffalo, New York, United States",42.939705,-78.72951,http://buffaloairport.com/,Buffalo,United States,US,+1 716-630-6000
NTB,ENNO,"Notodden Airport, Tuven","Notodden, Norway",59.565563,9.218413,http://www.notodden-flyplass.no/,,Norway,NO,+47 35 02 60 70
RUP,VERU,Rupsi Airport,"Rupsi, Assam, India",0.0,0.0,,,,,
RVN,EFRO,Rovaniemi Airport,"Rovaniemi, Finland",66.5631,25.830078,http://www.finavia.fi/lentoasemat/lentoasema_rovaniemi,Rovaniemi,Finland,FI,+358 20 7086506
RVT,YNRV,Ravensthorpe Airport,"Ravensthorpe, Western Australia, Australia",-33.79683,120.209435,http://www.ravensthorpe.wa.gov.au/explore/getting-in-around/airport.aspx,Hopetoun,Australia,AU,
RVY,SURV,Pres. Gral. Óscar D. Gestido International Airport,"Rivera, Uruguay",-30.974445,-55.476665,,Rivera,Uruguay,UY,+598 4622 4921
RZE,EPRZ,Rzeszów–Jasionka Airport,"Rzeszów, Poland",50.114826,22.024597,http://www.rzeszowairport.pl/,Jasionka,Poland,PL,+48 17 852 00 81
RZR,OINR,Ramsar International Airport,"Ramsar, Iran",36.904915,50.682606,http://ramsar.airport.ir/,Ramsar,Iran,IR,+98 11 5522 6377
DEC,KDEC,Decatur Airport,"Decatur, Illinois, United States",39.834724,-88.866394,http://www.decatur-parks.org/airport-home-page/,Decatur,United States,US,+1 217-428-2423
DED,VIDN,Jolly Grant Airport,"Dehradun, Uttarakhand, India",30.194925,78.19205,https://www.aai.aero/en/airports/dehradun,Dehradun,India,IN,+91 135 241 2052
DEE,UHSM,Yuzhno-Kurilsk Mendeleyevo Airport,"Yuzhno-Kurilsk, Sakhalin Oblast, Russia",0.0,0.0,,,,,
KPM,AYAQ,Kompiam Airport,"Kompiam, Papua New Guinea",0.0,0.0,,,,,
YPN,CYPN,Port-Menier Airport,"Port-Menier, Quebec, Canada",49.836575,-64.29117,,Port-Menier,Canada,CA,+1 418-535-0327
DEH,KDEH,Decorah Municipal Airport,"Decorah, Iowa, United States",43.275677,-91.73642,,Decorah,United States,US,+1 563-382-8338
DEL,VIDP,Indira Gandhi International Airport,"Delhi, India",28.556162,77.09996,http://www.newdelhiairport.in/,New Delhi,India,IN,+91 124 337 6000
YPY,CYPY,Fort Chipewyan Airport,"Fort Chipewyan, Alberta, Canada",58.76766,-111.116936,,Fort Chipewyan,Canada,CA,
DEN,KDEN,Denver International Airport,"Denver, Colorado, United States",39.8561,-104.67374,http://www.flydenver.com/,Denver,United States,US,+1 303-342-2000
DER,AYDE,Derim Airport,"Derim, Papua New Guinea",0.0,0.0,,,,,
DET,KDET,Coleman A. Young International Airport,"Detroit, Michigan, United States",0.0,0.0,,,,,
DEZ,OSDZ,Deir ez-Zor Airport,"Deir ez-Zor, Syria",35.285114,40.176243,,,Syria,SY,
DFI,KDFI,Defiance Memorial Airport,"Defiance, Ohio, United States",41.3375,-84.42889,,Defiance,United States,US,+1 419-658-4444
DFW,KDFW,Dallas/Fort Worth International Airport,"Dallas / Fort Worth, Texas, United States",32.89981,-97.04034,http://www.dfwairport.com/,DFW Airport,United States,US,+1 972-973-3112
DGN,KNDY,Naval Surface Warfare Center Dahlgren Division (FAA: NDY),"Dahlgren, Virginia, United States",38.326836,-77.03744,http://www.navsea.navy.mil/Home/WarfareCenters/NSWCDahlgren.aspx,Dahlgren,United States,US,+1 540-653-8152
DGO,MMDO,General Guadalupe Victoria International Airport,"Durango, Durango, Mexico",24.126003,-104.5339,https://www.oma.aero/es/pasajeros/durango,Durango,Mexico,MX,+52 618 118 7012
DGP,EVDA,Daugavpils International Airport,"Daugavpils, Latvia",55.944946,26.667326,,Lociki,Latvia,LV,
DGU,DFOD,Dédougou Airport,"Dédougou, Burkina Faso",0.0,0.0,,,,,
DGW,KDGW,Converse County Airport,"Douglas, Wyoming, United States",42.79465,-105.384186,,Douglas,United States,US,+1 307-358-4924
DHA,OEDR,King Abdulaziz Air Base,"Dhahran, Saudi Arabia",0.0,0.0,,,,,
DHI,VNDH,Dhangadhi Airport,"Dhangadhi, Nepal",28.755316,80.58257,http://www.caanepal.org.np/,Attariya,Nepal,NP,+977 91-575219
BLO,BIBL,Blönduós Airport,"Blönduós, Iceland",65.64908,-20.287558,,,Iceland,IS,+354 452 4205
DHL,ODAL,Dhala Airport,"Dhala, Yemen",0.0,0.0,,,,,
MKB,FOOE,Mékambo Airport,"Mékambo, Gabon",1.0062702,13.962936,,,Gabon,GA,
RZS,OPSW,Sawan Airport,"Sawan, Pakistan",26.966324,68.880104,,,Pakistan,PK,
SAA,KSAA,Shively Field,"Saratoga, Wyoming, United States",41.44486,-106.823524,http://saratogajetcenter.com/,Saratoga,United States,US,+1 307-326-8344
SAG,,Shirdi Airport,"Shirdi, Maharashtra, India",19.689978,74.37544,https://madc.maharashtra.gov.in/,Kakadi,India,IN,+91 22 4921 2121
SAT,KSAT,San Antonio International Airport,"San Antonio, Texas, United States",29.531197,-98.468346,http://www.sanantonio-airport.com/,San Antonio,United States,US,+1 210-207-3433
SAW,LTFJ,Sabiha Gökçen International Airport,"Istanbul, Turkey",40.905373,29.31686,http://www.sabihagokcen.aero/homepage,,Turkey,TR,+90 216 588 88 88
BOY,DFOO,Bobo Dioulasso Airport,"Bobo-Dioulasso, Burkina Faso",11.160496,-4.329764,,Bobo-Dioulasso,Burkina Faso,BF,+226 20 97 00 70
SBA,KSBA,Santa Barbara Municipal Airport,"Santa Barbara, California, United States",34.427193,-119.83988,http://www.flysba.com/,Santa Barbara,United States,US,+1 805-683-4011
SCF,KSDL,Scottsdale Airport (FAA: SDL),"Phoenix / Scottsdale, Arizona, United States",33.647293,-111.89705,https://www.faa.gov/about/office_org/field_offices/fsdo/sdl/,Scottsdale,United States,US,+1 480-419-0111
SCN,EDDR,Saarbrücken Airport,"Saarbrücken, Saarland, Germany",49.216484,7.1116257,http://www.flughafen-saarbruecken.de/,Saarbrücken,Germany,DE,+49 6893 830
SCQ,LEST,Santiago de Compostela Airport,"Santiago de Compostela, Galicia, Spain",42.896717,-8.416198,http://www.aena.es/es/aeropuerto-santiago/index.html,Santiago de Compostela,Spain,ES,+34 913 21 10 00
SCS,EGPM,Scatsta Airport,"Shetland Islands, Scotland, United Kingdom",60.43631,-1.2941219,,,United Kingdom,GB,+44 1806 244310
SCT,OYSQ,Socotra Airport,"Socotra, Yemen",12.463421,53.82374,,,Yemen,YE,
SCU,MUCU,Antonio Maceo International Airport,"Santiago de Cuba, Cuba",19.97,-75.835556,http://www.cubana.cu/,Santiago de Cuba,Cuba,CU,
SCV,LRSV,Suceava International Airport (Ștefan cel Mare Int'l),"Suceava, Romania",47.6868,26.352686,http://www.aeroportsuceava.ro/,Orașul Salcea,Romania,RO,+40 230 529 999
YXT,CYXT,Northwest Regional Airport,"Terrace, British Columbia, Canada",33.04966,-97.23226,http://www.fly52f.org/,Roanoke,United States,US,+1 682-237-9039
DHM,VIGG,Gaggal Airport,"Kangra, Himachal Pradesh, India",32.165157,76.26255,,Gaggal,India,IN,+91 189 223 2374
SDL,ESNN,Sundsvall-Timrå Airport (Midlanda Airport),"Sundsvall / Härnösand, Sweden",62.528316,17.445328,http://www.sdlairport.se/,,Sweden,SE,+46 60 658 39 00
DHN,KDHN,Dothan Regional Airport,"Dothan, Alabama, United States",31.321655,-85.45243,http://www.flydothan.com/,Midland City,United States,US,+1 334-983-8100
SDQ,MDSD,Las Américas International Airport,"Santo Domingo, Dominican Republic",18.431953,-69.6721,http://www.aerodom.com/app/do/frontpage.aspx,Santo Domingo,Dominican Republic,DO,+1 809-947-2225
YTB,,Hartley Bay Water Aerodrome (TC: CAY4),"Hartley Bay, British Columbia, Canada",0.0,0.0,,,,,
DHT,KDHT,Dalhart Municipal Airport,"Dalhart, Texas, United States",36.020798,-102.54988,https://www.airnav.com/airport/KDHT/LARSEN,Dalhart,United States,US,+1 806-244-5521
DIB,VEMN,Dibrugarh Airport (Mohanbari Airport),"Dibrugarh, Assam, India",27.485765,95.01594,,Dibrugarh,India,IN,+91 373 238 2096
DIE,FMNA,Arrachart Airport,"Antsiranana, Madagascar",-12.351111,49.294167,,Antisiranana,Madagascar,MG,
YWY,CYWY,Wrigley Airport,"Wrigley, Northwest Territories, Canada",63.210953,-123.44007,,Wrigley,Canada,CA,
YXJ,CYXJ,Fort St. John Airport (North Peace Airport),"Fort St. John, British Columbia, Canada",56.245636,-120.735146,http://www.fsjairport.com/,Fort Saint John,Canada,CA,+1 250-787-0426
DIG,ZPDQ,Diqing Shangri-La Airport,"Shangri-La, Yunnan, China",27.793146,99.68186,http://www.ynairport.com/,Diqing Zangzuzizhizhou,China,CN,+86 887 822 9916
DIJ,LFSD,Dijon Air Base,"Dijon, Burgundy, France",47.272694,5.0861135,http://www.dijon.aeroport.fr/,Ouges,France,FR,+33 3 80 67 67 67
DIK,KDIK,Dickinson Theodore Roosevelt Regional Airport,"Dickinson, North Dakota, United States",46.801666,-102.792885,http://www.dickinsonairport.com/,Dickinson,United States,US,+1 701-483-1062
DIL,WPDL,Presidente Nicolau Lobato International Airport,"Dili, East Timor",-8.54956,125.52487,,Díli,Timor-Leste,TL,+92 302 4015555
DIM,DIDK,Dimbokro Airport,"Dimbokro, Ivory Coast",0.0,0.0,,,,,
DIN,VVDB,Dien Bien Phu Airport,"Dien Bien Phu, Vietnam",21.400822,103.00595,http://dienbienairport.vn/,Thành phố Điện Biên Phủ,Vietnam,VN,+84 215 3824 411
DIQ,SNDV,Divinópolis Airport (Brigadeiro Cabral Airport),"Divinópolis, Minas Gerais, Brazil",-20.175137,-44.87465,,,Brazil,BR,
DIS,FCPL,Dolisie Airport,"Dolisie, Republic of the Congo",-4.2066555,12.660199,,Dolisie,Republic of the Congo,CG,
DIU,,Diu Airport,"Diu, Daman and Diu, India",20.71332,70.925,,Diu,India,IN,
DIV,DIDV,Divo Airport,"Divo, Ivory Coast",0.0,0.0,,,,,
DIY,LTCC,Diyarbakır Airport,"Diyarbakır, Turkey",37.894848,40.1995,http://www.diyarbakir.dhmi.gov.tr/,,Turkey,TR,+90 412 233 27 19
DJB,WIPA,Sultan Thaha Airport,"Jambi, Indonesia",-1.6324292,103.64325,http://www.sultanthaha-airport.co.id/,,Indonesia,ID,+62 741 572344
DKK,KDKK,Chautauqua County/Dunkirk Airport,"Dunkirk, New York, United States",42.49269,-79.27849,http://www.dkkav.com/,Dunkirk,United States,US,+1 716-366-6938
DKS,UODD,Dikson Airport,"Dikson, Krasnoyarsk Krai, Russia",73.51772,80.37545,,,Russia,RU,
DMB,UADD,Taraz Airport (Jambyl Airport),"Taraz, Kazakhstan",42.866356,71.29338,http://dmb.aero/,Taraz,Kazakhstan,KZ,+7 726 254 2600
DME,UUDD,Domodedovo International Airport,"Moscow, Russia",55.410305,37.90245,http://www.domodedovo.ru/,,Russia,RU,+7 495 933-66-66
DMK,VTBD,Don Mueang International Airport,"Bangkok, Thailand",13.91326,100.6042,http://donmueangairportthai.com/th,,Thailand,TH,+66 2 535 1111
ZFD,CZFD,Fond-du-Lac Airport,"Fond-du-Lac, Saskatchewan, Canada",59.335125,-107.18445,,Fond-du-Lac,Canada,CA,+1 306-953-3263
ZEL,CBBC,Bella Bella (Campbell Island) Airport,"Bella Bella, British Columbia, Canada",52.18117,-128.15463,http://www.heiltsukdevelopment.com/,,Canada,CA,
BMK,EDWR,Borkum Airfield,"Borkum, Lower Saxony, Germany",53.595795,6.711302,http://www.stadtwerke-borkum.de/,Borkum,Germany,DE,+49 4922 3848
SDR,LEXJ,Santander Airport,"Santander, Cantabria, Spain",43.42632,-3.821053,http://www.aena.es/es/aeropuerto-santander/index.html,Maliaño,Spain,ES,+34 913 21 10 00
BMM,FOOB,Bitam Airport,"Bitam, Gabon",2.0789185,11.490356,,Bitam,Gabon,GA,+241 06 14 13 02
ZGS,,La Romaine Airport (TC: CTT5),"La Romaine, Quebec, Canada",50.259724,-60.679443,,,Canada,CA,
SDU,SBRJ,Santos Dumont Airport,"Rio de Janeiro, Rio de Janeiro, Brazil",-22.911144,-43.164875,http://www4.infraero.gov.br/aeroportos/aeroporto-do-rio-de-janeiro-santos-dumont/,,Brazil,BR,+55 21 3814-7070
BOZ,FEGZ,Bozoum Airport,"Bozoum, Central African Republic",6.341356,16.322466,,,Central African Republic,CF,
SEA,KSEA,Seattle–Tacoma International Airport,"Seattle, Washington, United States",47.45025,-122.308815,http://www.portseattle.org/Sea-Tac,Seattle,United States,US,+1 206-787-5388
YZX,CYZX,CFB Greenwood,"Greenwood, Nova Scotia, Canada",44.978336,-64.92149,http://www.rcaf-arc.forces.gc.ca/en/14-wing/index.page,Greenwood,Canada,CA,+1 902-765-1494 ext. 5374
SEK,UESK,Srednekolymsk Airport,"Srednekolymsk, Yakutia, Russia",0.0,0.0,,,,,
SEN,EGMC,London Southend Airport,"London / Southend, England, United Kingdom",51.570034,0.6939053,http://www.southendairport.com/,Essex,United Kingdom,GB,+44 1702 538500
SEV,,Severodonetsk Airport,"Severodonetsk, Ukraine",48.90232,38.5406,,,Ukraine,UA,
SIU,MNSI,Siuna Airport,"Siuna, Nicaragua",13.72849,-84.777245,,Siuna,Nicaragua,NI,
SJY,EFSI,Seinäjoki Airport,"Seinäjoki, Finland",62.690495,22.83583,http://www.seinajoenlentoasema.fi/,Pojanluoma,Finland,FI,+358 6 4219611
SKB,TKPK,Robert L. Bradshaw International Airport,"Saint Kitts, Saint Kitts and Nevis",17.311506,-62.718426,,Basseterre,Saint Kitts and Nevis,KN,+1 869-465-8121
SKD,UTSS,Samarkand International Airport,"Samarkand, Uzbekistan",39.69633,66.99087,,Samarkand,Uzbekistan,UZ,+998 66 232 36 41
SKE,ENSN,"Skien Airport, Geiteryggen","Skien, Norway",59.184654,9.567133,http://www.skienlufthavn.no/,,Norway,NO,+47 35 58 36 50
RED,KRVL,Mifflin County Airport (FAA: RVL),"Reedsville / Lewistown, Pennsylvania, United States",40.677284,-77.626175,http://mifflincountyairport.com/,Reedsville,United States,US,+1 717-667-6829
JQA,BGUQ,Qaarsut Airport (Uummannaq/Qaarsut Airport),"Qaarsut, Greenland",70.73369,-52.69487,,,Greenland,GL,+299 95 76 99
DJJ,WAJJ,Sentani Airport,"Jayapura, Indonesia",-2.5748985,140.51498,,,Indonesia,ID,+62 967 591107
DJO,DIDL,Daloa Airport,"Daloa, Ivory Coast",6.79281,-6.47319,,,Côte d'Ivoire,CI,+225 07 45 11 68
ZAC,CZAC,York Landing Airport,"York Landing, Manitoba, Canada",56.087597,-96.099174,http://www.yfki.ca/,,Canada,CA,+1 204-341-2236
DKR,GOOY,Léopold Sédar Senghor International Airport,"Dakar, Senegal",14.744207,-17.491457,http://www.aeroport-dakar.com/,Dakar,Senegal,SN,+221 33 869 50 50
SON,NVSS,Santo-Pekoa International Airport,"Luganville, Vanuatu",-15.505412,167.21968,http://www.airports.vu/,Luganville,Vanuatu,VU,+678 712 0166
DLB,,Dalbertis Airport,"Dalbertis, Papua New Guinea",0.0,0.0,,,,,
RMI,LIPR,Federico Fellini International Airport,"Rimini, Emilia-Romagna, Italy",44.020145,12.611991,http://www.riminiairport.com/,"Miramare, Rimini",Italy,IT,+39 0541 379800
RMQ,RCMQ,Taichung Airport (Taichung Ching Chuan Kang Airport),"Taichung, Taiwan",24.263996,120.623856,https://www.tca.gov.tw/cht/index.php?,,Taiwan,TW,+886 4 2615 5000
RNE,LFLO,Roanne Renaison Airport,"Roanne, Rhône-Alpes, France",46.052727,4.004058,http://www.skydiveroanne.fr/,Saint-Léger-sur-Roanne,France,FR,+33 6 51 95 99 70
DLE,LFGJ,Dole–Jura Airport,"Dole, Franche-Comté, France",47.04369,5.424575,http://www.aeroportdolejura.com/,Tavaux,France,FR,+33 3 84 72 04 26
DLF,KDLF,Laughlin Air Force Base,"Del Rio, Texas, United States",29.356558,-100.78308,,Laughlin Air Force Base,United States,US,
DLH,KDLH,Duluth International Airport,"Duluth, Minnesota, United States",46.84211,-92.18754,http://www.duluthairport.com/,Duluth,United States,US,+1 218-727-2968
RNG,,Rangely Airport (FAA: 4V0),"Rangely, Colorado, United States",40.089497,-108.768036,,Rangely,United States,US,+1 970-675-2316
RNN,EKRN,Bornholm Airport,"Rønne, Denmark",55.062874,14.761109,http://www.bornholms-lufthavn.dk/,Rønne,Denmark,DK,+45 56 95 26 26
RNO,KRNO,Reno–Tahoe International Airport,"Reno, Nevada, United States",39.49959,-119.7681,http://www.renoairport.com/,Reno,United States,US,+1 775-328-6400
DLI,VVDL,Lien Khuong Airport,"Da Lat, Vietnam",11.750342,108.36818,http://lienkhuongairport.vn/,,Vietnam,VN,+84 263 3843 373
SCE,KUNV,University Park Airport (FAA: UNV),"State College, Pennsylvania, United States",40.849987,-77.84869,http://www.universityparkairport.com/,State College,United States,US,+1 814-865-5511
DLL,KDLC,Dillon County Airport (FAA: DLC),"Dillon, South Carolina, United States",34.44838,-79.37208,https://nfdc.faa.gov/nfdcApps/airportLookup/airportDisplay.jsp?category=nasr&airportId=DLC,Dillon,United States,US,+1 843-774-2636
